Name,Charity Number,Local authority,Postcode,Latitude,Longitude,IntermediateZone2011Code,DataZone2011Code
St Peters Episcopal Church: Fraserburgh,SC000068,Aberdeenshire,AB43 8TN,57.66540516,-1.97505009,S02001339,S01007104
Bruce Bequest,SC008449,Aberdeenshire,AB43 5XS,57.6383992,-1.95580725,S02001339,S01007104
Lonmay Parish Church of Scotland,SC008813,Aberdeenshire,AB43 8XS,57.63539123,-1.95912688,S02001339,S01007104
Fraserburgh West Parish Church Of Scotland,SC016334,Aberdeenshire,AB43 8XT,57.62898989,-1.92608037,S02001339,S01007104
Huntly Stroke Club,SC000090,Aberdeenshire,AB54 8PZ,57.446999,-2.79767455,S02001321,S01007012
Networks of Wellbeing Ltd,SC021861,Aberdeenshire,AB54 8SX,57.44522771,-2.79935208,S02001321,S01007012
Huntly ASDitude,SC047934,Aberdeenshire,AB54 8SX,57.44522771,-2.79935208,S02001321,S01007012
Mcrobert Mortification Forglen,SC000358,Aberdeenshire,AB45 1AN,57.66386525,-2.52352697,S02001326,S01007032
Whitehills Parish Church Of Scotland,SC002085,Aberdeenshire,AB45 1LA,57.66958583,-2.53242705,S02001326,S01007032
Mcrobert Mortification Gamrie,SC003618,Aberdeenshire,AB45 1AN,57.66386525,-2.52352697,S02001326,S01007032
Banff Castle Community Association,SC009962,Aberdeenshire,AB45 1DL,57.66583388,-2.52316983,S02001326,S01007032
Simpson Trust,SC014008,Aberdeenshire,AB45 1AN,57.66386525,-2.52352697,S02001326,S01007032
Macduff Parish Church of Scotland,SC015786,Aberdeenshire,AB45 1JX,57.66852206,-2.53120452,S02001326,S01007032
Princess Royal Sports & Community Trust (SCIO),SC023857,Aberdeenshire,AB45 1AZ,57.66293653,-2.52002742,S02001326,S01007032
Home-Start Deveron,SC026191,Aberdeenshire,AB45 1AF,57.66478335,-2.52089192,S02001326,S01007032
Banff Preservation Society,SC028199,Aberdeenshire,AB45 1DL,57.66583388,-2.52316983,S02001326,S01007032
Imagine at Twenty Seven,SC046605,Aberdeenshire,AB45 1AU,57.66397982,-2.52188605,S02001326,S01007032
The Banff Boys' Brigade Hall Trust ,SC047941,Aberdeenshire,AB45 1DR,57.66701205,-2.52498037,S02001326,S01007032
"Banff, Macduff and District Men's Shed",SC048855,Aberdeenshire,AB45 1JJ,57.66949453,-2.52417809,S02001326,S01007032
Inverallochy & Rathen East Parish Church Of Scotland,SC000375,Aberdeenshire,AB43 8YA,57.67620242,-1.92896908,S02001339,S01007105
Roads Project,SC032484,Aberdeenshire,AB43 8YL,57.67820891,-1.93542054,S02001339,S01007105
St Combs Community Church,SC035619,Aberdeenshire,AB43 8YL,57.67820891,-1.93542054,S02001339,S01007105
Udny Station Community Assoc,SC000412,Aberdeenshire,AB41 6QJ,57.31024312,-2.15389758,S02001316,S01006981
Udny Station Pre-School & Playgroup,SC017150,Aberdeenshire,AB41 6QJ,57.31024312,-2.15389758,S02001316,S01006981
1st Udny Brownies,SC041755,Aberdeenshire,AB41 7RN,57.32943275,-2.10860479,S02001316,S01006981
Cultercullen Community Park SCIO,SC046002,Aberdeenshire,AB41 6QQ,57.30710159,-2.12769283,S02001316,S01006981
BiPolar Aberdeen,SC046976,Aberdeenshire,AB41 6PS,57.33359716,-2.13951154,S02001316,S01006981
John Hunter Trust,SC000428,Aberdeenshire,AB12 5GJ,57.08142875,-2.26233924,S02001296,S01006853
John Hunter Prize Fund,SC007550,Aberdeenshire,AB12 5GJ,57.08142875,-2.26233924,S02001296,S01006853
Maryculter Trinity Church Of Scotland,SC013648,Aberdeenshire,AB12 5FS,57.08384663,-2.23445792,S02001296,S01006853
Blaikiewell Animal Sanctuary,SC026054,Aberdeenshire,AB12 5FS,57.08384663,-2.23445792,S02001296,S01006853
1st Maryculter Scout Group,SC035590,Aberdeenshire,AB12 5GT,57.05885279,-2.24979803,S02001296,S01006853
The Maryculter Woodlands Trust ,SC044224,Aberdeenshire,AB12 5BZ,57.08270692,-2.23860813,S02001296,S01006853
St Annes Episcopal Church: Kemnay,SC000474,Aberdeenshire,AB51 5LY,57.24649717,-2.45782168,S02001305,S01006910
Fetternear Hall Trust,SC009387,Aberdeenshire,AB51 5LS,57.24474447,-2.49137107,S02001305,S01006910
Aboyne Highland Games,SC040590,Aberdeenshire,AB51 5PQ,57.23293887,-2.41743418,S02001305,S01006910
Grange Parish Trust,SC000502,Aberdeenshire,AB42 1TP,57.50657064,-1.78062047,S02001336,S01007086
Banff & Buchan Citizens Advice Bureau,SC008276,Aberdeenshire,AB42 1BY,57.50478578,-1.77700995,S02001336,S01007086
Peterhead Schools Ambulance Car Trust,SC009314,Aberdeenshire,AB42 1HY,57.50522677,-1.77749121,S02001336,S01007086
Peterhead Harbour Medical Health Trust,SC010385,Aberdeenshire,AB42 1HY,57.50522677,-1.77749121,S02001336,S01007086
Age Peterhead,SC011107,Aberdeenshire,AB42 1TD,57.50550941,-1.77987587,S02001336,S01007086
Cairnbulg Boathaven Limited,SC011963,Aberdeenshire,AB42 1HY,57.50522677,-1.77749121,S02001336,S01007086
James Rhind Trust,SC013893,Aberdeenshire,AB42 1TS,57.50640652,-1.77921963,S02001336,S01007086
Community Of Feuars Of The Town Of Peterhead,SC014875,Aberdeenshire,AB42 1HY,57.50522677,-1.77749121,S02001336,S01007086
Alex Lyon's Trust,SC016855,Aberdeenshire,AB42 1TP,57.50657064,-1.78062047,S02001336,S01007086
John Robertson Mortification Trust,SC024687,Aberdeenshire,AB42 1TP,57.50657064,-1.78062047,S02001336,S01007086
Disabled Persons Housing Service (Aberdeenshire) Ltd,SC030874,Aberdeenshire,AB42 1UU,57.50806036,-1.77982715,S02001336,S01007086
Apex Church Peterhead,SC035128,Aberdeenshire,AB42 1BY,57.50478578,-1.77700995,S02001336,S01007086
4th Peterhead Rainbow Unit,SC038407,Aberdeenshire,AB42 1HY,57.50522677,-1.77749121,S02001336,S01007086
The Whitehill Trust,SC040475,Aberdeenshire,AB42 1HY,57.50522677,-1.77749121,S02001336,S01007086
Shape Up Peterhead SCIO,SC048643,Aberdeenshire,AB42 1US,57.50960586,-1.78011828,S02001336,S01007086
The Buchan Giving Tree (SCIO),SC051256,Aberdeenshire,AB42 1ZP,57.50550222,-1.78091057,S02001336,S01007086
"Portsoy Church, Church Of Scotland",SC000522,Aberdeenshire,AB45 2QE,57.6752465,-2.6949916,S02001324,S01007026
Rev Wm Simmers Memorial Fund,SC008089,Aberdeenshire,AB45 2QJ,57.67714971,-2.69355252,S02001324,S01007026
Portsoy Out Of School Club Limited,SC035539,Aberdeenshire,AB45 2RB,57.68043554,-2.68729348,S02001324,S01007026
1st Portsoy Rainbow Unit,SC045307,Aberdeenshire,AB45 2NT,57.68233173,-2.69207518,S02001324,S01007026
Portsoy Community Church,SC046193,Aberdeenshire,AB45 2RS,57.68415615,-2.68860494,S02001324,S01007026
Strathbogie Drumblade Church of Scotland Huntly,SC000534,Aberdeenshire,AB54 8AS,57.44224648,-2.78632574,S02001321,S01007010
Huntly Minibus Committee,SC006835,Aberdeenshire,AB54 8BA,57.44538697,-2.78401059,S02001321,S01007010
Huntly Day Care Centre For The Elderly,SC009167,Aberdeenshire,AB54 8AT,57.44220977,-2.79075644,S02001321,S01007010
Alex Scott Hospital Eventide Home,SC016300,Aberdeenshire,AB54 8DL,57.447302,-2.7851846,S02001321,S01007010
Huntly Educational Trust 1997,SC026920,Aberdeenshire,AB54 8AE,57.44730538,-2.78608442,S02001321,S01007010
Air Training Corps No 1298 Huntly Non-Public Sports and Welfare Fund,SC030354,Aberdeenshire,AB54 8DT,57.44678905,-2.78389065,S02001321,S01007010
Lewis Grassic Gibbon Centre,SC000826,Aberdeenshire,AB30 1NA,56.86302542,-2.32062082,S02001289,S01006812
Arbuthnott Community Association,SC002701,Aberdeenshire,AB30 1NA,56.86302542,-2.32062082,S02001289,S01006812
St David of Scotland Episcopal Church,SC023283,Aberdeenshire,AB30 1NA,56.86302542,-2.32062082,S02001289,S01006812
Grassic Gibbon Arts Group,SC036152,Aberdeenshire,AB30 1NA,56.86302542,-2.32062082,S02001289,S01006812
Camphill Mearns Limited,SC037066,Aberdeenshire,AB30 1PB,56.86904458,-2.33085896,S02001289,S01006812
Insch-Leslie-Premnay-Oyne Church of Scotland,SC000935,Aberdeenshire,AB52 6HX,57.34299492,-2.61320452,S02001319,S01007001
Insch Institute,SC008182,Aberdeenshire,AB52 6JL,57.34159944,-2.61384581,S02001319,S01007001
Insch School Parent Teacher Association,SC030381,Aberdeenshire,AB52 6JH,57.34136485,-2.61221374,S02001319,S01007001
1st Insch Guide Unit,SC034787,Aberdeenshire,AB52 6JB,57.34155735,-2.61510776,S02001319,S01007001
5th Inverurie Brownie Pack,SC036216,Aberdeenshire,AB52 6JF,57.34214128,-2.61141257,S02001319,S01007001
Kinord Hall Management Committee,SC000944,Aberdeenshire,AB34 5LQ,57.08759247,-2.9094532,S02001300,S01006879
Tarland Welfare Trust,SC008030,Aberdeenshire,AB34 4YS,57.11570435,-2.86857872,S02001300,S01006879
Logie Coldstone Trust,SC011363,Aberdeenshire,AB34 4XS,57.15809424,-2.93280734,S02001300,S01006879
Cromar Volunteer Patient Transport Group,SC041665,Aberdeenshire,AB34 4XB,57.13894903,-2.89225609,S02001300,S01006879
Cromar Future Group,SC047033,Aberdeenshire,AB34 4TR,57.11771852,-2.80364374,S02001300,S01006879
Logie Coldstone School Parent Council,SC049622,Aberdeenshire,AB34 5PQ,57.12663967,-2.93325491,S02001300,S01006879
Wairds Park Committee,SC000950,Aberdeenshire,DD10 0EP,56.79564513,-2.32900032,S02001288,S01006810
Johnshaven Hall Association,SC007973,Aberdeenshire,DD10 0HJ,56.79280874,-2.34146596,S02001288,S01006810
Benholm & Johnshaven Heritage Society,SC020534,Aberdeenshire,DD10 0HU,56.8211297,-2.31221873,S02001288,S01006810
Johnshaven First Responders,SC044100,Aberdeenshire,DD10 0HE,56.79288926,-2.33829085,S02001288,S01006810
Fraserburgh Heritage Society Ltd,SC000959,Aberdeenshire,AB43 9AU,57.69183323,-2.00470442,S02001343,S01007127
Fishermens Benevolent Society Fraserburgh & District,SC011820,Aberdeenshire,AB43 9ET,57.69394385,-2.00834476,S02001343,S01007127
Auld Kirk Nursery,SC012462,Aberdeenshire,AB43 9HH,57.69464441,-2.00915012,S02001343,S01007127
Fraserburgh Old Church of Scotland,SC013119,Aberdeenshire,AB43 9HH,57.69464441,-2.00915012,S02001343,S01007127
Enable Fraserburgh Branch,SC021039,Aberdeenshire,AB43 9DJ,57.69495894,-2.00678494,S02001343,S01007127
Fraserburgh Community Web Limited,SC038352,Aberdeenshire,AB43 9AS,57.69164458,-2.00512373,S02001343,S01007127
Fraserburgh Development Trust,SC041968,Aberdeenshire,AB43 9HP,57.69406964,-2.00785833,S02001343,S01007127
RCCG - The Leading Light,SC045541,Aberdeenshire,AB43 9EQ,57.69325231,-2.00693557,S02001343,S01007127
Fraserburgh Link Up Youth Football Club,SC037587,Aberdeenshire,AB43 9BB,57.69026133,-2.00493902,S02001343,S01007127
Broch Community First Responders,SC048173,Aberdeenshire,AB43 9HP,57.69406964,-2.00785833,S02001343,S01007127
St Congans Episcopal Church: Turriff,SC001003,Aberdeenshire,AB53 8HJ,57.53587086,-2.43684352,S02001322,S01007013
Monquhitter & New Byth Parish Church Of Scotland,SC010291,Aberdeenshire,AB53 5TN,57.55751737,-2.36051234,S02001322,S01007013
"St Andrews Parish Church of Scotland, Turriff",SC015620,Aberdeenshire,AB53 5RL,57.57807223,-2.4311959,S02001322,S01007013
Friends of Turriff and Banff MS Group,SC040833,Aberdeenshire,AB53 5TD,57.54805995,-2.41289718,S02001322,S01007013
Marnoch Church of Scotland,SC001107,Aberdeenshire,AB54 7PS,57.58193748,-2.63663593,S02001325,S01007029
1st Turriff Rainbow Unit,SC031193,Aberdeenshire,AB45 3YD,57.57829778,-2.55309813,S02001325,S01007029
1st Turriff Brownie Unit,SC031194,Aberdeenshire,AB45 3YD,57.57829778,-2.55309813,S02001325,S01007029
2nd Turriff Brownie Unit,SC031195,Aberdeenshire,AB45 3YD,57.57829778,-2.55309813,S02001325,S01007029
3rd Turriff Brownie Unit,SC031196,Aberdeenshire,AB45 3YD,57.57829778,-2.55309813,S02001325,S01007029
2nd Turriff Guide Unit,SC031197,Aberdeenshire,AB45 3YD,57.57829778,-2.55309813,S02001325,S01007029
Friends Of Forglen Hall,SC031649,Aberdeenshire,AB45 3YD,57.57829778,-2.55309813,S02001325,S01007029
The Marnoch Memorial Hall Association Ltd,SC040999,Aberdeenshire,AB54 7TX,57.56787305,-2.60696866,S02001325,S01007029
Turriff Baden Powell Centre Management SCIO,SC043225,Aberdeenshire,AB45 3YD,57.57829778,-2.55309813,S02001325,S01007029
Ythan Biodiversity Volunteers,SC001149,Aberdeenshire,AB41 8AL,57.37105514,-2.06056015,S02001313,S01006961
2nd Ellon Rainbows,SC038232,Aberdeenshire,AB41 8AE,57.37356009,-2.06302524,S02001313,S01006961
Huntly Cairnie Glass Church of Scotland,SC001405,Aberdeenshire,AB54 8DG,57.44715933,-2.79076331,S02001321,S01007008
Kintore Parish Church Of Scotland,SC001406,Aberdeenshire,AB51 0XA,57.22177071,-2.35065489,S02001306,S01006922
Royal Deeside Railway Preservation Society,SC027686,Aberdeenshire,AB51 0YB,57.20893591,-2.41211405,S02001306,S01006922
Fordyce Community Association,SC001445,Aberdeenshire,AB45 2SW,57.6623915,-2.74715558,S02001324,S01007024
Cornhill Village Community Trust,SC017925,Aberdeenshire,AB45 2AY,57.60997538,-2.69729302,S02001324,S01007024
Cornhill Under Five Group,SC018867,Aberdeenshire,AB45 2EX,57.59768648,-2.72923077,S02001324,S01007024
1st Cornhill Rainbows,SC034421,Aberdeenshire,AB45 2HB,57.59435596,-2.7335304,S02001324,S01007024
Fyvie Church Of Scotland,SC001475,Aberdeenshire,AB53 8SA,57.46433401,-2.36614485,S02001318,S01006993
Woodhead & Windyhills Community Trust Ltd,SC032520,Aberdeenshire,AB53 8RQ,57.45815893,-2.34200003,S02001318,S01006993
Muchalls Village Association,SC001627,Aberdeenshire,AB39 3XP,57.02265936,-2.1627361,S02001290,S01006820
Cookney Public Hall,SC041175,Aberdeenshire,AB39 3SN,57.01040231,-2.21316607,S02001290,S01006820
1st Muchalls and Newtonhill Brownie Unit,SC048221,Aberdeenshire,AB39 3XS,57.02159322,-2.16052438,S02001290,S01006820
Muchalls Village Association (SCIO),SC049292,Aberdeenshire,AB39 3RP,57.02167171,-2.16235296,S02001290,S01006820
"Christ Church, Kincardine O'neil",SC001675,Aberdeenshire,AB31 4BA,57.06174207,-2.62585449,S02001299,S01006873
Inchmarlo Community Workshop (SCIO),SC050344,Aberdeenshire,AB31 4DY,57.0707476,-2.59361452,S02001299,S01006873
Finzean Community Association,SC001676,Aberdeenshire,AB31 6NU,57.02260718,-2.63542523,S02001286,S01006798
Birse Community Trust,SC028220,Aberdeenshire,AB31 6NY,57.03126547,-2.65493144,S02001286,S01006798
Finzean School of Piping,SC042481,Aberdeenshire,AB31 6PA,57.02619405,-2.65240421,S02001286,S01006798
Ballogie Community Association,SC047754,Aberdeenshire,AB34 5DN,57.05149049,-2.69107481,S02001286,S01006798
The Seed Box Limited,SC050056,Aberdeenshire,AB34 5DT,57.04838938,-2.7043024,S02001286,S01006798
Newmachar Pre School Playgroup,SC001720,Aberdeenshire,AB21 0FP,57.2640319,-2.19523388,S02001311,S01006948
Newmachar Thursday Club,SC023542,Aberdeenshire,AB21 0RD,57.26420998,-2.19624612,S02001311,S01006948
2nd Newmachar Guide Unit,SC035806,Aberdeenshire,AB21 0PN,57.26514422,-2.19039867,S02001311,S01006948
2nd Newmachar Rainbow Unit,SC039043,Aberdeenshire,AB21 7PR,57.25696526,-2.18133938,S02001311,S01006948
Newmachar First Responders,SC039811,Aberdeenshire,AB21 0PL,57.26491758,-2.19175698,S02001311,S01006948
Newmachar United Football Club,SC046446,Aberdeenshire,AB21 0PU,57.26566124,-2.1930043,S02001311,S01006948
St Thomas Church: Aboyne,SC001755,Aberdeenshire,AB34 5JF,57.07363144,-2.80026544,S02001286,S01006795
Lord Glentanar's Trust For St Thomas' Church - Emoluments Augmentation Fund,SC005824,Aberdeenshire,AB34 5JF,57.07363144,-2.80026544,S02001286,S01006795
Aboyne And Glen Tanar Memorial Hall,SC016210,Aberdeenshire,AB34 5HY,57.07586065,-2.78729872,S02001286,S01006795
Cromar And District Horticultural And Industrial Society,SC023060,Aberdeenshire,AB34 5HJ,57.07474099,-2.78534512,S02001286,S01006795
Mid Deeside Community Trust,SC027750,Aberdeenshire,AB34 5HY,57.07586065,-2.78729872,S02001286,S01006795
Scottish Episcopal Church Chapel Of St Ninian,SC035160,Aberdeenshire,AB34 5JF,57.07363144,-2.80026544,S02001286,S01006795
Mid Deeside Community First Responders,SC037411,Aberdeenshire,AB34 5JF,57.07363144,-2.80026544,S02001286,S01006795
Aboyne Playgroup,SC041050,Aberdeenshire,AB34 5JN,57.07489593,-2.7935463,S02001286,S01006795
Deeside Runners,SC046934,Aberdeenshire,AB34 5JF,57.07363144,-2.80026544,S02001286,S01006795
St Marys Episcopal Church Inverurie,SC001766,Aberdeenshire,AB52 6HW,57.3442037,-2.62314388,S02001319,S01007000
St Drostans Episcopal Church: Insch,SC016023,Aberdeenshire,AB52 6HW,57.3442037,-2.62314388,S02001319,S01007000
Premnay Village Hall Committee,SC023055,Aberdeenshire,AB52 6QE,57.31263993,-2.60424906,S02001319,S01007000
Insch Connection,SC028432,Aberdeenshire,AB52 6HW,57.3442037,-2.62314388,S02001319,S01007000
1st Insch Brownie Unit,SC031883,Aberdeenshire,AB52 6GD,57.3444806,-2.61982553,S02001319,S01007000
1st Premnay Rainbows,SC042752,Aberdeenshire,AB52 6GD,57.3444806,-2.61982553,S02001319,S01007000
Garioch Camera Club,SC048063,Aberdeenshire,AB52 6XG,57.33621463,-2.61098183,S02001319,S01007000
Newtonhill Community Hall Assoc,SC002063,Aberdeenshire,AB39 3UL,57.03094162,-2.14850528,S02001293,S01006839
Newtonhill And District Village Association,SC016305,Aberdeenshire,AB39 3PW,57.03044082,-2.14659224,S02001293,S01006839
Newtonhill Out Of School Club,SC029882,Aberdeenshire,AB39 3UL,57.03094162,-2.14850528,S02001293,S01006839
1st Newtonhill Rainbow Unit,SC033966,Aberdeenshire,AB39 3TR,57.03221046,-2.14663217,S02001293,S01006839
Skateraw Hall,SC050019,Aberdeenshire,AB39 3UN,57.0306939,-2.1452588,S02001293,S01006839
Auchenblae Parks Committee,SC002248,Aberdeenshire,AB30 1WQ,56.89690685,-2.45007057,S02001289,S01006811
Auchenblae & District Community Association,SC026926,Aberdeenshire,AB30 1XQ,56.89825727,-2.449266,S02001289,S01006811
St Laurence/St Palladius Joint Stipend Fund,SC029355,Aberdeenshire,AB30 1SX,56.88976668,-2.44709605,S02001289,S01006811
1st Auchenblae Brownie Unit,SC040167,Aberdeenshire,AB30 1ZQ,56.89762438,-2.45039111,S02001289,S01006811
1st Auchenblae Scout Group,SC041427,Aberdeenshire,AB30 1SE,56.87635379,-2.49031552,S02001289,S01006811
Glenbervie & District Community Association SCIO,SC043814,Aberdeenshire,AB30 1UA,56.92293027,-2.41688882,S02001289,S01006811
Kemnay Tuesday Centre,SC002518,Aberdeenshire,AB51 5NJ,57.23612773,-2.44366147,S02001302,S01006891
Kiddiwinks,SC013019,Aberdeenshire,AB51 5NE,57.23503505,-2.44018609,S02001302,S01006891
1st Stop Parent And Toddler Group,SC034009,Aberdeenshire,AB51 5QP,57.23420814,-2.44287639,S02001302,S01006891
3rd Inverurie Guide Unit,SC034469,Aberdeenshire,AB51 5RN,57.23489951,-2.44296752,S02001302,S01006891
The River Church,SC044982,Aberdeenshire,AB51 5NE,57.23503505,-2.44018609,S02001302,S01006891
Greener Kemnay,SC046497,Aberdeenshire,AB51 5NB,57.23429834,-2.4453126,S02001302,S01006891
Positive Steps Kemnay,SC048370,Aberdeenshire,AB51 5NB,57.23429834,-2.4453126,S02001302,S01006891
Kemnay School Parent Group,SC049628,Aberdeenshire,AB51 5RA,57.23265464,-2.44525964,S02001302,S01006891
Kemnay Breakfast and After School Club SCIO,SC050536,Aberdeenshire,AB51 5RA,57.23265464,-2.44525964,S02001302,S01006891
Gordondale Trust,SC002659,Aberdeenshire,AB53 8RD,57.43335737,-2.38861956,S02001318,S01006991
Fyvie Playgroup,SC004182,Aberdeenshire,AB53 8RD,57.43335737,-2.38861956,S02001318,S01006991
Daviot Village Hall SCIO,SC002979,Aberdeenshire,AB51 0NF,57.34434618,-2.41972838,S02001317,S01006989
Daviot Parish Church Of Scotland,SC003254,Aberdeenshire,AB51 0HW,57.34224403,-2.41707937,S02001317,S01006989
Inverurie West Church of Scotland,SC016907,Aberdeenshire,AB51 5AA,57.3674268,-2.46466448,S02001317,S01006989
North East Aberdeenshire Members Centre The National Trust For Scotland,SC024227,Aberdeenshire,AB51 0NF,57.34434618,-2.41972838,S02001317,S01006989
1st Pitcaple Rainbow Unit,SC034902,Aberdeenshire,AB51 5AA,57.3674268,-2.46466448,S02001317,S01006989
3rd Inverurie Rainbow Unit,SC038511,Aberdeenshire,AB51 0HT,57.32197853,-2.38031905,S02001317,S01006989
Meldrum Community Garden Project,SC039753,Aberdeenshire,AB51 0NF,57.34434618,-2.41972838,S02001317,S01006989
Daviot Community Trust,SC041081,Aberdeenshire,AB51 0NF,57.34434618,-2.41972838,S02001317,S01006989
Zero Carbon Daviot,SC051060,Aberdeenshire,AB51 0HZ,57.34335979,-2.41651052,S02001317,S01006989
Ballater Amenities Committee,SC003111,Aberdeenshire,AB35 5RE,57.04863203,-3.0418847,S02001285,S01006789
Ballater & District Medical Amenities Association,SC009653,Aberdeenshire,AB35 5RE,57.04863203,-3.0418847,S02001285,S01006789
Ballater (Rd) Limited,SC026254,Aberdeenshire,AB35 5QW,57.04557381,-3.04125514,S02001285,S01006789
Ballater Toddler Group,SC032297,Aberdeenshire,AB35 5QR,57.0470276,-3.04144417,S02001285,S01006789
Royal British Legion Scotland Ballater Branch,SC041882,Aberdeenshire,AB35 5RP,57.04989328,-3.04684879,S02001285,S01006789
Fintray Kinellar Keithall Church Of Scotland,SC003115,Aberdeenshire,AB21 0TW,57.20755212,-2.28637571,S02001307,S01006925
Crudie Playgroup,SC003181,Aberdeenshire,AB53 5QD,57.60460005,-2.34565077,S02001328,S01007045
Crovie Preservation Society Limited,SC015892,Aberdeenshire,AB45 3JQ,57.67973141,-2.32423233,S02001328,S01007045
King Edward Parent and Toddler Group,SC023861,Aberdeenshire,AB53 5QH,57.6044685,-2.33783505,S02001328,S01007045
Inverbervie Burgh Hall Comm Of Management,SC003242,Aberdeenshire,DD10 0PN,56.84337099,-2.28681568,S02001289,S01006817
Gourdon Mission Hall Committee,SC012452,Aberdeenshire,DD10 0TF,56.8824784,-2.25684012,S02001289,S01006817
1st Inverbervie Scout Group,SC032989,Aberdeenshire,DD10 0TJ,56.86903279,-2.23261834,S02001289,S01006817
Banchory-Ternan West Parish Church of Scotland,SC003306,Aberdeenshire,AB31 5TB,57.05179261,-2.50564892,S02001298,S01006867
1st Banchory Guides,SC033469,Aberdeenshire,AB31 5SB,57.05540916,-2.51099003,S02001298,S01006867
5th Banchory Brownies,SC033472,Aberdeenshire,AB31 5TB,57.05179261,-2.50564892,S02001298,S01006867
Ferryhill Railway Heritage Trust SCIO,SC040039,Aberdeenshire,AB31 5RS,57.05418616,-2.51130293,S02001298,S01006867
Banchory & District Initiative Limited,SC041630,Aberdeenshire,AB31 5SQ,57.05401422,-2.50497027,S02001298,S01006867
Banchory & District Mens Shed,SC045943,Aberdeenshire,AB31 5TF,57.05555887,-2.50509016,S02001298,S01006867
The Green Shoots Trust,SC048648,Aberdeenshire,AB31 5TB,57.05179261,-2.50564892,S02001298,S01006867
4th Banchory Rainbow Unit,SC049782,Aberdeenshire,AB31 4AA,57.05460861,-2.51780399,S02001298,S01006867
Kemnay Congregation Of Jehovahs Witnesses,SC003357,Aberdeenshire,AB51 0LJ,57.28376828,-2.32833724,S02001305,S01006912
Gordon Group riding for the Disabled Association,SC028676,Aberdeenshire,AB51 0LU,57.2730526,-2.348025,S02001305,S01006912
Aberdeenshire Life Education Centre (ALEC),SC028726,Aberdeenshire,AB51 5TB,57.25792163,-2.37432089,S02001305,S01006912
Garioch Sports Centre,SC047470,Aberdeenshire,AB51 5TB,57.25792163,-2.37432089,S02001305,S01006912
Garioch Sports and Community Centre Holdings,SC047471,Aberdeenshire,AB51 5TB,57.25792163,-2.37432089,S02001305,S01006912
Cluny Church Of Scotland,SC003429,Aberdeenshire,AB51 7JW,57.19150741,-2.49683538,S02001301,S01006880
Cluny & Millbank Under Fives Group,SC022734,Aberdeenshire,AB51 7JR,57.20097762,-2.48714815,S02001301,S01006880
Cluny School Fund,SC048772,Aberdeenshire,AB51 7JQ,57.19785989,-2.50099183,S02001301,S01006880
Hatton Playgroup,SC003543,Aberdeenshire,AB42 0QL,57.42749641,-1.91369633,S02001333,S01007071
Hatton Public Playing Field & Public Hall,SC010594,Aberdeenshire,AB42 0QX,57.42427707,-1.92202935,S02001333,S01007071
Woodside Playgroup,SC003699,Aberdeenshire,AB31 5ZP,57.05930343,-2.48500983,S02001297,S01006859
Banchory Primary School Parent Teacher Association,SC037830,Aberdeenshire,AB31 5ZG,57.05814329,-2.48995727,S02001297,S01006859
SCILL- Supporting children in learning for life (SCIO),SC048188,Aberdeenshire,AB31 5ZG,57.05814329,-2.48995727,S02001297,S01006859
Banchory Stonehaven Athletics Club,SC050348,Aberdeenshire,AB31 5UN,57.05689226,-2.48595107,S02001297,S01006859
Lumphanan Pre-School Playgroup,SC003732,Aberdeenshire,AB31 4SU,57.12923541,-2.68727012,S02001300,S01006876
Friends Of Aboyne Hospital,SC006891,Aberdeenshire,AB31 4QF,57.1305933,-2.68864987,S02001300,S01006876
N E Scotland Suffolk Sheep Club,SC021285,Aberdeenshire,AB31 4SB,57.15802325,-2.74908703,S02001300,S01006876
Royal British Legion Scotland - Lumphanan Branch,SC036041,Aberdeenshire,AB31 4SL,57.13016768,-2.6892697,S02001300,S01006876
Lumphanan Heritage Society,SC046151,Aberdeenshire,AB31 4PW,57.12742518,-2.68482494,S02001300,S01006876
Aboyne Juvenile Football Club,SC048419,Aberdeenshire,AB31 4TH,57.12987841,-2.69123009,S02001300,S01006876
St Matthew and St George Scottish Episcopal Church Oldmeldrum,SC003796,Aberdeenshire,AB51 0GW,57.33239169,-2.31812455,S02001317,S01006985
1st Daviot Oldmeldrum Scout Group,SC034207,Aberdeenshire,AB51 0BF,57.33382855,-2.32180782,S02001317,S01006985
1st Pitcaple Scouts,SC036256,Aberdeenshire,AB51 0BF,57.33382855,-2.32180782,S02001317,S01006985
Making Meldrum Better Charity,SC039748,Aberdeenshire,AB51 0AB,57.33391365,-2.31659297,S02001317,S01006985
Oldmeldrum Sports Committee,SC046030,Aberdeenshire,AB51 0BG,57.3339041,-2.32036339,S02001317,S01006985
Miss Edith Coutts Charitable Trust,SC003893,Aberdeenshire,AB34 5AE,57.08969852,-2.65908032,S02001299,S01006869
Kincardine O'neil Public Hall,SC017359,Aberdeenshire,AB34 5BA,57.089834,-2.70355358,S02001299,S01006869
Banchory Day Centre,SC020354,Aberdeenshire,AB34 5AY,57.09392055,-2.69889462,S02001299,S01006869
North East Scotland Preservation Trust,SC003953,Aberdeenshire,AB39 2DE,56.96789455,-2.21256111,S02001292,S01006833
Stonehaven Fetteresso Church of Scotland,SC011191,Aberdeenshire,AB39 2DH,56.96764778,-2.21502672,S02001292,S01006833
Stonehaven & District Talking Newspaper Association,SC024910,Aberdeenshire,AB39 2EB,56.96641134,-2.21312827,S02001292,S01006833
Mackie Rugby Football Club,SC051025,Aberdeenshire,AB39 2DX,56.96765355,-2.21688523,S02001292,S01006833
Aberchirder Area Day Club (Day Care),SC003965,Aberdeenshire,AB54 7TL,57.56258994,-2.62382914,S02001325,S01007030
1st Macduff Rainbow Unit,SC039348,Aberdeenshire,AB54 7TD,57.56124453,-2.62524351,S02001325,S01007030
1st Aberchirder Rainbow Unit,SC039355,Aberdeenshire,AB54 7SL,57.56579665,-2.61836776,S02001325,S01007030
McRobert Park Association Limited,SC044229,Aberdeenshire,AB54 7SW,57.56073024,-2.63111788,S02001325,S01007030
Aberchirder & District Community Association SCIO,SC048579,Aberdeenshire,AB54 7TF,57.56346218,-2.61816102,S02001325,S01007030
1st Marnoch Scout Group,SC050741,Aberdeenshire,AB54 7SJ,57.56474869,-2.61958693,S02001325,S01007030
Blairdaff And Chapel Of Garioch Church Of Scotland,SC004050,Aberdeenshire,AB51 5HF,57.30587729,-2.47162203,S02001305,S01006914
King George V Memorial Hall Chapel Of Garioch,SC008767,Aberdeenshire,AB51 5HH,57.30930386,-2.46570682,S02001305,S01006914
Grampian Yoga Association,SC016624,Aberdeenshire,AB51 5HF,57.30587729,-2.47162203,S02001305,S01006914
Logie Durno Hall Committee,SC017591,Aberdeenshire,AB51 5EE,57.32546056,-2.49713145,S02001305,S01006914
1st Pitcaple Brownie Unit,SC031408,Aberdeenshire,AB51 5HU,57.29458037,-2.48251144,S02001305,S01006914
Jenna's Fund Charitable Trust,SC034795,Aberdeenshire,AB51 5DX,57.32455361,-2.44424553,S02001305,S01006914
Pitcaple Environmental Project SCIO,SC036745,Aberdeenshire,AB51 5DY,57.32736623,-2.45153688,S02001305,S01006914
Colony Park Football Club ,SC048571,Aberdeenshire,AB51 5HN,57.31676979,-2.48208837,S02001305,S01006914
Oyne Victoria Hall (SCIO),SC049220,Aberdeenshire,AB52 6HQ,57.32907109,-2.51950155,S02001305,S01006914
Fraserburgh South Park School Parent/Teacher Association,SC004163,Aberdeenshire,AB43 9QJ,57.68161966,-2.01449597,S02001340,S01007114
3rd Fraserburgh Brownie Unit,SC039310,Aberdeenshire,AB43 9QJ,57.68161966,-2.01449597,S02001340,S01007114
Y Suffer in Silence ,SC047267,Aberdeenshire,AB43 9NL,57.68239147,-2.01935933,S02001340,S01007114
St Andrews Episcopal Church: Fasque,SC004188,Aberdeenshire,AB30 1HJ,56.82774466,-2.46664174,S02001287,S01006805
St Palladius & Joint Charges Drumtochty,SC005688,Aberdeenshire,AB30 1HJ,56.82774466,-2.46664174,S02001287,S01006805
Laurencekirk Scout Group,SC011699,Aberdeenshire,AB30 1BG,56.82926652,-2.46806989,S02001287,S01006805
Mearns Coastal Parish Church Of Scotland,SC011997,Aberdeenshire,DD10 0DJ,56.79185822,-2.39274403,S02001287,S01006805
St Laurence Episcopal Church: Laurencekirk,SC016285,Aberdeenshire,AB30 1HJ,56.82774466,-2.46664174,S02001287,S01006805
Mearns And Coastal Healthy Living Network,SC038980,Aberdeenshire,AB30 1AB,56.8340495,-2.46467166,S02001287,S01006805
1st Laurencekirk Brownies,SC040431,Aberdeenshire,AB30 1FF,56.83311354,-2.46511892,S02001287,S01006805
1st Auchenblae Rainbow Unit,SC043451,Aberdeenshire,AB30 1HD,56.83088968,-2.46402618,S02001287,S01006805
2nd Laurencekirk Rainbow Unit,SC044332,Aberdeenshire,AB30 1DW,56.8300969,-2.46942395,S02001287,S01006805
Mearns Minibus Link,SC049513,Aberdeenshire,AB30 1BJ,56.83228805,-2.46725545,S02001287,S01006805
St Cyrus Benevolent Fund,SC004237,Aberdeenshire,DD10 0DA,56.76862301,-2.42662768,S02001288,S01006809
Elisabeth Davidson Memorial Benevolent Trust,SC005988,Aberdeenshire,DD10 0AX,56.77158625,-2.41640293,S02001288,S01006809
St Cyrus Public Library Reading Room and Hall Trust,SC018237,Aberdeenshire,DD10 0AX,56.77158625,-2.41640293,S02001288,S01006809
St Cyrus Pavilion Project,SC047963,Aberdeenshire,DD10 0BH,56.77591271,-2.4174981,S02001288,S01006809
Maud Village Hall Trustees,SC004336,Aberdeenshire,AB42 4NE,57.52088671,-2.12920861,S02001330,S01007051
New Deer St Kane's Church of Scotland,SC007917,Aberdeenshire,AB42 4RL,57.52251887,-2.13176884,S02001330,S01007051
Buchan Dial-A-Community Bus,SC031183,Aberdeenshire,AB42 4NH,57.52167848,-2.12792588,S02001330,S01007051
Maud and Community Early Years,SC032450,Aberdeenshire,AB42 4NB,57.52012854,-2.13271179,S02001330,S01007051
1st Maud Brownie Unit,SC033392,Aberdeenshire,AB42 4NJ,57.52210502,-2.13240177,S02001330,S01007051
Buchan Development Partnership,SC034008,Aberdeenshire,AB42 4ND,57.5199028,-2.1338295,S02001330,S01007051
Maud Village Trust,SC034067,Aberdeenshire,AB42 4NE,57.52088671,-2.12920861,S02001330,S01007051
1st Maud Guide Unit,SC039384,Aberdeenshire,AB42 4NJ,57.52210502,-2.13240177,S02001330,S01007051
1st Maud Rainbow Unit,SC040332,Aberdeenshire,AB42 4NJ,57.52210502,-2.13240177,S02001330,S01007051
Maud Pleasure Park Committee SCIO,SC049641,Aberdeenshire,AB42 4NP,57.52146824,-2.13146453,S02001330,S01007051
Bairnecessities Baby Bank,SC050423,Aberdeenshire,AB42 4NL,57.52326039,-2.12694636,S02001330,S01007051
Royal British Legion Scotland Old Meldrum Branch,SC004429,Aberdeenshire,AB51 0AA,57.33524394,-2.3198103,S02001317,S01006987
Meldrum After School Klub,SC029972,Aberdeenshire,AB51 0AA,57.33524394,-2.3198103,S02001317,S01006987
Meldrum And Bourtie Heritage Society,SC030413,Aberdeenshire,AB51 0DB,57.3352551,-2.31539194,S02001317,S01006987
Tag Group (The Adult Group),SC035071,Aberdeenshire,AB51 0FP,57.33530674,-2.31270144,S02001317,S01006987
Crombie Primary School Parent Teacher Association,SC004476,Aberdeenshire,AB32 6XZ,57.1559718,-2.28237301,S02001309,S01006940
Gordon Guide Association,SC022674,Aberdeenshire,AB32 6WU,57.15422862,-2.28654168,S02001309,S01006940
1st Westhill Girl Guide Unit,SC035469,Aberdeenshire,AB32 6WU,57.15422862,-2.28654168,S02001309,S01006940
3rd Westhill Brownies,SC040924,Aberdeenshire,AB32 6WU,57.15422862,-2.28654168,S02001309,S01006940
Westhill & Kingswells First Responders,SC044719,Aberdeenshire,AB32 6LL,57.15437028,-2.28350133,S02001309,S01006940
Great North of Scotland Railway Association,SC050156,Aberdeenshire,AB32 6UZ,57.15469895,-2.29292579,S02001309,S01006940
Monymusk Parish Church of Scotland,SC004525,Aberdeenshire,AB51 7HF,57.22872262,-2.52375388,S02001301,S01006886
Sir Francis & Lady Grant Charitable Trust Funds,SC009032,Aberdeenshire,AB51 7HF,57.22872262,-2.52375388,S02001301,S01006886
Monymusk Playgroup & Toddlers,SC016984,Aberdeenshire,AB51 7HJ,57.22646483,-2.52448372,S02001301,S01006886
Monymusk Village Hall Management Committee,SC038241,Aberdeenshire,AB51 7HJ,57.22646483,-2.52448372,S02001301,S01006886
Monymusk-Cluny After School Club (SCIO) ,SC046100,Aberdeenshire,AB51 7HJ,57.22646483,-2.52448372,S02001301,S01006886
Garioch Rugby Football Club SCIO,SC049855,Aberdeenshire,AB51 7SQ,57.20855685,-2.55483795,S02001301,S01006886
Westdyke Leisure Centre,SC004675,Aberdeenshire,AB32 6QX,57.152278,-2.29864208,S02001309,S01006938
Denman Pre-school,SC006884,Aberdeenshire,AB32 6QX,57.152278,-2.29864208,S02001309,S01006938
Laurencekirk Pre School Playgroup,SC004716,Aberdeenshire,AB30 1DF,56.82876415,-2.47501129,S02001287,S01006803
Laurencekirk Out Of School Club,SC024515,Aberdeenshire,AB30 1EG,56.82695789,-2.47041694,S02001287,S01006803
Laurencekirk Primary Partnership,SC049038,Aberdeenshire,AB30 1EG,56.82695789,-2.47041694,S02001287,S01006803
Banff Pre-School Playgroup & Parent & Toddlers Group,SC004815,Aberdeenshire,AB45 1BY,57.66274709,-2.53316482,S02001326,S01007036
Banff Out Of School Hours Services,SC029948,Aberdeenshire,AB45 1BL,57.6626712,-2.52769984,S02001326,S01007036
1st Banff Rainbow Unit,SC047752,Aberdeenshire,AB45 1DY,57.66497553,-2.52438105,S02001326,S01007036
Deveron Community Christmas Association,SC049684,Aberdeenshire,AB45 1DY,57.66497553,-2.52438105,S02001326,S01007036
Fraserburgh Junior Arts Society,SC004867,Aberdeenshire,AB43 9JD,57.69245268,-2.00997146,S02001342,S01007121
Fraserburgh All Weather Sports Facility,SC034080,Aberdeenshire,AB43 9AR,57.69209366,-2.00582828,S02001342,S01007121
Friends of People First Fraserburgh SCIO,SC047261,Aberdeenshire,AB43 9EP,57.6924528,-2.0084115,S02001342,S01007121
Gordon Rural Action,SC004883,Aberdeenshire,AB54 8EQ,57.44642344,-2.78778165,S02001321,S01007011
Deveron Projects Ltd,SC024261,Aberdeenshire,AB54 8BR,57.44757639,-2.78584031,S02001321,S01007011
Friends Of Forgue Kirk Ltd,SC027928,Aberdeenshire,AB54 8FG,57.44486367,-2.79013063,S02001321,S01007011
Drumdarroch House Residents Entertainment Association,SC029779,Aberdeenshire,AB54 8HJ,57.44510304,-2.79063562,S02001321,S01007011
Huntly Area Cancer Support,SC033893,Aberdeenshire,AB54 8BY,57.44800599,-2.78753242,S02001321,S01007011
Huntly Development Trust Limited,SC043353,Aberdeenshire,AB54 8BR,57.44757639,-2.78584031,S02001321,S01007011
Church of Scotland Presbytery of Gordon,SC004982,Aberdeenshire,AB32 6LX,57.16093169,-2.3262716,S02001308,S01006934
Westhill Community Church,SC015206,Aberdeenshire,AB32 6AQ,57.15672723,-2.31231575,S02001308,S01006934
1st Skene Boys Brigade,SC035029,Aberdeenshire,AB32 6YD,57.16455591,-2.34161417,S02001308,S01006934
Milne Hall Management Committee,SC045034,Aberdeenshire,AB32 6YD,57.16455591,-2.34161417,S02001308,S01006934
Auchterless Playgroup,SC005029,Aberdeenshire,AB51 8XT,57.4500329,-2.52618185,S02001319,S01006999
Scott Hall,SC007948,Aberdeenshire,AB54 6EB,57.46567156,-2.63362884,S02001319,S01006999
Rothienorman Toddler Group,SC012721,Aberdeenshire,AB51 8XX,57.45663113,-2.56649163,S02001319,S01006999
Auchaber United Parish Church Of Scotland,SC017101,Aberdeenshire,AB54 6HS,57.46411423,-2.60129648,S02001319,S01006999
Fisherford Community Association,SC020134,Aberdeenshire,AB51 8YS,57.41186724,-2.55090222,S02001319,S01006999
1st Auchterless Brownie Unit,SC033669,Aberdeenshire,AB52 6UP,57.40251864,-2.56252731,S02001319,S01006999
1st Fyvie Guide Unit,SC038875,Aberdeenshire,AB52 6UP,57.40251864,-2.56252731,S02001319,S01006999
1st Fyvie Brownie Unit,SC038944,Aberdeenshire,AB51 8YX,57.42097661,-2.52548172,S02001319,S01006999
2nd Oldmeldrum Guide Unit,SC043767,Aberdeenshire,AB51 8YS,57.41186724,-2.55090222,S02001319,S01006999
3rd Oldmeldrum Rainbow Unit,SC048499,Aberdeenshire,AB51 8YS,57.41186724,-2.55090222,S02001319,S01006999
Age Concern Inverurie,SC005168,Aberdeenshire,AB51 4RY,57.28707969,-2.38634555,S02001303,S01006896
Friends Of Inverurie Hospital And Community,SC013314,Aberdeenshire,AB51 4JF,57.2866835,-2.38955964,S02001303,S01006896
Strathburn Park Playgroup,SC016173,Aberdeenshire,AB51 4GY,57.28992218,-2.39662821,S02001303,S01006896
1st Inverurie Guide Unit,SC031283,Aberdeenshire,AB51 4QL,57.28635175,-2.38351783,S02001303,S01006896
Garioch Community Sports Hub,SC046493,Aberdeenshire,AB51 4GY,57.28992218,-2.39662821,S02001303,S01006896
Newburgh Public Hall Trustees,SC005172,Aberdeenshire,AB41 6BL,57.31932033,-2.00309311,S02001315,S01006974
Newburgh Pre-school,SC006790,Aberdeenshire,AB41 6BL,57.31932033,-2.00309311,S02001315,S01006974
Newburgh and Ythan Community Trust SCIO,SC049566,Aberdeenshire,AB41 6FB,57.32067669,-2.00433854,S02001315,S01006974
Thistle Youth Football Club,SC051178,Aberdeenshire,AB41 6FB,57.32067669,-2.00433854,S02001315,S01006974
Pillar Kincardine,SC005244,Aberdeenshire,AB39 2JD,56.96155605,-2.2103708,S02001291,S01006828
Friends Of Forest View,SC024028,Aberdeenshire,AB39 2LE,56.9606088,-2.20738915,S02001291,S01006828
1st Stonehaven Scout Group,SC025714,Aberdeenshire,AB39 2JJ,56.96194155,-2.21083341,S02001291,S01006828
Kincardine and Mearns Citizens Advice Bureau,SC038869,Aberdeenshire,AB39 2JD,56.96155605,-2.2103708,S02001291,S01006828
Friends of Stonehaven Open Air Swimming Pool,SC042966,Aberdeenshire,AB39 2JQ,56.96116905,-2.20540255,S02001291,S01006828
The Stonehaven Town Partnership,SC044314,Aberdeenshire,AB39 2JD,56.96155605,-2.2103708,S02001291,S01006828
Stonehaven Fireballs Association,SC045364,Aberdeenshire,AB39 2JQ,56.96116905,-2.20540255,S02001291,S01006828
Kincardineshire Development Partnership,SC046327,Aberdeenshire,AB39 2JD,56.96155605,-2.2103708,S02001291,S01006828
W W Caird Trust Fund,SC005333,Aberdeenshire,AB39 2NW,56.97009054,-2.23053468,S02001292,S01006830
Ury Players Stonehaven,SC019815,Aberdeenshire,AB39 2WT,56.96983148,-2.23457922,S02001292,S01006830
Rosehearty Playgroup,SC005334,Aberdeenshire,AB43 7JB,57.69703657,-2.11374838,S02001339,S01007111
Echt Hall Assoc,SC005419,Aberdeenshire,AB32 7AA,57.14035141,-2.4330793,S02001296,S01006857
Echt Skene & Midmar Agricultural Association,SC013971,Aberdeenshire,AB32 6XD,57.12694417,-2.41035984,S02001296,S01006857
The Friends of Westhill & Garlogie Day Centre,SC018355,Aberdeenshire,AB32 7DR,57.16252385,-2.42985009,S02001296,S01006857
1st Drumoak Scout Group,SC030900,Aberdeenshire,AB31 5AE,57.08689054,-2.32720458,S02001296,S01006857
Echt School Parent Council,SC033305,Aberdeenshire,AB32 6UL,57.14167875,-2.43370621,S02001296,S01006857
The Dee and Don Ceilidh Collective ,SC047411,Aberdeenshire,AB31 5EP,57.09519209,-2.36883301,S02001296,S01006857
Echt School Fund,SC048896,Aberdeenshire,AB32 6UL,57.14167875,-2.43370621,S02001296,S01006857
Pitsligo Parish Church Of Scotland,SC005498,Aberdeenshire,AB43 7HD,57.68378334,-2.10857521,S02001339,S01007108
3rd Fraserburgh Guides,SC031685,Aberdeenshire,AB43 7FT,57.67335511,-2.02077946,S02001339,S01007108
1st Rose Hearty Rainbow Unit,SC039142,Aberdeenshire,AB43 7EH,57.67713046,-2.06512954,S02001339,S01007108
Broch Skate Club,SC042810,Aberdeenshire,AB43 7FZ,57.67611277,-2.02009364,S02001339,S01007108
1st Sandhaven Rainbow Unit,SC048496,Aberdeenshire,AB43 7FH,57.68190261,-2.03651364,S02001339,S01007108
Glenmuick (Ballater) Parish Church of Scotland,SC005522,Aberdeenshire,AB35 5SH,57.05429076,-3.02896974,S02001285,S01006792
Ballater & District Old People's Assoc,SC007732,Aberdeenshire,AB35 5UH,57.05896166,-3.12115294,S02001285,S01006792
Braemar Charitable Trust,SC007892,Aberdeenshire,AB35 5UH,57.05896166,-3.12115294,S02001285,S01006792
Victoria & Albert Halls (Ballater) Trust ,SC043209,Aberdeenshire,AB35 5UH,57.05896166,-3.12115294,S02001285,S01006792
Ballater Historic Forestry Project Association,SC047489,Aberdeenshire,AB35 5UH,57.05896166,-3.12115294,S02001285,S01006792
Fordyce Memorial Bequest Trust,SC005547,Aberdeenshire,AB45 3QR,57.64083477,-2.46845555,S02001328,S01007043
Friends Of Duff House,SC027830,Aberdeenshire,AB45 3SX,57.66100985,-2.52110596,S02001328,S01007043
Peterhead Congregation Of Jehovahs Witnesses,SC005649,Aberdeenshire,AB42 2AG,57.50534474,-1.79409494,S02001335,S01007080
Newtonhill Parish Church (Church of Scotland),SC005679,Aberdeenshire,AB39 3PF,57.03308189,-2.15404964,S02001293,S01006840
Friends Of Carronhill School,SC033260,Aberdeenshire,AB39 3PX,57.03161735,-2.15427422,S02001293,S01006840
Fraserburgh South Church Of Scotland,SC005714,Aberdeenshire,AB43 7HX,57.67769085,-2.03323981,S02001340,S01007116
Fraserburgh Baptist Church,SC015938,Aberdeenshire,AB43 9AY,57.67814263,-2.02088284,S02001340,S01007116
6th Fraserburgh Guides,SC035654,Aberdeenshire,AB43 7BH,57.67571671,-2.02477114,S02001340,S01007116
Melvin Village Hall Trustees,SC005830,Aberdeenshire,AB41 7JX,57.370192,-2.22645747,S02001316,S01006979
Tarves Playgroup and Toddlers,SC016323,Aberdeenshire,AB41 7JF,57.37066478,-2.21816367,S02001316,S01006979
Tarves Heritage Project,SC021511,Aberdeenshire,AB41 7GX,57.37113434,-2.22189089,S02001316,S01006979
1st Tarves Brownie Unit,SC046535,Aberdeenshire,AB41 7NN,57.35424186,-2.23928892,S02001316,S01006979
Gardenstown Playgroup,SC005909,Aberdeenshire,AB45 3YF,57.66999232,-2.33202419,S02001328,S01007044
Fraserburgh United Reformed Church,SC016013,Aberdeenshire,AB45 3YG,57.66844865,-2.33494356,S02001328,S01007044
Cetacean Research & Rescue Unit (Crru),SC035473,Aberdeenshire,AB45 3YQ,57.67064116,-2.3413508,S02001328,S01007044
Gardenstown Church Trust,SC044548,Aberdeenshire,AB45 3YF,57.66999232,-2.33202419,S02001328,S01007044
Friends of Tarlair Community Group,SC045727,Aberdeenshire,AB45 3YQ,57.67064116,-2.3413508,S02001328,S01007044
Braehead Hall Trust ,SC046411,Aberdeenshire,AB45 3ZH,57.67047602,-2.33593456,S02001328,S01007044
Gardenstown New Church,SC047063,Aberdeenshire,AB45 3YF,57.66999232,-2.33202419,S02001328,S01007044
Gardenstown Community Hub Association,SC048187,Aberdeenshire,AB45 3YS,57.67262847,-2.33717831,S02001328,S01007044
Alvah Gymteam,SC048806,Aberdeenshire,AB45 3YG,57.66844865,-2.33494356,S02001328,S01007044
Udny and Pitmedden Church of Scotland,SC006056,Aberdeenshire,AB41 6ST,57.32678703,-2.22160659,S02001316,S01006984
1st Pitmedden Rainbows,SC036788,Aberdeenshire,AB41 7RW,57.3260928,-2.20179079,S02001316,S01006984
Dr Spence Memorial Hall SCIO,SC047845,Aberdeenshire,AB41 6ST,57.32678703,-2.22160659,S02001316,S01006984
Newmachar Scout Group,SC006088,Aberdeenshire,AB21 0XA,57.20345194,-2.28415914,S02001307,S01006928
Stuartfield Playgroup,SC006120,Aberdeenshire,AB42 5DE,57.50920503,-2.04466775,S02001332,S01007064
St Drostans Episcopal Church: Old Deer,SC012447,Aberdeenshire,AB42 5AH,57.46842188,-2.01946112,S02001332,S01007064
Stuartfield Pleasure Park Committee,SC037035,Aberdeenshire,AB42 5TP,57.50595402,-2.04279468,S02001332,S01007064
Friends of Aden Country Park (SCIO),SC047867,Aberdeenshire,AB42 5FQ,57.5216044,-2.03326344,S02001332,S01007064
New Byth Community and Playing Field Association,SC006193,Aberdeenshire,AB53 5XD,57.57575081,-2.29899533,S02001329,S01007048
Greeness Community Hall,SC033097,Aberdeenshire,AB53 8HY,57.51407169,-2.34010312,S02001329,S01007048
Stonehaven & District Unit (No 475) of the Sea Cadet Corps,SC006343,Aberdeenshire,AB39 2ET,56.9636107,-2.21186244,S02001292,S01006832
Arduthie Primary School Fund,SC011043,Aberdeenshire,AB39 2DP,56.96499802,-2.21484698,S02001292,S01006832
Arduthie Primary School Parent Teacher Assoc,SC021524,Aberdeenshire,AB39 2DP,56.96499802,-2.21484698,S02001292,S01006832
Kincardine And Deeside Befriending,SC032594,Aberdeenshire,AB39 2DN,56.9645637,-2.21140738,S02001292,S01006832
William Welsh Caird SCIO,SC050130,Aberdeenshire,AB39 2DA,56.96467247,-2.21083241,S02001292,S01006832
Cruden Parish Church of Scotland,SC006408,Aberdeenshire,AB42 0RF,57.41371151,-1.86608735,S02001333,S01007068
Cruden Bay Mother & Toddler Group,SC010223,Aberdeenshire,AB42 0NJ,57.41624279,-1.85625621,S02001333,S01007068
St James Episcopal Church Cruden: Cruden Bay,SC013851,Aberdeenshire,AB42 0NL,57.41681434,-1.86129819,S02001333,S01007068
Cruden Bay Community Association,SC015768,Aberdeenshire,AB42 0RF,57.41371151,-1.86608735,S02001333,S01007068
Cruden Bay Congregational Church,SC016179,Aberdeenshire,AB42 0NJ,57.41624279,-1.85625621,S02001333,S01007068
Trust for a Nurse in the Parish of Cruden,SC016966,Aberdeenshire,AB42 0RF,57.41371151,-1.86608735,S02001333,S01007068
Cruden Bay Recreation Park,SC030723,Aberdeenshire,AB42 0RF,57.41371151,-1.86608735,S02001333,S01007068
Port Erroll Public Hall ,SC047144,Aberdeenshire,AB42 0RF,57.41371151,-1.86608735,S02001333,S01007068
Gordon Park Early Learning and Childcare (ELCC),SC006527,Aberdeenshire,AB41 9BB,57.36511282,-2.08433946,S02001314,S01006971
Ellon and District Men's Shed,SC044586,Aberdeenshire,AB41 9AW,57.37020635,-2.08383577,S02001314,S01006971
Rathen Public Hall,SC006555,Aberdeenshire,AB43 8UG,57.63634957,-2.00844833,S02001339,S01007107
Rathen West Parish Church of Scotland,SC015604,Aberdeenshire,AB43 8UL,57.63748164,-1.99980643,S02001339,S01007107
Boddam Public Hall Committee,SC034796,Aberdeenshire,AB43 8UL,57.63748164,-1.99980643,S02001339,S01007107
Strachan Village Hall,SC006625,Aberdeenshire,AB31 6LU,57.00910615,-2.58548589,S02001286,S01006800
St Ternans Episcopal Church: Banchory,SC008553,Aberdeenshire,AB31 6NQ,57.02440682,-2.569485,S02001286,S01006800
Banchory & District Talking Newspaper,SC024438,Aberdeenshire,AB31 6PT,57.04280799,-2.50819658,S02001286,S01006800
Strachan School Parent Council,SC029170,Aberdeenshire,AB31 6NN,57.0210751,-2.53879869,S02001286,S01006800
Monquhitter Pre-School Playgroup,SC006651,Aberdeenshire,AB53 5YJ,57.54249608,-2.33537329,S02001328,S01007042
James Tennant Playing Field Trust,SC007025,Aberdeenshire,AB53 5WF,57.54095847,-2.33597721,S02001328,S01007042
Monquhitter Mother & Toddler Group,SC021574,Aberdeenshire,AB53 5WH,57.54114992,-2.32807784,S02001328,S01007042
Aberchirder Village Hall (SCIO),SC050601,Aberdeenshire,AB53 7TH,57.56426947,-2.34869481,S02001328,S01007042
St Johns Episcopal Church: New Pitsligo,SC006870,Aberdeenshire,AB43 9QL,57.69427568,-2.01408176,S02001343,S01007126
Link Up Fraserburgh Ltd,SC010745,Aberdeenshire,AB43 9JL,57.69355714,-2.01367889,S02001343,S01007126
Friends Of Fraserburgh North School,SC020317,Aberdeenshire,AB43 9JR,57.6931977,-2.01497036,S02001343,S01007126
Crimond Parish Church Of Scotland,SC006889,Aberdeenshire,AB43 8AD,57.60105287,-1.9092546,S02001338,S01007101
Home-Start North East Aberdeenshire,SC023323,Aberdeenshire,AB43 8QJ,57.60156748,-1.91298453,S02001338,S01007101
Crimond Charitable Trust,SC041667,Aberdeenshire,AB43 8QJ,57.60156748,-1.91298453,S02001338,S01007101
Shirley's Space,SC049636,Aberdeenshire,AB43 8QJ,57.60156748,-1.91298453,S02001338,S01007101
Auchterellon Under Fives Committee,SC006946,Aberdeenshire,AB41 9DB,57.37301016,-2.09476659,S02001314,S01006968
Garlogie Hall Management Comm,SC007030,Aberdeenshire,AB32 6RX,57.13931112,-2.34899844,S02001308,S01006931
Skene Parish Church of Scotland,SC009462,Aberdeenshire,AB32 6FY,57.15267648,-2.27770328,S02001308,S01006931
Westhill and District Public Hall SCIO,SC049243,Aberdeenshire,AB32 6FY,57.15267648,-2.27770328,S02001308,S01006931
Peterhead Episcopal Congregation James Argo Trust,SC007061,Aberdeenshire,AB42 2EL,57.49524331,-1.8021597,S02001334,S01007076
St Peters Episcopal Church: Peterhead,SC015269,Aberdeenshire,AB42 2EL,57.49524331,-1.8021597,S02001334,S01007076
Peterhead Congregational Church,SC040453,Aberdeenshire,AB42 2WD,57.49729198,-1.80258242,S02001334,S01007076
Hatton (Cruden) School Parent Teacher Association,SC007104,Aberdeenshire,AB42 0RE,57.44479796,-1.94872558,S02001333,S01007066
Friends Of North Aberdeenshire Music Centre,SC029025,Aberdeenshire,AB42 0PF,57.4179554,-1.86154361,S02001333,S01007066
2nd Ellon Guides,SC039497,Aberdeenshire,AB42 0NT,57.43813249,-1.82687045,S02001333,S01007066
North West Aberdeenshire Citizens Advice Bureau,SC007159,Aberdeenshire,AB53 4AT,57.53988658,-2.46436941,S02001323,S01007017
Friends Of Turriff Community Hospital,SC018804,Aberdeenshire,AB53 4AR,57.54173596,-2.4670824,S02001323,S01007017
Friends of Turriff Cemetery,SC048132,Aberdeenshire,AB53 4AU,57.53938855,-2.46301008,S02001323,S01007017
Aberdour Church Of Scotland,SC007197,Aberdeenshire,AB43 6LH,57.65972899,-2.19159271,S02001329,S01007046
Aberdour Parish Hall (SCIO),SC046957,Aberdeenshire,AB43 6LH,57.65972899,-2.19159271,S02001329,S01007046
Strichen And Tyrie Parish Church of Scotland,SC007273,Aberdeenshire,AB42 4QH,57.55503742,-2.1382365,S02001330,S01007053
1st New Deer Boys Brigade,SC034995,Aberdeenshire,AB42 4RA,57.555671,-2.14975269,S02001330,S01007053
Kinellar Parent And Toddler Group,SC007300,Aberdeenshire,AB21 0ZS,57.2048234,-2.29324024,S02001307,S01006926
Kinellar Stars,SC011486,Aberdeenshire,AB21 0JQ,57.20628543,-2.290322,S02001307,S01006926
Kinellar Community Association,SC032802,Aberdeenshire,AB21 0JQ,57.20628543,-2.290322,S02001307,S01006926
1st Kinellar Rainbow Unit,SC038491,Aberdeenshire,AB21 0LG,57.20973207,-2.291541,S02001307,S01006926
Blackburn and Kinellar Allotments,SC050626,Aberdeenshire,AB21 0LA,57.20734222,-2.29170423,S02001307,S01006926
Kintore Playgroup,SC007417,Aberdeenshire,AB51 0RU,57.23474688,-2.34893936,S02001306,S01006920
Kemnay Academy Music Association - Kama,SC025696,Aberdeenshire,AB51 0YF,57.23991148,-2.34915386,S02001306,S01006920
Action Kintore SCIO,SC040421,Aberdeenshire,AB51 0UT,57.2360805,-2.34744444,S02001306,S01006920
Friends of Guiding in Kintore,SC042879,Aberdeenshire,AB51 0UP,57.23552504,-2.3469091,S02001306,S01006920
Portlethen Parish Church of Scotland,SC007420,Aberdeenshire,AB12 4BH,57.06023212,-2.14390696,S02001294,S01006843
Portlethen Jubilee Hall,SC017492,Aberdeenshire,AB12 4TP,57.06057821,-2.13973688,S02001294,S01006843
Turriff St Ninians & Forglen Parish Church Of Scotland,SC007470,Aberdeenshire,AB53 4AL,57.54022585,-2.46248617,S02001323,S01007019
Grampian Cardiac Rehabilitation Association,SC033331,Aberdeenshire,AB53 4AG,57.5427329,-2.4597783,S02001323,S01007019
Friends of the Abbeyfield Society in Turriff Trust,SC040109,Aberdeenshire,AB53 4BY,57.5409293,-2.45429327,S02001323,S01007019
Parish Of Noth Church of Scotland,SC007582,Aberdeenshire,AB52 6YL,57.36511605,-2.72228194,S02001320,S01007004
"St Marys Episcopal Church, Auchindoir",SC013831,Aberdeenshire,AB54 4PL,57.30513638,-2.75738776,S02001320,S01007004
Kemnay Parish Church of Scotland,SC014790,Aberdeenshire,AB52 6YL,57.36511605,-2.72228194,S02001320,S01007004
Kennethmont Mothers And Toddlers Group,SC015752,Aberdeenshire,AB54 4NP,57.34914894,-2.76407701,S02001320,S01007004
1st Insch Scout Group,SC036336,Aberdeenshire,AB54 4PH,57.31613132,-2.7408619,S02001320,S01007004
Clatt Auld Kirk,SC037502,Aberdeenshire,AB54 4QQ,57.35842019,-2.77424276,S02001320,S01007004
Glens Of Foudland Wind Farm Community Trust,SC038459,Aberdeenshire,AB52 6YY,57.338343,-2.6843779,S02001320,S01007004
Rannes Hall Management Committee,SC038785,Aberdeenshire,AB54 4NH,57.35044664,-2.74389636,S02001320,S01007004
Deveron District Age Concern,SC007671,Aberdeenshire,AB44 1TL,57.67021375,-2.4973329,S02001327,S01007041
Macduff Old Folks Association,SC029003,Aberdeenshire,AB44 1UT,57.66966671,-2.49710748,S02001327,S01007041
Crimond Community Centre,SC007790,Aberdeenshire,AB43 8QD,57.58650932,-1.9590977,S02001338,S01007102
Malcolm Fund Committee,SC017817,Aberdeenshire,AB43 8RS,57.60474061,-1.95089476,S02001338,S01007102
Friends Of Pitsligo Castle,SC025764,Aberdeenshire,AB43 8SL,57.62839585,-1.9409337,S02001338,S01007102
1st Crimond Rainbow Unit,SC038602,Aberdeenshire,AB43 8QD,57.58650932,-1.9590977,S02001338,S01007102
Crimond Public Hall Trust,SC047021,Aberdeenshire,AB43 8QN,57.60849853,-1.90826547,S02001338,S01007102
Evergreen Club,SC007818,Aberdeenshire,AB35 5PL,57.04815224,-3.03799766,S02001285,S01006790
Upper Deeside Art Society,SC023188,Aberdeenshire,AB35 5RX,57.05398946,-3.03934756,S02001285,S01006790
Marr Area Partnership,SC031462,Aberdeenshire,AB35 5QB,57.04984941,-3.0402539,S02001285,S01006790
Glen Tanar Charitable Trust,SC007883,Aberdeenshire,AB34 5EU,57.05261774,-2.86661033,S02001286,S01006797
St Kentigern Episcopal Church: Ballater,SC007894,Aberdeenshire,AB34 5JD,57.07233875,-2.80432803,S02001286,S01006797
Birse & Feughside Church Of Scotland,SC018517,Aberdeenshire,AB34 5BQ,57.09003465,-2.74801216,S02001286,S01006797
2nd Aboyne Brownie Unit,SC030934,Aberdeenshire,AB34 5BY,57.06135427,-2.73218299,S02001286,S01006797
Ecumenical Trust For Birse Kirk,SC033506,Aberdeenshire,AB34 5BD,57.09914492,-2.72021895,S02001286,S01006797
Aboyne & District Men's Shed,SC047036,Aberdeenshire,AB34 5DZ,57.07725592,-2.78541477,S02001286,S01006797
Turriff and  District Heritage Society (SCIO),SC007970,Aberdeenshire,AB53 4EN,57.53733384,-2.46238271,S02001323,S01007020
Turriff Pre School Playgroup,SC015537,Aberdeenshire,AB53 4EE,57.53590177,-2.4609783,S02001323,S01007020
Royal British Legion Scotland Turriff & District Branch,SC028970,Aberdeenshire,AB53 4DS,57.53721243,-2.46119529,S02001323,S01007020
Howe Trinity Parish Church of Scotland,SC007979,Aberdeenshire,AB33 8TW,57.23430793,-2.71695534,S02001301,S01006885
Alford Car Transport Service,SC030147,Aberdeenshire,AB33 8FE,57.23650842,-2.71070269,S02001301,S01006885
1st Alford Guide Unit,SC032077,Aberdeenshire,AB33 8TP,57.23296596,-2.71124744,S02001301,S01006885
Midmar Under Fives,SC008061,Aberdeenshire,AB51 7QA,57.16091079,-2.54655192,S02001296,S01006858
Echt and Midmar Church of Scotland,SC009556,Aberdeenshire,AB51 7LX,57.13839657,-2.49295086,S02001296,S01006858
3rd Belhelvie Brownie Unit,SC033179,Aberdeenshire,AB51 7RJ,57.17067679,-2.56050456,S02001296,S01006858
Midmar Public Hall SCIO,SC045112,Aberdeenshire,AB51 7LS,57.15145326,-2.48029853,S02001296,S01006858
Midmar School Fund,SC048676,Aberdeenshire,AB51 7PQ,57.15898494,-2.52635464,S02001296,S01006858
Midmar Men's Shed ,SC049095,Aberdeenshire,AB51 7NE,57.16030409,-2.52453829,S02001296,S01006858
Whitehills Playgroup,SC008090,Aberdeenshire,AB45 2JP,57.67117986,-2.58438616,S02001325,S01007028
Boyndie Trust Limited,SC029061,Aberdeenshire,AB45 2JT,57.66298889,-2.60329436,S02001325,S01007028
Banffshire Partnership Limited,SC029693,Aberdeenshire,AB45 2JT,57.66298889,-2.60329436,S02001325,S01007028
Deveronvale Community Football Club,SC050709,Aberdeenshire,AB45 2JJ,57.66922414,-2.55798587,S02001325,S01007028
Glenbervie Pre-School,SC008148,Aberdeenshire,DD10 0LT,56.83033397,-2.28766635,S02001289,S01006813
Kinneff Old Church Preservation Trust Ltd,SC017378,Aberdeenshire,DD10 0NG,56.83122128,-2.28855805,S02001289,S01006813
Kinneff Village Hall Commitee,SC037665,Aberdeenshire,DD10 0NG,56.83122128,-2.28855805,S02001289,S01006813
Torphins Playgroup,SC008749,Aberdeenshire,AB31 4JQ,57.10734099,-2.62051498,S02001299,S01006870
"Mid Deeside Parish, Church of Scotland",SC012967,Aberdeenshire,AB31 4JS,57.10850767,-2.62436468,S02001299,S01006870
Deeside Agricultural Association,SC034756,Aberdeenshire,AB31 4JD,57.10914872,-2.62371508,S02001299,S01006870
1st Torphins Scout Group,SC039916,Aberdeenshire,AB31 4JS,57.10850767,-2.62436468,S02001299,S01006870
Torphins Paths Group SCIO,SC049120,Aberdeenshire,AB31 4JS,57.10850767,-2.62436468,S02001299,S01006870
St Andrews Parish Church of Scotland Inverurie,SC008791,Aberdeenshire,AB41 9GG,57.37373022,-2.09282297,S02001314,S01006969
Ellon Talking Newspaper,SC027277,Aberdeenshire,AB41 9AF,57.36956682,-2.08642798,S02001314,S01006969
3rd Ellon Guides,SC037202,Aberdeenshire,AB41 9DY,57.3673483,-2.0861235,S02001314,S01006969
2nd Ellon Senior Section,SC043497,Aberdeenshire,AB41 9DY,57.3673483,-2.0861235,S02001314,S01006969
Ellon Parish Church of Scotland,SC008819,Aberdeenshire,AB41 9AR,57.36460596,-2.07629232,S02001313,S01006959
Auchnagatt & District Playgroup,SC013888,Aberdeenshire,AB41 9LJ,57.36305234,-2.0756574,S02001313,S01006959
Aberdeenshire Voluntary Action ,SC014223,Aberdeenshire,AB41 9AR,57.36460596,-2.07629232,S02001313,S01006959
RCCG - Living Truth,SC045789,Aberdeenshire,AB41 9DS,57.36378941,-2.07484437,S02001313,S01006959
St Mary On The Rock Episcopal Church: Ellon,SC008825,Aberdeenshire,AB41 9NP,57.36193147,-2.07233055,S02001313,S01006962
Longside Parish Church of Scotland,SC008873,Aberdeenshire,AB42 4XB,57.52944953,-1.98374186,S02001338,S01007095
Luthermuir Hall And Park Committee,SC008917,Aberdeenshire,AB30 1YR,56.80727396,-2.5618142,S02001288,S01006806
Marykirk Village Hall Management Committee,SC023417,Aberdeenshire,AB30 1UT,56.78116025,-2.51563347,S02001288,S01006806
St John The Baptist Church: Drumlithie,SC031836,Aberdeenshire,AB30 1AX,56.82201046,-2.51308202,S02001288,S01006806
1st Fettercairn Guide Unit,SC038657,Aberdeenshire,AB30 1YX,56.80800039,-2.55607672,S02001288,S01006806
2nd Laurencekirk Brownie Unit,SC047303,Aberdeenshire,AB30 1YR,56.80727396,-2.5618142,S02001288,S01006806
Peterhead Methodist Church,SC009002,Aberdeenshire,AB51 0XW,57.23927943,-2.35352172,S02001306,S01006923
Inverurie Choral Society,SC034022,Aberdeenshire,AB51 0YR,57.25479009,-2.36396316,S02001306,S01006923
Halfpenny-Farm Animal Sanctuary,SC041616,Aberdeenshire,AB51 0YH,57.24866969,-2.38014317,S02001306,S01006923
3rd Kintore Brownies,SC039647,Aberdeenshire,AB51 0XG,57.2376704,-2.35070651,S02001306,S01006923
Auchterless Parish Church of Scotland,SC009168,Aberdeenshire,AB53 8BA,57.46595995,-2.47868415,S02001322,S01007016
Auchterless Residents Association SCIO,SC046801,Aberdeenshire,AB53 8DB,57.4815423,-2.46007616,S02001322,S01007016
"Arbuthnott, Bervie and Kinneff (Church of Scotland)",SC009239,Aberdeenshire,DD10 0TZ,56.84048538,-2.28764592,S02001289,S01006814
Inverbervie Pre-school Group,SC016931,Aberdeenshire,DD10 0RF,56.84104664,-2.28183134,S02001289,S01006814
Friends of Insch Hospital and Community SCIO,SC009720,Aberdeenshire,AB52 6TN,57.36046367,-2.61750197,S02001319,S01006998
Insch Community Enterprise,SC017895,Aberdeenshire,AB52 6NF,57.34182835,-2.6221068,S02001319,S01006998
Bennachie Leisure Centre Association (SCIO),SC023888,Aberdeenshire,AB52 6LT,57.35185205,-2.61872004,S02001319,S01006998
Air Training Corps No 0877 Inverurie Squadron Non - Public Sports & Welfare Funds,SC024619,Aberdeenshire,AB52 6TR,57.37981898,-2.59762051,S02001319,S01006998
Maud & Savoch Church of Scotland,SC009773,Aberdeenshire,AB43 6RN,57.56680741,-2.01612101,S02001330,S01007055
Fraserburgh Congregation Of Jehovahs Witnesses,SC016948,Aberdeenshire,AB43 7BA,57.61926063,-2.05889867,S02001330,S01007055
Strichen Community Park Company,SC024518,Aberdeenshire,AB43 6TH,57.5842629,-2.10429755,S02001330,S01007055
Assemblies Of God - Fraserburgh,SC027629,Aberdeenshire,AB43 6RU,57.59038361,-2.08763852,S02001330,S01007055
Ugie Voices,SC036065,Aberdeenshire,AB43 6TH,57.5842629,-2.10429755,S02001330,S01007055
Strichen Mother and Toddlers,SC047940,Aberdeenshire,AB43 6UB,57.58337406,-2.09225404,S02001330,S01007055
Fraserburgh and District Men's Shed,SC049450,Aberdeenshire,AB43 7TS,57.62409846,-2.10573462,S02001330,S01007055
Ross Trust,SC009849,Aberdeenshire,AB33 8PZ,57.23495394,-2.70918184,S02001301,S01006882
Peterhead New Parish Church of Scotland,SC009990,Aberdeenshire,AB42 1GG,57.51599666,-1.81655352,S02001337,S01007089
Victoria Hall Braemar Association,SC010012,Aberdeenshire,AB35 5YL,57.00627346,-3.40170147,S02001285,S01006793
"Braemar and Crathie Parish Church, The Church of Scotland",SC012075,Aberdeenshire,AB35 5YT,57.00494793,-3.40853405,S02001285,S01006793
Braemar Community Limited,SC038573,Aberdeenshire,AB35 5YT,57.00494793,-3.40853405,S02001285,S01006793
1st Braemar Scout Group,SC038651,Aberdeenshire,AB35 5YE,57.00427863,-3.39932134,S02001285,S01006793
St Margaret's Trust SCIO Braemar,SC045945,Aberdeenshire,AB35 5YX,57.00488001,-3.40418468,S02001285,S01006793
Castleton Community Centre Association,SC047102,Aberdeenshire,AB35 5YS,57.00732202,-3.40113167,S02001285,S01006793
Braemar Care (SCIO),SC048355,Aberdeenshire,AB35 5WR,57.00770573,-3.40216701,S02001285,S01006793
Braemar Men's Shed,SC048621,Aberdeenshire,AB35 5XG,57.0038075,-3.39726203,S02001285,S01006793
Rothienorman Hall Committee,SC010456,Aberdeenshire,AB51 8SA,57.41319887,-2.46336329,S02001318,S01006996
Rothienorman Parish Church of Scotland,SC032016,Aberdeenshire,AB51 8YH,57.41071964,-2.46579543,S02001318,S01006996
Rothienorman Preschool,SC040398,Aberdeenshire,AB51 8XF,57.41311317,-2.46710758,S02001318,S01006996
Aberdeenshire Clubsport SCIO,SC050170,Aberdeenshire,AB51 8GL,57.41458013,-2.46636051,S02001318,S01006996
Computers and Integration SCIO,SC010617,Aberdeenshire,AB51 3UB,57.27679993,-2.3725722,S02001304,S01006905
Friends Of St Andrews School,SC012845,Aberdeenshire,AB51 3XT,57.27962335,-2.37465737,S02001304,S01006905
Home-Start Garioch,SC022057,Aberdeenshire,AB51 3XX,57.28148822,-2.37585398,S02001304,S01006905
Alford Public Hall Association,SC023423,Aberdeenshire,AB51 3QA,57.28186407,-2.37332004,S02001304,S01006905
Gordon Advanced Motorists,SC025302,Aberdeenshire,AB51 3TZ,57.27737972,-2.37395459,S02001304,S01006905
St Andrews Church Playgroup: Aberdeenshire,SC032553,Aberdeenshire,AB51 3QJ,57.27922657,-2.37214892,S02001304,S01006905
Inverurie Environmental Improvement Group,SC034357,Aberdeenshire,AB51 3QA,57.28186407,-2.37332004,S02001304,S01006905
4th Inverurie Rainbow Unit,SC038716,Aberdeenshire,AB51 3YA,57.28081124,-2.37694177,S02001304,S01006905
The Garioch Partnership SCIO,SC043548,Aberdeenshire,AB51 3QB,57.28228047,-2.37526493,S02001304,S01006905
Inverurie and District Men's Shed,SC044965,Aberdeenshire,AB51 3QJ,57.27922657,-2.37214892,S02001304,S01006905
The Garioch Charities Shop,SC044976,Aberdeenshire,AB51 3QA,57.28186407,-2.37332004,S02001304,S01006905
Aberdeenshire North Foodbank,SC045884,Aberdeenshire,AB51 3UB,57.27679993,-2.3725722,S02001304,S01006905
Garioch Community Kitchen,SC046110,Aberdeenshire,AB51 3QB,57.28228047,-2.37526493,S02001304,S01006905
Inverurie Youth Sports Foundation ,SC046751,Aberdeenshire,AB51 3UB,57.27679993,-2.3725722,S02001304,S01006905
Inverurie Concert Band SCIO,SC049370,Aberdeenshire,AB51 3QB,57.28228047,-2.37526493,S02001304,S01006905
Westhill Choi Kwang Do ,SC050540,Aberdeenshire,AB51 3QB,57.28228047,-2.37526493,S02001304,S01006905
Stuartfield Parents Teachers Assoc,SC010696,Aberdeenshire,AB42 5DP,57.50205437,-2.04629422,S02001332,S01007063
1st Stuartfield Brownie Unit,SC039300,Aberdeenshire,AB42 5DP,57.50205437,-2.04629422,S02001332,S01007063
Stuartfield Hall Managers,SC048886,Aberdeenshire,AB42 5DR,57.50331097,-2.04881554,S02001332,S01007063
1st Stuartfield Rainbow Unit,SC039080,Aberdeenshire,AB42 5DN,57.50525233,-2.04578097,S02001332,S01007063
Peterhead St Andrews Church of Scotland,SC010841,Aberdeenshire,AB42 2AX,57.50383222,-1.80319796,S02001335,S01007078
5th Peterhead Brownie Unit,SC030781,Aberdeenshire,AB42 2AY,57.50325771,-1.80343467,S02001335,S01007078
Ugie Angling Hatchery Trust,SC040835,Aberdeenshire,AB42 2BD,57.50211561,-1.80258979,S02001335,S01007078
Culsalmond and Rayne Church of Scotland,SC010911,Aberdeenshire,AB52 6RY,57.3445681,-2.54254969,S02001319,S01006997
Old Rayne Community Association,SC014914,Aberdeenshire,AB52 6EA,57.34498367,-2.54408443,S02001319,S01006997
Old Rayne Playgroup,SC015594,Aberdeenshire,AB52 6RY,57.3445681,-2.54254969,S02001319,S01006997
Gordon District Scout Council,SC032636,Aberdeenshire,AB52 6QU,57.32243267,-2.53451853,S02001319,S01006997
1st Kemnay Brownie Unit,SC034412,Aberdeenshire,AB52 6SD,57.35340508,-2.54096834,S02001319,S01006997
Oyne Community Association,SC044311,Aberdeenshire,AB52 6QT,57.32175383,-2.54616528,S02001319,S01006997
St Lawrence Hall Old Rayne (SCIO),SC046470,Aberdeenshire,AB52 6EA,57.34498367,-2.54408443,S02001319,S01006997
Stonehaven Congregation Of Jehovahs Witnesses,SC010939,Aberdeenshire,AB39 3UP,56.96224323,-2.24260568,S02001291,S01006826
3rd Stonehaven Guides,SC032021,Aberdeenshire,AB39 2ST,56.96477808,-2.23711293,S02001291,S01006826
1st Stonehaven Rainbow Guides,SC032391,Aberdeenshire,AB39 2WL,56.96744272,-2.23415302,S02001291,S01006826
Barthol Chapel Church of Scotland,SC010960,Aberdeenshire,AB51 8TD,57.39662885,-2.31032887,S02001318,S01006992
Banchory-Ternan East Church Of Scotland,SC011251,Aberdeenshire,AB31 5UT,57.0559793,-2.49428106,S02001298,S01006868
1st Banchory Brownies,SC033475,Aberdeenshire,AB31 5XD,57.05639225,-2.49435249,S02001298,S01006868
Banchory Trampoline and DMT Club SCIO  ,SC047331,Aberdeenshire,AB31 5XJ,57.0573025,-2.49360621,S02001298,S01006868
Deeside Bike Collective ,SC048246,Aberdeenshire,AB31 5XU,57.05935616,-2.4967661,S02001298,S01006868
Cairnie Memorial Hall,SC011562,Aberdeenshire,AB54 4TX,57.49153188,-2.88197376,S02001320,S01007007
Friends Of Huntly Jubilee Hospital,SC022322,Aberdeenshire,AB54 4UX,57.44694525,-2.86440459,S02001320,S01007007
"St Andrew's Kirk, Glass SCIO",SC050645,Aberdeenshire,AB54 4XH,57.44559563,-2.93999925,S02001320,S01007007
Glass Community Association (SCIO),SC050904,Aberdeenshire,AB54 4YH,57.42280355,-2.95221967,S02001320,S01007007
Andrew L Park Disc Trust For Methlick Parish Church,SC011682,Aberdeenshire,AB41 7DS,57.42490553,-2.24094919,S02001316,S01006978
Methlick Under 5's Group,SC015756,Aberdeenshire,AB41 7DS,57.42490553,-2.24094919,S02001316,S01006978
Methlick Parish Church of Scotland,SC016542,Aberdeenshire,AB41 7DS,57.42490553,-2.24094919,S02001316,S01006978
Methlick Heritage Society,SC024102,Aberdeenshire,AB41 7EF,57.42217684,-2.23512038,S02001316,S01006978
1st Methlick Guide Unit,SC036889,Aberdeenshire,AB41 7HT,57.44806087,-2.25556405,S02001316,S01006978
1st Methlick Brownie Unit,SC038014,Aberdeenshire,AB41 7HT,57.44806087,-2.25556405,S02001316,S01006978
1st Methlick Rainbows,SC039430,Aberdeenshire,AB41 7EF,57.42217684,-2.23512038,S02001316,S01006978
1st Methlick Senior Section Unit,SC048265,Aberdeenshire,AB41 7HT,57.44806087,-2.25556405,S02001316,S01006978
Foveran Church Of Scotland,SC011701,Aberdeenshire,AB41 6BE,57.31733514,-2.00312613,S02001315,S01006973
1st Newburgh Scout Group,SC042022,Aberdeenshire,AB41 6AP,57.31033524,-2.02414033,S02001315,S01006973
1st Newburgh Guide Unit,SC043785,Aberdeenshire,AB41 6DW,57.31672398,-2.00948475,S02001315,S01006973
Tornaveen Chapel Findrack,SC011802,Aberdeenshire,AB31 4PD,57.1414507,-2.63481751,S02001299,S01006874
Tornaveen Community Centre,SC016815,Aberdeenshire,AB31 4PD,57.1414507,-2.63481751,S02001299,S01006874
Whitehills & District Playing Field Association,SC011852,Aberdeenshire,AB45 2LT,57.67675381,-2.57746733,S02001325,S01007027
St Andrews Episcopal Church: Alford,SC011957,Aberdeenshire,AB33 8HZ,57.22871456,-2.70689226,S02001301,S01006883
Tullynessle & Forbes Hall and Community Association,SC020425,Aberdeenshire,AB33 8TT,57.23152078,-2.70467663,S02001301,S01006883
Alford Playgroup,SC021981,Aberdeenshire,AB33 8AD,57.23116397,-2.69617231,S02001301,S01006883
Alford and Donside Heritage Association,SC050799,Aberdeenshire,AB33 8BZ,57.23049106,-2.69925711,S02001301,S01006883
Beaton Public Hall Trustees,SC012533,Aberdeenshire,AB41 7LD,57.3863976,-2.22600858,S02001316,S01006980
Tarves Parish Church of Scotland,SC017161,Aberdeenshire,AB41 7TH,57.40027548,-2.16221281,S02001316,S01006980
1st Ellon Rainbows,SC038230,Aberdeenshire,AB41 7TD,57.39674449,-2.16282944,S02001316,S01006980
Formartine Rural Partnership,SC049617,Aberdeenshire,AB41 7LD,57.3863976,-2.22600858,S02001316,S01006980
Ellon & District Help Committee,SC012857,Aberdeenshire,AB41 8LX,57.33029368,-2.0560251,S02001315,S01006977
1st Methlick Scout Group,SC012989,Aberdeenshire,AB41 8QT,57.38308298,-2.03754439,S02001315,S01006977
Victoria Hall Trust,SC023733,Aberdeenshire,AB41 8QS,57.37837832,-2.05559987,S02001315,S01006977
Strathdon Playgroup & Mother & Toddler,SC012941,Aberdeenshire,AB36 8YX,57.18049902,-3.07014285,S02001285,S01006791
Lonach Hall Community Assocation,SC028932,Aberdeenshire,AB36 8XJ,57.19090736,-3.02207718,S02001285,S01006791
Glenbuchat Hall Community Association,SC041207,Aberdeenshire,AB36 8TT,57.23791135,-3.02839783,S02001285,S01006791
The Upper Donside Charitable Trust,SC042390,Aberdeenshire,AB36 8UR,57.20031008,-3.07827994,S02001285,S01006791
Glenbuchat Hall SCIO,SC050467,Aberdeenshire,AB36 8TR,57.22642844,-3.03629333,S02001285,S01006791
Deer Parish Church of Scotland,SC012985,Aberdeenshire,AB42 4EL,57.54867943,-2.02498462,S02001330,S01007052
Fetterangus Community Association,SC034162,Aberdeenshire,AB42 4HD,57.54712528,-2.02590242,S02001330,S01007052
Mintlaw Community Church,SC044752,Aberdeenshire,AB42 4HL,57.54865269,-2.02391531,S02001330,S01007052
Stonehaven: Carronside Church of Scotland,SC013165,Aberdeenshire,AB39 3YF,56.9186115,-2.35509794,S02001290,S01006818
Drumlithie Public Hall Trust,SC015049,Aberdeenshire,AB39 3YS,56.91929586,-2.35452955,S02001290,S01006818
Weekend Respite Project,SC030318,Aberdeenshire,AB39 3YL,56.93989837,-2.38664123,S02001290,S01006818
St Cyrus Pre School Playgroup,SC013304,Aberdeenshire,DD10 0DW,56.7864755,-2.36363542,S02001288,S01006808
KulturCollective,SC044880,Aberdeenshire,DD10 0DQ,56.77565923,-2.38458965,S02001288,S01006808
Uryside Primary School PTA,SC013370,Aberdeenshire,AB51 6AS,57.29761492,-2.37201942,S02001305,S01006913
3rd Inverurie Brownies,SC041708,Aberdeenshire,AB51 5EY,57.29873161,-2.44061517,S02001305,S01006913
Pitmedden Community Arts Festival SCIO,SC044861,Aberdeenshire,AB51 6AS,57.29761492,-2.37201942,S02001305,S01006913
St Kane's Early Learning and Childcare Centre,SC013759,Aberdeenshire,AB53 6TB,57.51319715,-2.19289263,S02001330,S01007050
New Pitsligo 1st Girl Guides Unit,SC035233,Aberdeenshire,AB53 6SX,57.51664856,-2.19731784,S02001330,S01007050
New Deer Football Club,SC038702,Aberdeenshire,AB53 6SW,57.51448538,-2.19628793,S02001330,S01007050
Auchnagatt Village Hall Management Committee,SC014064,Aberdeenshire,AB41 8YL,57.44596498,-2.11848078,S02001332,S01007061
The North East Wildlife & Animal Rescue Centre Ltd,SC037332,Aberdeenshire,AB41 8UW,57.43820747,-2.09301999,S02001332,S01007061
Aboyne-Dinnet Parish Church Of Scotland,SC014112,Aberdeenshire,AB34 5JZ,57.07689844,-2.80073169,S02001286,S01006796
Mid Deeside Day Centre,SC023180,Aberdeenshire,AB34 5FD,57.08083326,-2.79649417,S02001286,S01006796
Woodend Music Society,SC028012,Aberdeenshire,AB34 5JE,57.07791372,-2.82152223,S02001286,S01006796
1st Aboyne Scout Group,SC031818,Aberdeenshire,AB34 5JZ,57.07689844,-2.80073169,S02001286,S01006796
Youth Engaging Sport,SC040441,Aberdeenshire,AB34 5GT,57.07895624,-2.79782315,S02001286,S01006796
Westhill & District Senior Citizens Club,SC014265,Aberdeenshire,AB32 6FS,57.15274573,-2.27481125,S02001309,S01006936
7th Westhill Brownies Unit,SC031324,Aberdeenshire,AB32 6TZ,57.1530456,-2.27324322,S02001309,S01006936
6th Westhill Brownies,SC034694,Aberdeenshire,AB32 6TU,57.15301405,-2.27122646,S02001309,S01006936
South West Aberdeenshire Citizens Advice Bureau,SC037679,Aberdeenshire,AB32 6RL,57.1537982,-2.2782241,S02001309,S01006936
2nd Westhill Guides,SC040926,Aberdeenshire,AB32 6TZ,57.1530456,-2.27324322,S02001309,S01006936
Kemnay Village Hall Management Committee,SC014396,Aberdeenshire,AB51 5GZ,57.23526683,-2.44830613,S02001302,S01006890
Kemnay Village Hall (SCIO),SC047745,Aberdeenshire,AB51 5GZ,57.23526683,-2.44830613,S02001302,S01006890
New Pitsligo Parish Church of Scotland,SC014620,Aberdeenshire,AB43 6NL,57.59526932,-2.1989485,S02001329,S01007049
New Pitsligo Community Business Ltd,SC017787,Aberdeenshire,AB43 6NL,57.59526932,-2.1989485,S02001329,S01007049
Royal British Legion Scotland New Pitsligo Branch,SC029013,Aberdeenshire,AB43 6LS,57.59688609,-2.1989908,S02001329,S01007049
New Pitsligo 1st Brownies Unit,SC035232,Aberdeenshire,AB43 6EF,57.58896871,-2.19573609,S02001329,S01007049
1st Pitsligo Rainbow Unit,SC048077,Aberdeenshire,AB43 6NE,57.59193781,-2.19834483,S02001329,S01007049
Upper Donside Parish Church Of Scotland,SC014679,Aberdeenshire,AB33 8RN,57.20316251,-2.93061694,S02001300,S01006878
Lumsden Community Association,SC028733,Aberdeenshire,AB54 4JT,57.2829491,-2.87998002,S02001300,S01006878
The Silver Circle SCIO ,SC049390,Aberdeenshire,AB33 8SH,57.20889973,-2.86836669,S02001300,S01006878
Bourtree Pre-School Playgroup & Parent/Toddler Group,SC014850,Aberdeenshire,AB12 4UF,57.05583475,-2.14004874,S02001294,S01006847
Clachnaben Path Trust,SC027551,Aberdeenshire,AB12 4UQ,57.05832262,-2.1322269,S02001294,S01006847
All Saints Episcopal Church Fyvie,SC014967,Aberdeenshire,AB53 8LT,57.43863188,-2.34811425,S02001318,S01006994
1st Fyvie Rainbow Guide Unit,SC032461,Aberdeenshire,AB51 8SQ,57.41202164,-2.36522284,S02001318,S01006994
Freedom Challenge Trust,SC033414,Aberdeenshire,AB53 8LS,57.43689185,-2.35362777,S02001318,S01006994
The Sandend Harbour Trust Company Limited,SC037642,Aberdeenshire,AB53 8JS,57.44328337,-2.39147373,S02001318,S01006994
Fyvie Scout Group,SC015484,Aberdeenshire,AB41 7HX,57.45484978,-2.30115667,S02001332,S01007062
Methlick Munchkins,SC047902,Aberdeenshire,AB41 7JE,57.46051324,-2.2673516,S02001332,S01007062
Banff Parish Church of Scotland,SC015501,Aberdeenshire,AB45 1DU,57.66740552,-2.52540512,S02001326,S01007034
North East Epliepsy Support Group,SC040652,Aberdeenshire,AB45 1JR,57.66903943,-2.52777562,S02001326,S01007034
Newmachar Scout/Guide Association,SC015516,Aberdeenshire,AB21 0NS,57.26845286,-2.18844267,S02001311,S01006947
2nd Newmachar Brownie Unit,SC033502,Aberdeenshire,AB21 0LY,57.26967094,-2.19082001,S02001311,S01006947
Newmachar Rangers,SC041247,Aberdeenshire,AB21 0LY,57.26967094,-2.19082001,S02001311,S01006947
LifeStars SCIO,SC048590,Aberdeenshire,AB21 0NJ,57.26834964,-2.19136032,S02001311,S01006947
Strichen Playgroup,SC015719,Aberdeenshire,AB43 6SX,57.58748044,-2.09027414,S02001330,S01007054
Strichen Gala Committee,SC016105,Aberdeenshire,AB43 6ST,57.58716361,-2.09361841,S02001330,S01007054
Buchan Heritage Society,SC036964,Aberdeenshire,AB43 6SR,57.58662662,-2.09095774,S02001330,S01007054
1st Strichen Rainbow Unit,SC039198,Aberdeenshire,AB43 6TU,57.58865691,-2.09057813,S02001330,S01007054
Mormond Thistle Football Club (SCIO),SC048344,Aberdeenshire,AB43 6TT,57.58843051,-2.09310317,S02001330,S01007054
Strichen Town House Trust SCIO,SC049749,Aberdeenshire,AB43 6SR,57.58662662,-2.09095774,S02001330,S01007054
"Cromar Parish Church, Church of Scotland",SC015856,Aberdeenshire,AB34 4YG,57.12816878,-2.86404721,S02001300,S01006875
Tarland Parent & Toddler Group,SC017616,Aberdeenshire,AB34 4ZL,57.12936679,-2.86096953,S02001300,S01006875
Cromar Old People's Association,SC019964,Aberdeenshire,AB34 4UD,57.13218438,-2.85487286,S02001300,S01006875
Tarland Development Group,SC041598,Aberdeenshire,AB34 4ZQ,57.12743726,-2.86199842,S02001300,S01006875
1st Cromar Brownie Unit,SC045369,Aberdeenshire,AB34 4YN,57.12615013,-2.85843372,S02001300,S01006875
Banchory Gymnastics Club SCIO,SC049722,Aberdeenshire,AB34 4ZL,57.12936679,-2.86096953,S02001300,S01006875
Meldrum & Bourtie Parish Church Of Scotland,SC015960,Aberdeenshire,AB51 5EB,57.32580345,-2.46865572,S02001305,S01006915
1st Rayne North Guides,SC050281,Aberdeenshire,AB51 5AY,57.38092914,-2.4469731,S02001305,S01006915
West Mearns Parish Church of Scotland,SC016193,Aberdeenshire,AB30 1ET,56.86011594,-2.53726871,S02001287,S01006801
"Dickson Hall, Laurencekirk",SC038643,Aberdeenshire,AB30 1BE,56.83664912,-2.46617893,S02001287,S01006801
1st Laurencekirk Guides,SC042092,Aberdeenshire,AB30 1DZ,56.84824301,-2.47199565,S02001287,S01006801
1st Laurencekirk Senior Section Unit,SC044334,Aberdeenshire,AB30 1DZ,56.84824301,-2.47199565,S02001287,S01006801
Mearns District Girlguiding,SC044356,Aberdeenshire,AB30 1DZ,56.84824301,-2.47199565,S02001287,S01006801
Belhelvie Church Of Scotland,SC016387,Aberdeenshire,AB23 8YU,57.24799917,-2.09162745,S02001312,S01006953
Belhelvie Community Trust,SC045563,Aberdeenshire,AB23 8XF,57.25136899,-2.05988218,S02001312,S01006953
Pitmedden Playgroup,SC016521,Aberdeenshire,AB41 7PQ,57.33105294,-2.17034437,S02001316,S01006982
Pitmedden Public Park,SC016922,Aberdeenshire,AB41 7QD,57.33194353,-2.16938517,S02001316,S01006982
First Responder Scheme Pitmedden,SC036598,Aberdeenshire,AB41 7XD,57.33680046,-2.18410862,S02001316,S01006982
1st Udny Guides,SC036803,Aberdeenshire,AB41 7XD,57.33680046,-2.18410862,S02001316,S01006982
PUT Community SCIO,SC045547,Aberdeenshire,AB41 7PR,57.33368233,-2.16553967,S02001316,S01006982
eXplore Life Youth Project,SC048036,Aberdeenshire,AB41 7QA,57.34093882,-2.17976008,S02001316,S01006982
Pitmedden Amenities Trust SCIO,SC048116,Aberdeenshire,AB41 7PY,57.33693083,-2.18093649,S02001316,S01006982
Pitmedden Tiny Tots SCIO,SC048366,Aberdeenshire,AB41 7PQ,57.33105294,-2.17034437,S02001316,S01006982
Friends of Wood RecyclAbility SCIO,SC050548,Aberdeenshire,AB41 7PR,57.33368233,-2.16553967,S02001316,S01006982
St Combs Playing Fields & Community Association,SC016635,Aberdeenshire,AB43 8ZS,57.656832,-1.90775849,S02001339,S01007106
Assemblies Of God - St Combs,SC027418,Aberdeenshire,AB43 8ZT,57.65865826,-1.91177583,S02001339,S01007106
Peterhead And District Group Training Ltd,SC016792,Aberdeenshire,AB42 3JH,57.48634941,-1.82575876,S02001338,S01007097
Foundation Christian Fellowship,SC038759,Aberdeenshire,AB42 3GG,57.50404225,-1.82378894,S02001338,S01007097
1st Peterhead Rainbow Unit,SC047038,Aberdeenshire,AB42 3PP,57.49965391,-1.82032282,S02001338,S01007097
Kincardineshire Silver Jubilee Trust For Youth & Community Service,SC016953,Aberdeenshire,AB39 2TY,56.89641658,-2.22646876,S02001290,S01006819
Arbuthnott Community Enterprises Ltd,SC020682,Aberdeenshire,AB39 2TY,56.89641658,-2.22646876,S02001290,S01006819
4th Stonehaven Brownie Guides,SC035313,Aberdeenshire,AB39 2UN,56.90410628,-2.21638493,S02001290,S01006819
New Pitsligo Village Hall,SC017152,Aberdeenshire,AB43 6SE,57.62481761,-2.14178353,S02001329,S01007047
1st New Deer Rainbow Unit,SC039125,Aberdeenshire,AB53 6UU,57.55816782,-2.21249989,S02001329,S01007047
Inverbervie And District Day Centre,SC017164,Aberdeenshire,DD10 0SA,56.84470231,-2.28210473,S02001289,S01006815
Riding For The Disabled Association - Deeside Group,SC028681,Aberdeenshire,DD10 0PQ,56.84543342,-2.28845439,S02001289,S01006815
Grace Ministries (Inverbervie),SC033901,Aberdeenshire,DD10 0RU,56.84547502,-2.28204498,S02001289,S01006815
1st Inverbervie Rainbow Unit,SC038848,Aberdeenshire,DD10 0PD,56.84394547,-2.28701679,S02001289,S01006815
Fettercairn Public Property Committee,SC017364,Aberdeenshire,AB30 1XY,56.84993279,-2.57268425,S02001287,S01006802
Auchenblae Pre-School Group,SC021752,Aberdeenshire,AB30 1YB,56.85348986,-2.57862512,S02001287,S01006802
1st Fettercairn Brownie Unit,SC040083,Aberdeenshire,AB30 1YW,56.85310576,-2.57620886,S02001287,S01006802
1st Westhill Scout Group,SC017801,Aberdeenshire,AB32 6PN,57.16129045,-2.28206639,S02001308,S01006929
Lawsondale Sports Centre Trust,SC044049,Aberdeenshire,AB32 6PL,57.1621341,-2.28240348,S02001308,S01006929
Laurencekirk Christian Brethren,SC018467,Aberdeenshire,AB30 1BS,56.83086229,-2.47133442,S02001287,S01006804
Scout Hall Playgroup ( Westhill ),SC018585,Aberdeenshire,AB32 6FH,57.1561339,-2.29773095,S02001309,S01006939
Banchory Schools Association Prize Fund,SC019722,Aberdeenshire,AB31 5TQ,57.05267915,-2.492836,S02001298,S01006865
Banchory Heritage Society,SC022031,Aberdeenshire,AB31 5TP,57.0522589,-2.4923359,S02001298,S01006865
1st Banchory Scout Group,SC034476,Aberdeenshire,AB31 5UU,57.05324681,-2.49694824,S02001298,S01006865
Home-Start Deeside,SC038044,Aberdeenshire,AB31 5SR,57.05128319,-2.50499912,S02001298,S01006865
King George V Community Projects (Banchory)SCIO,SC043113,Aberdeenshire,AB31 5ST,57.05065589,-2.50238619,S02001298,S01006865
Gordon Dementia Services SCIO,SC020441,Aberdeenshire,AB32 6HD,57.15685901,-2.27112238,S02001308,S01006930
Slains School Parent Forum,SC020467,Aberdeenshire,AB42 0SU,57.39049494,-1.91082186,S02001315,S01006975
1st Newburgh Rainbow Unit,SC035032,Aberdeenshire,AB41 8LD,57.37721145,-1.9458427,S02001315,S01006975
Collieston Community Development Group,SC037307,Aberdeenshire,AB41 8RQ,57.34786922,-1.93571647,S02001315,S01006975
Collieston Harbour Heritage Group,SC044974,Aberdeenshire,AB41 8RQ,57.34786922,-1.93571647,S02001315,S01006975
Rainbow Rogues,SC046756,Aberdeenshire,AB41 8RQ,57.34786922,-1.93571647,S02001315,S01006975
SEAchange- Slains Environmental Action for change SCIO,SC049195,Aberdeenshire,AB41 8RS,57.34636987,-1.93724772,S02001315,S01006975
Stonehaven Baptist Church: Stonehaven,SC021248,Aberdeenshire,AB39 2WJ,56.96823511,-2.23792437,S02001292,S01006838
Alehousewells Primary School Parent Teacher Assoc,SC021834,Aberdeenshire,AB51 5FW,57.24062565,-2.44943158,S02001302,S01006889
Kembhill Park Flood Group,SC047830,Aberdeenshire,AB51 5LW,57.23992467,-2.45450941,S02001302,S01006889
Inverurie Community Recovery SCIO,SC050103,Aberdeenshire,AB51 5GG,57.23997176,-2.44891001,S02001302,S01006889
Aberchirder Playgroup & Toddlers,SC021872,Aberdeenshire,AB54 7SY,57.55950954,-2.63092963,S02001325,S01007031
Alexander Sangster of Westburns Mortification,SC022196,Aberdeenshire,AB51 0FH,57.23411706,-2.34278768,S02001306,S01006919
Kintore Allotments SCIO,SC051267,Aberdeenshire,AB51 0UD,57.23437163,-2.33835053,S02001306,S01006919
Aboyne and Deeside Festival,SC022329,Aberdeenshire,AB31 6JY,57.02547807,-2.42141361,S02001296,S01006855
Drumoak & Durris Playgroup,SC022753,Aberdeenshire,AB31 5BW,57.05935728,-2.33055638,S02001296,S01006855
Durris Kirkton Hall,SC024458,Aberdeenshire,AB31 6BP,57.05527949,-2.3749817,S02001296,S01006855
Woodend Arts Limited,SC022620,Aberdeenshire,AB31 5QA,57.06100452,-2.46762048,S02001297,S01006861
Girlguiding Banchory District,SC032750,Aberdeenshire,AB31 5JQ,57.06131707,-2.475275,S02001297,S01006861
1st Banchory Senior Section,SC033465,Aberdeenshire,AB31 5JQ,57.06131707,-2.475275,S02001297,S01006861
2nd Banchory Brownies,SC033474,Aberdeenshire,AB31 5JQ,57.06131707,-2.475275,S02001297,S01006861
Leys Charitable Trust,SC037647,Aberdeenshire,AB31 5ZU,57.06310053,-2.47163722,S02001297,S01006861
Deeside Rugby Football Club ,SC047171,Aberdeenshire,AB31 5ZU,57.06310053,-2.47163722,S02001297,S01006861
Dog Action Working Group Scotland SCIO ,SC022666,Aberdeenshire,AB33 8PX,57.23181898,-2.70115405,S02001301,S01006884
Alford and District Men's Shed,SC045341,Aberdeenshire,AB33 8AE,57.23518619,-2.70302369,S02001301,S01006884
Banff & Buchan Guides Association,SC022670,Aberdeenshire,AB53 6XN,57.50115689,-2.21724061,S02001330,S01007056
New Deer Community Association,SC033578,Aberdeenshire,AB53 6YL,57.51926669,-2.24135472,S02001330,S01007056
1st New Deer Brownie Unit,SC034952,Aberdeenshire,AB53 6XN,57.50115689,-2.21724061,S02001330,S01007056
1st New Deer Guide Unit,SC039504,Aberdeenshire,AB53 6XN,57.50115689,-2.21724061,S02001330,S01007056
Girlguiding Kincardine & Deeside ,SC022680,Aberdeenshire,AB31 5XQ,57.05745381,-2.49167928,S02001297,S01006860
4th Banchory Guides,SC033466,Aberdeenshire,AB31 5XQ,57.05745381,-2.49167928,S02001297,S01006860
3rd Banchory Rainbows,SC033477,Aberdeenshire,AB31 5XQ,57.05745381,-2.49167928,S02001297,S01006860
Thursday Group (banchory),SC036844,Aberdeenshire,AB31 5QY,57.05447947,-2.49190371,S02001297,S01006860
Home-Start Kincardine,SC022795,Aberdeenshire,AB39 2AL,56.96700222,-2.20900358,S02001292,S01006835
Royal British Legion Scotland Stonehaven Branch,SC028960,Aberdeenshire,AB39 2BA,56.96447816,-2.20885787,S02001292,S01006835
St Ternans Episcopal Church: Muchalls,SC023264,Aberdeenshire,AB39 8AG,57.03108223,-2.17196589,S02001290,S01006821
2nd Portlethen Rainbow Unit,SC046604,Aberdeenshire,AB39 8AH,57.03288481,-2.17416548,S02001290,S01006821
Special Needs Tuesday Club,SC023377,Aberdeenshire,AB42 1NX,57.51173373,-1.78476223,S02001336,S01007088
Newmachar Parish Church of Scotland,SC024017,Aberdeenshire,AB21 0WB,57.26505034,-2.18711553,S02001311,S01006946
New Machar After School Club,SC029500,Aberdeenshire,AB21 0WB,57.26505034,-2.18711553,S02001311,S01006946
All Saints Episcopal Church Whiterashes,SC035772,Aberdeenshire,AB21 0WB,57.26505034,-2.18711553,S02001311,S01006946
Newmachar Community Centre Association,SC037342,Aberdeenshire,AB21 0PJ,57.26657998,-2.19138429,S02001311,S01006946
1st Newmachar Brownie Unit,SC040063,Aberdeenshire,AB21 0PW,57.2673991,-2.19027768,S02001311,S01006946
Newburgh Angling Club Trust,SC050617,Aberdeenshire,AB21 0WF,57.26406028,-2.18233586,S02001311,S01006946
Air Training Corps No 1295 Peterhead Squadron Non - Public Sports & Welfare Funds,SC024620,Aberdeenshire,AB42 2YE,57.49878363,-1.7972519,S02001334,S01007073
Air Training Corps No 1297 Stonehaven Squadron Non - Public Sports & Welfare Funds,SC024622,Aberdeenshire,AB39 2GN,56.96043285,-2.22596943,S02001291,S01006823
Stonehaven And District Choral Society,SC030519,Aberdeenshire,AB39 2GJ,56.96205089,-2.22035528,S02001291,S01006823
4th Stonehaven Rainbows,SC041995,Aberdeenshire,AB39 2ZH,56.96148829,-2.22352566,S02001291,S01006823
Stonehaven and District Men's Shed,SC046805,Aberdeenshire,AB39 2GP,56.95958961,-2.22530659,S02001291,S01006823
Stonehaven Folk Festival,SC024654,Aberdeenshire,AB39 2GX,56.96183491,-2.22559971,S02001291,S01006825
Providing Adventurous Recreation For All Children In Stonehaven,SC033686,Aberdeenshire,AB39 2GE,56.96295213,-2.22873096,S02001291,S01006825
Stonehaven Tolbooth Association,SC043279,Aberdeenshire,AB39 2GF,56.96111025,-2.2337515,S02001291,S01006825
Stonehaven Folk Festival SCIO,SC049859,Aberdeenshire,AB39 2GX,56.96183491,-2.22559971,S02001291,S01006825
New Deer Agricultural Association,SC024684,Aberdeenshire,AB41 8BG,57.37257478,-2.07434688,S02001314,S01006970
5th Ellon Brownie Unit,SC037995,Aberdeenshire,AB41 8BN,57.37128227,-2.07264831,S02001314,S01006970
Sandhaven Parish Church Of Scotland,SC024874,Aberdeenshire,AB43 7ER,57.6976746,-2.06162679,S02001339,S01007109
Air Training Corps No 1383 Fraserburgh Squadron Non Public Sports & Welfare Funds,SC024926,Aberdeenshire,AB43 9SB,57.68851856,-2.00879632,S02001340,S01007113
Huntly Sports Trust,SC025765,Aberdeenshire,AB54 6HX,57.443741,-2.77271292,S02001321,S01007009
Huntly Christmas Lights Appeal,SC039412,Aberdeenshire,AB54 8NZ,57.44856318,-2.77736354,S02001321,S01007009
1st Huntly Rainbows,SC040852,Aberdeenshire,AB54 8ER,57.44901933,-2.77913948,S02001321,S01007009
2nd Huntly Rainbows,SC041362,Aberdeenshire,AB54 8ER,57.44901933,-2.77913948,S02001321,S01007009
Huntly Christian Fellowship ,SC048452,Aberdeenshire,AB54 8JF,57.44791531,-2.78044898,S02001321,S01007009
Huntly Community Sports Trust,SC049062,Aberdeenshire,AB54 8JE,57.44838855,-2.7823586,S02001321,S01007009
1st Portsoy & Fordyce Scouts Group,SC027267,Aberdeenshire,AB45 2PA,57.68392642,-2.69119999,S02001324,S01007025
The Gaitherin,SC027604,Aberdeenshire,AB32 7BX,57.19147223,-2.35344512,S02001296,S01006856
Dunecht School Parent Council,SC036126,Aberdeenshire,AB32 7BA,57.17507716,-2.42605962,S02001296,S01006856
1st Kemnay Guide Unit,SC039113,Aberdeenshire,AB32 7ER,57.18626483,-2.4275947,S02001296,S01006856
Rural Rascals Out of School Club,SC043971,Aberdeenshire,AB32 7BA,57.17507716,-2.42605962,S02001296,S01006856
Dunecht School Fund,SC048888,Aberdeenshire,AB32 7BA,57.17507716,-2.42605962,S02001296,S01006856
Elrick Primary School Parent Council,SC028053,Aberdeenshire,AB32 6QB,57.15151403,-2.29118165,S02001309,S01006937
1st Westhill Brownies,SC041229,Aberdeenshire,AB32 6RG,57.15214406,-2.28675695,S02001309,S01006937
1st Westhill Ranger Unit,SC051003,Aberdeenshire,AB32 6RG,57.15214406,-2.28675695,S02001309,S01006937
Church Of The Christian Pentecostal Fellowship Zion Tabernacle Peterhead,SC028169,Aberdeenshire,AB42 1HJ,57.51164457,-1.79050437,S02001336,S01007081
2nd Peterhead Rainbow Unit,SC038399,Aberdeenshire,AB42 1HJ,57.51164457,-1.79050437,S02001336,S01007081
Garioch Carriage Driving For Disabled Group,SC028644,Aberdeenshire,AB23 8XN,57.27981927,-2.12015118,S02001312,S01006957
Belhelvie Community First Responders,SC048318,Aberdeenshire,AB23 8YN,57.26089435,-2.08484634,S02001312,S01006957
Strathbogie Riding For The Disabled ,SC028682,Aberdeenshire,AB52 6QF,57.31568018,-2.59588165,S02001301,S01006888
2nd Alford Brownies,SC031723,Aberdeenshire,AB33 8BH,57.25904501,-2.64796248,S02001301,S01006888
1st Insch Ranger Unit,SC037197,Aberdeenshire,AB52 6QD,57.30828562,-2.62578935,S02001301,S01006888
Keig Community Hall Users' Group,SC041869,Aberdeenshire,AB33 8BH,57.25904501,-2.64796248,S02001301,S01006888
Fly Cup Catering Limited,SC029395,Aberdeenshire,AB51 4FS,57.28687029,-2.39589862,S02001303,S01006898
BECS - Because Everyone Counts SCIO,SC048048,Aberdeenshire,AB51 4FS,57.28687029,-2.39589862,S02001303,S01006898
Royal British Legion Scotland Inverurie & District Branch,SC029642,Aberdeenshire,AB51 3QT,57.28456114,-2.3815584,S02001304,S01006908
4th Inverurie Brownies In Gordon County,SC035212,Aberdeenshire,AB51 4RR,57.28743663,-2.3812398,S02001304,S01006908
Millbank Hall Community Association,SC029891,Aberdeenshire,AB51 7RX,57.18822273,-2.56209397,S02001301,S01006881
Cushnie And Tough Parish Church of Scotland,SC030817,Aberdeenshire,AB33 8EU,57.21266351,-2.63776193,S02001301,S01006881
Christian Brethren Fraserburgh,SC030118,Aberdeenshire,AB43 9FH,57.67908657,-2.01535008,S02001340,S01007117
Butterfly ForRest,SC030830,Aberdeenshire,AB51 4FN,57.29401572,-2.39746871,S02001303,S01006900
1st Aboyne Brownie Unit,SC031102,Aberdeenshire,AB34 5QF,57.07654206,-2.76870624,S02001286,S01006799
Aboyne Medical Amenities Fund,SC037705,Aberdeenshire,AB34 5GD,57.08030155,-2.77091216,S02001286,S01006799
The Friends of Allachburn (SCIO),SC043702,Aberdeenshire,AB34 5GW,57.07695143,-2.7737129,S02001286,S01006799
Aboyne Gymnastics and Trampoline Club (SCIO),SC048070,Aberdeenshire,AB34 5GW,57.07695143,-2.7737129,S02001286,S01006799
Ballater And District Pipe Band,SC024340,Aberdeenshire,AB34 5HQ,57.0770248,-2.76762752,S02001286,S01006799
5th Peterhead Guide Unit,SC031157,Aberdeenshire,AB42 1NH,57.51465193,-1.78943556,S02001336,S01007082
9th Peterhead Brownie Unit,SC038542,Aberdeenshire,AB42 1NH,57.51465193,-1.78943556,S02001336,S01007082
Buchanhaven Harbour (SCIO),SC047085,Aberdeenshire,AB42 1NH,57.51465193,-1.78943556,S02001336,S01007082
1st Aboyne Guide Unit,SC031282,Aberdeenshire,AB34 5HB,57.07159247,-2.78889062,S02001286,S01006794
Aboyne Canoe Club SCIO,SC047329,Aberdeenshire,AB34 5HG,57.07246017,-2.79232323,S02001286,S01006794
2nd Westhill Rainbow Unit,SC031284,Aberdeenshire,AB32 6PR,57.15567223,-2.29921495,S02001310,S01006945
Russell Anderson Foundation,SC047881,Aberdeenshire,AB32 6PY,57.15568318,-2.29838853,S02001310,S01006945
1st Kintore Brownie Unit,SC031368,Aberdeenshire,AB33 8HD,57.23773497,-2.65184627,S02001301,S01006887
1st Alford Rainbow Unit,SC036487,Aberdeenshire,AB33 8HD,57.23773497,-2.65184627,S02001301,S01006887
3rd Alford Brownie Unit,SC048766,Aberdeenshire,AB33 8HD,57.23773497,-2.65184627,S02001301,S01006887
Portlethen & District Voluntary Community Ambulance Association,SC031829,Aberdeenshire,AB12 4NY,57.06278099,-2.13801385,S02001294,S01006842
Gartly Community Association,SC031888,Aberdeenshire,AB54 4QD,57.38080577,-2.80995763,S02001320,S01007006
Rhynie Community Facilities Development Charitable Trust,SC037455,Aberdeenshire,AB54 4GB,57.33234566,-2.83279242,S02001320,S01007006
2nd Huntly Brownie Unit,SC040894,Aberdeenshire,AB54 4RQ,57.39667964,-2.77118941,S02001320,S01007006
Car Aid Rhynie,SC046324,Aberdeenshire,AB54 4WA,57.32961922,-2.83347812,S02001320,S01007006
"Deveron, Bogie and Isla Rivers Charitable Trust",SC032131,Aberdeenshire,AB54 7YY,57.5092772,-2.77464895,S02001320,S01007002
1st Portlethen Scout Group,SC032167,Aberdeenshire,AB12 3RL,57.06801619,-2.10274237,S02001295,S01006852
The Forget-Me-Not Club,SC032239,Aberdeenshire,AB31 5XA,57.05463947,-2.49688442,S02001298,S01006866
Banchory Paths,SC049302,Aberdeenshire,AB31 4EG,57.05682819,-2.50218932,S02001298,S01006866
6th Inverurie Brownie Unit,SC032462,Aberdeenshire,AB51 4RZ,57.29034534,-2.39346397,S02001303,S01006897
1st Inverurie Rainbow Unit,SC039901,Aberdeenshire,AB51 4TJ,57.29008306,-2.39115509,S02001303,S01006897
Fit Heart - Ellon,SC033158,Aberdeenshire,AB41 9DA,57.37286381,-2.09817488,S02001314,S01006967
2nd Belhelvie Brownie Unit,SC035058,Aberdeenshire,AB41 9FG,57.37191858,-2.10076619,S02001314,S01006967
4th Ellon Brownie Unit,SC038037,Aberdeenshire,AB41 9FB,57.37080931,-2.09487729,S02001314,S01006967
3rd And 3rd A Fraserburgh Rainbow Unit,SC033308,Aberdeenshire,AB43 8TB,57.67464183,-1.93324733,S02001339,S01007103
Invercairn Community Hall,SC048822,Aberdeenshire,AB43 8YD,57.67325739,-1.93105366,S02001339,S01007103
Invercairn Playgroup,SC050323,Aberdeenshire,AB43 8XZ,57.67520562,-1.9293734,S02001339,S01007103
1st Banchory Rainbows,SC033464,Aberdeenshire,AB31 5YT,57.05081486,-2.4894651,S02001297,S01006862
Banchory Skatepark Group,SC047788,Aberdeenshire,AB31 5YP,57.05294665,-2.48413565,S02001297,S01006862
2nd Banchory Guides,SC033468,Aberdeenshire,AB31 5ZX,57.06065066,-2.48507687,S02001297,S01006864
Banchory Sports Village Trust,SC033547,Aberdeenshire,AB31 4EP,57.05910804,-2.50266527,S02001299,S01006872
1st Maryculter Brownies,SC035542,Aberdeenshire,AB31 5QE,57.05724194,-2.45257041,S02001299,S01006872
Crathes Public Hall Trust (SCIO),SC043007,Aberdeenshire,AB31 5JJ,57.07275878,-2.40727066,S02001299,S01006872
Deeside District Scout Council,SC046935,Aberdeenshire,AB31 5BU,57.06589651,-2.48051154,S02001299,S01006872
Banchory Community Football Club,SC051182,Aberdeenshire,AB31 4FW,57.0619594,-2.48580296,S02001299,S01006872
2nd Fraserburgh Company Girls Brigade,SC033667,Aberdeenshire,AB43 7JF,57.69486183,-2.11489902,S02001339,S01007110
1st Rosehearty Brownie Unit,SC038391,Aberdeenshire,AB43 7JL,57.69499312,-2.11862347,S02001339,S01007110
Rosehearty Community Boat Club,SC045366,Aberdeenshire,AB43 7JU,57.69218026,-2.12012389,S02001339,S01007110
1st Sandhaven Brownie Unit,SC048385,Aberdeenshire,AB43 7JP,57.69521483,-2.11189741,S02001339,S01007110
Grampian Clan Unified Rugby Club,SC050420,Aberdeenshire,AB43 7NZ,57.69114544,-2.12206615,S02001339,S01007110
Drumoak - Durris Church Of Scotland,SC033779,Aberdeenshire,AB31 5AA,57.07981791,-2.34825771,S02001296,S01006854
Longside Community Park Project,SC033829,Aberdeenshire,AB42 4TR,57.51615975,-1.93877733,S02001338,S01007096
Inverkeithny Kirk Preservation Trust,SC040952,Aberdeenshire,AB42 4TU,57.50921838,-1.96943102,S02001338,S01007096
1st Kinellar Scout Group,SC034018,Aberdeenshire,AB21 0HR,57.21124356,-2.28661954,S02001307,S01006927
Blackburn Football Club,SC043928,Aberdeenshire,AB21 0JZ,57.21154251,-2.28943623,S02001307,S01006927
1st Kemnay Rainbow Unit,SC034410,Aberdeenshire,AB51 5PD,57.23900152,-2.44387825,S02001302,S01006893
1st Kemnay Scout Group,SC039162,Aberdeenshire,AB51 5FT,57.23895426,-2.44454038,S02001302,S01006893
2nd Kemnay Brownie Unit,SC049232,Aberdeenshire,AB51 5PD,57.23900152,-2.44387825,S02001302,S01006893
Kintore 0-3 Group,SC034472,Aberdeenshire,AB51 0SA,57.23603892,-2.35587622,S02001306,S01006921
1st Kintore Scouts,SC036311,Aberdeenshire,AB51 0FB,57.23538745,-2.35116523,S02001306,S01006921
2nd Kintore Brownie Unit,SC038397,Aberdeenshire,AB51 0ST,57.23738236,-2.35411652,S02001306,S01006921
1st Turriff Scout Troop,SC034601,Aberdeenshire,AB53 4SP,57.53985954,-2.4740573,S02001323,S01007018
2nd Ellon Brownie Unit,SC034631,Aberdeenshire,AB41 8BT,57.37313651,-2.06575146,S02001313,S01006960
1st Westhill Rainbows,SC034706,Aberdeenshire,AB32 6TF,57.1541602,-2.27292086,S02001309,S01006935
5th Stonehaven Brownies,SC034779,Aberdeenshire,AB39 2PS,56.95688462,-2.21570455,S02001291,S01006829
1st Balmedie Scouts,SC034899,Aberdeenshire,AB23 8WB,57.25025556,-2.05893574,S02001312,S01006956
2nd Belhelvie Rainbows,SC042203,Aberdeenshire,AB23 8ZR,57.24810915,-2.05788829,S02001312,S01006956
2nd Inverurie Guides,SC034988,Aberdeenshire,AB12 4RN,57.06625021,-2.12793468,S02001295,S01006850
1st Inverurie Senior Section Unit,SC048156,Aberdeenshire,AB12 4RN,57.06625021,-2.12793468,S02001295,S01006850
1st Belhelvie Rainbow Unit,SC035020,Aberdeenshire,AB23 8UB,57.2300409,-2.0936532,S02001312,S01006954
1st Belhelvie Guide Unit,SC035030,Aberdeenshire,AB23 8AR,57.21795608,-2.07055732,S02001312,S01006954
1st Belhelvie Rangers,SC040450,Aberdeenshire,AB23 8AR,57.21795608,-2.07055732,S02001312,S01006954
1st Banff Brownies,SC035105,Aberdeenshire,AB44 1RN,57.67026902,-2.49238834,S02001327,S01007038
1st Macduff Brownie Unit,SC039340,Aberdeenshire,AB44 1TN,57.67075905,-2.49571426,S02001327,S01007038
2nd Macduff Rainbow Unit,SC039341,Aberdeenshire,AB44 1TN,57.67075905,-2.49571426,S02001327,S01007038
1st Macduff Guide Unit,SC039403,Aberdeenshire,AB44 1SL,57.67158501,-2.49121591,S02001327,S01007038
1st MacDuff Senior Section Unit,SC040290,Aberdeenshire,AB44 1QN,57.67028878,-2.49423262,S02001327,S01007038
Friends of Macduff Marine Aquarium,SC046309,Aberdeenshire,AB44 1SL,57.67158501,-2.49121591,S02001327,S01007038
Garioch Heritage Society,SC035165,Aberdeenshire,AB51 4FY,57.28898233,-2.37805394,S02001304,S01006907
2nd Inverurie Rainbow Unit,SC038501,Aberdeenshire,AB51 3XP,57.28190506,-2.37161202,S02001304,S01006907
Caf Philosophique Aberdeenshire,SC042534,Aberdeenshire,AB51 3SN,57.2845745,-2.37412713,S02001304,S01006907
Inverurie Out of School Club (SCIO),SC047820,Aberdeenshire,AB51 3QZ,57.28363408,-2.37919337,S02001304,S01006907
Friends of The Amal Project (SCIO),SC050851,Aberdeenshire,AB51 3PN,57.28329645,-2.37496011,S02001304,S01006907
Port Elphinstone Community House,SC035192,Aberdeenshire,AB51 3UX,57.26987347,-2.3697497,S02001304,S01006903
Port Elphinstone Community House SCIO,SC050747,Aberdeenshire,AB51 3UX,57.26987347,-2.3697497,S02001304,S01006903
1st Alford Scout Group,SC035435,Aberdeenshire,AB51 0TF,57.23251041,-2.35524588,S02001306,S01006917
1st Kintore Rainbow Unit,SC038408,Aberdeenshire,AB51 0SJ,57.23270906,-2.35804722,S02001306,S01006917
3rd Kintore Rainbows,SC041519,Aberdeenshire,AB51 0SJ,57.23270906,-2.35804722,S02001306,S01006917
1st Kintore Guides,SC042378,Aberdeenshire,AB51 0TF,57.23251041,-2.35524588,S02001306,S01006917
1st Kintore Senior Section Unit,SC044364,Aberdeenshire,AB51 0TF,57.23251041,-2.35524588,S02001306,S01006917
Sensational Kintore Summer Festival,SC035504,Aberdeenshire,AB51 0SX,57.22824505,-2.34828166,S02001306,S01006916
2nd Kintore Rainbow Unit,SC040307,Aberdeenshire,AB51 0ZN,57.23059608,-2.34918171,S02001306,S01006916
4th Kintore Rainbows,SC043351,Aberdeenshire,AB51 0ZN,57.23059608,-2.34918171,S02001306,S01006916
Aberdeenshire Signposting Project,SC044694,Aberdeenshire,AB51 0TH,57.22422045,-2.34511371,S02001306,S01006916
Garioch Gymnastics Club SCIO,SC046232,Aberdeenshire,AB51 0TH,57.22422045,-2.34511371,S02001306,S01006916
Inverurie & District Round Table Charitable Trust Fund,SC035609,Aberdeenshire,AB51 5RY,57.2873237,-2.40303685,S02001305,S01006909
Inverurie Events,SC043539,Aberdeenshire,AB51 5QQ,57.2859088,-2.40166111,S02001305,S01006909
Fraserburgh Rangers,SC035653,Aberdeenshire,AB42 5WA,57.52124042,-1.99349539,S02001331,S01007057
Aden Community Allotment Association SCIO,SC048430,Aberdeenshire,AB42 5ES,57.52154589,-1.99496451,S02001331,S01007057
Mintlaw and District Men's Shed,SC049326,Aberdeenshire,AB42 5EG,57.5205938,-1.99685115,S02001331,S01007057
1st Banff Guide Unit,SC035779,Aberdeenshire,AB45 1BT,57.66312997,-2.5318296,S02001326,S01007035
Aberdeenshire North Access Panel,SC035998,Aberdeenshire,AB42 3AR,57.46969739,-1.78590933,S02001333,S01007069
Boddam Recreation Trust SCIO ,SC048789,Aberdeenshire,AB42 3AP,57.4701069,-1.78905791,S02001333,S01007069
Revive Community Church,SC036182,Aberdeenshire,AB42 1SE,57.50629154,-1.79083539,S02001336,S01007084
Peterhead Scottish Week Limited,SC041682,Aberdeenshire,AB42 1AD,57.50796644,-1.79336256,S02001336,S01007084
Royal Air Forces Association Fraserburgh Branch,SC036492,Aberdeenshire,AB43 9NP,57.68366695,-2.01939356,S02001342,S01007124
1st Stonehaven Guides,SC036677,Aberdeenshire,AB39 2PQ,56.97328578,-2.22716589,S02001292,S01006837
Stonehaven Gymnastics Club (SCIO),SC051132,Aberdeenshire,AB39 2XH,56.97262014,-2.2325242,S02001292,S01006837
Mintlaw And Central Buchan Initiative,SC036725,Aberdeenshire,AB42 5EL,57.52333349,-2.00032371,S02001331,S01007058
1st Mintlaw Rainbow Unit,SC038588,Aberdeenshire,AB42 5UA,57.51977643,-1.99972266,S02001331,S01007058
Central Aberdeenshire Access Panel,SC036798,Aberdeenshire,AB21 7PE,57.2439798,-2.16561724,S02001312,S01006952
Bettridge Duke Of Edinburgh Awards Group,SC036926,Aberdeenshire,AB12 4XL,57.05190255,-2.13787451,S02001294,S01006845
1st Peterhead Scout Group,SC037038,Aberdeenshire,AB42 1GS,57.50874466,-1.80839535,S02001337,S01007093
1st Inverurie Brownies,SC037118,Aberdeenshire,AB51 4RB,57.28503063,-2.38665583,S02001303,S01006894
Royal Air Forces Association Inverurie Branch,SC038337,Aberdeenshire,AB51 3WY,57.28139372,-2.38918858,S02001303,S01006894
1st Oldmeldrum Rainbow Unit,SC050611,Aberdeenshire,AB51 4RB,57.28503063,-2.38665583,S02001303,S01006894
Aberdeenshire South Access Panel,SC037288,Aberdeenshire,AB39 3RW,57.03660777,-2.15037337,S02001293,S01006841
Limits Allstar Dance and Cheer SCIO,SC046257,Aberdeenshire,AB39 3XW,57.03745894,-2.1522223,S02001293,S01006841
Spectrum Singers,SC037966,Aberdeenshire,AB51 0FE,57.23390301,-2.34550239,S02001306,S01006918
Royal Air Forces Association - Peterhead Branch,SC037970,Aberdeenshire,AB42 1RA,57.50883277,-1.79582772,S02001336,S01007083
3rd Ellon Rainbows,SC038036,Aberdeenshire,AB41 9JF,57.36676205,-2.05922306,S02001313,S01006958
Ellon and District Sports Development Trust,SC045921,Aberdeenshire,AB41 9QJ,57.36457131,-2.05699191,S02001313,S01006958
1st Ellon Brownie Unit,SC038231,Aberdeenshire,AB41 9DP,57.3682519,-2.09129617,S02001314,S01006965
The Ellon & District Royal British Legion Pipe Band,SC048567,Aberdeenshire,AB41 9FP,57.36073544,-2.08841843,S02001314,S01006965
Girlguiding Ellon District,SC038250,Aberdeenshire,AB51 0QX,57.26884471,-2.30084593,S02001306,S01006924
10th Peterhead Brownie Unit,SC038387,Aberdeenshire,AB42 3FH,57.51325988,-1.81855353,S02001338,S01007098
1st Stuartfield Guide Unit,SC039078,Aberdeenshire,AB42 3NR,57.51702702,-1.82098875,S02001338,S01007098
Peterhead Street Pastors,SC044460,Aberdeenshire,AB42 3DF,57.51764401,-1.83894792,S02001338,S01007098
1st Peterhead Guide Unit,SC048321,Aberdeenshire,AB42 3NR,57.51702702,-1.82098875,S02001338,S01007098
3rd Peterhead Guide Unit,SC038403,Aberdeenshire,AB42 1EZ,57.50980518,-1.81481542,S02001337,S01007092
1st Crimond Guide Unit,SC038577,Aberdeenshire,AB42 1GP,57.50801032,-1.81594266,S02001337,S01007092
1st Crimond Brownie Unit,SC038578,Aberdeenshire,AB42 1GP,57.50801032,-1.81594266,S02001337,S01007092
1st Hatton Brownie Unit,SC038821,Aberdeenshire,AB42 1GP,57.50801032,-1.81594266,S02001337,S01007092
1st Hatton Rainbow Unit,SC039037,Aberdeenshire,AB42 1GP,57.50801032,-1.81594266,S02001337,S01007092
3rd Peterhead Rainbow Unit,SC047373,Aberdeenshire,AB42 1GP,57.50801032,-1.81594266,S02001337,S01007092
1st Newburgh Brownie Unit,SC038662,Aberdeenshire,AB41 9UF,57.3690743,-2.09665177,S02001314,S01006966
Garioch Church,SC038781,Aberdeenshire,AB41 7GF,57.33948256,-2.18664718,S02001316,S01006983
Udny Community Trust  Company Limited,SC043777,Aberdeenshire,AB41 7NY,57.33743194,-2.18226789,S02001316,S01006983
Pawpalz Peer Support Service SCIO,SC051061,Aberdeenshire,AB41 7PL,57.358523,-2.16972386,S02001316,S01006983
2nd Stonehaven Rainbow Unit,SC038832,Aberdeenshire,AB39 2BZ,56.96805155,-2.2254893,S02001292,S01006831
2nd Stonehaven Brownies,SC040840,Aberdeenshire,AB39 2AF,56.97055273,-2.2283335,S02001292,S01006831
3rd Stonehaven Brownies,SC041024,Aberdeenshire,AB39 2AF,56.97055273,-2.2283335,S02001292,S01006831
Stonehaven Senior Section,SC041026,Aberdeenshire,AB39 2AF,56.97055273,-2.2283335,S02001292,S01006831
2nd Stonehaven Guides,SC043015,Aberdeenshire,AB39 2BZ,56.96805155,-2.2254893,S02001292,S01006831
Exercise After Stroke- Stonehaven,SC044740,Aberdeenshire,AB39 2BZ,56.96805155,-2.2254893,S02001292,S01006831
6th Fraserburgh Rainbow Unit,SC039075,Aberdeenshire,AB42 5TD,57.52036844,-2.01419696,S02001331,S01007059
4th Peterhead Brownie Unit,SC048213,Aberdeenshire,AB42 5EU,57.52619869,-2.00685243,S02001331,S01007059
1st Strichen Guide Unit,SC050956,Aberdeenshire,AB42 5TD,57.52036844,-2.01419696,S02001331,S01007059
6th Fraserburgh Brownie Unit,SC050957,Aberdeenshire,AB42 5TD,57.52036844,-2.01419696,S02001331,S01007059
The Family History Society of Buchan,SC039533,Aberdeenshire,AB42 1JL,57.50499838,-1.77532319,S02001336,S01007087
Peterhead & District Men's Shed,SC045770,Aberdeenshire,AB42 1LF,57.51069501,-1.77628965,S02001336,S01007087
Peterhead Athletics Club,SC051272,Aberdeenshire,AB42 1LJ,57.5105335,-1.77639078,S02001336,S01007087
Portlethen Moss Conservation Group,SC040350,Aberdeenshire,AB12 4XB,57.05436265,-2.1390376,S02001294,S01006846
1st Huntly Brownies,SC040682,Aberdeenshire,AB54 4RR,57.40344385,-2.78715824,S02001320,S01007003
2nd Westhill Brownies,SC040933,Aberdeenshire,AB51 6AN,57.29364209,-2.36978915,S02001305,S01006911
2nd OldMeldrum Brownies,SC041448,Aberdeenshire,AB51 0NW,57.33627333,-2.32819131,S02001317,S01006988
Shazam Theatre Company SCIO,SC045356,Aberdeenshire,AB21 0QR,57.31368013,-2.27239303,S02001317,S01006988
Village Church,SC050020,Aberdeenshire,AB51 0BH,57.32406715,-2.29878995,S02001317,S01006988
80s Heritage Diesel Locomotives,SC050338,Aberdeenshire,AB51 0JU,57.31394831,-2.28512807,S02001317,S01006988
Davy Crabb/Mearns Foundation,SC041646,Aberdeenshire,AB39 2PD,56.97390845,-2.23052539,S02001292,S01006834
The Bellman (SCIO),SC050368,Aberdeenshire,AB39 2PN,56.97305682,-2.22461488,S02001292,S01006834
Church of Christ Peterhead,SC042059,Aberdeenshire,AB42 2UH,57.50502289,-1.81852759,S02001337,S01007091
6th Peterhead Brownies,SC042198,Aberdeenshire,AB42 2WB,57.49870296,-1.80304199,S02001334,S01007074
1st Ellon Scout Group,SC042632,Aberdeenshire,AB41 9EU,57.36075072,-2.09215846,S02001313,S01006964
Anna Ritchie Parent Council,SC043157,Aberdeenshire,AB42 2AP,57.50604221,-1.79769567,S02001335,S01007079
Peterhead Area Community Trust (SCIO),SC048463,Aberdeenshire,AB42 2BL,57.50442827,-1.79952352,S02001335,S01007079
Garioch Under 5's Forum,SC043308,Aberdeenshire,AB51 3YB,57.28034365,-2.38304065,S02001304,S01006906
3rd Westhill Rainbow Unit,SC044888,Aberdeenshire,AB32 6WD,57.15725781,-2.28570552,S02001308,S01006933
Portlethen and District Men's Shed,SC044995,Aberdeenshire,AB12 4RB,57.07162182,-2.12823358,S02001295,S01006849
RCCG - House of Salvation ,SC045795,Aberdeenshire,AB12 4PH,57.07443159,-2.1301236,S02001295,S01006849
Craigievar Community and Hall Association SCIO ,SC045609,Aberdeenshire,AB33 8HR,57.20575492,-2.71929834,S02001300,S01006877
Turriff and District Men's Shed ,SC046365,Aberdeenshire,AB53 4HD,57.53451755,-2.48517786,S02001322,S01007014
Albert Street Hall Trust,SC046666,Aberdeenshire,AB43 9AG,57.69092309,-2.02741501,S02001341,S01007120
Fraserburgh Rugby Football Club,SC051018,Aberdeenshire,AB43 9TY,57.68980019,-2.02798442,S02001341,S01007120
Daniel's Place,SC046874,Aberdeenshire,AB44 1NP,57.66717065,-2.49224575,S02001327,S01007040
Day Activities Support Association SCIO,SC047084,Aberdeenshire,AB51 3TR,57.27961909,-2.37002991,S02001304,S01006904
Alford Youth Cafe,SC048050,Aberdeenshire,AB33 8DB,57.2742531,-2.69670368,S02001320,S01007005
Alford Cancer Massage,SC050081,Aberdeenshire,AB33 8AT,57.25129636,-2.70081138,S02001320,S01007005
Friends of Haughton Park (SCIO),SC050146,Aberdeenshire,AB33 8AT,57.25129636,-2.70081138,S02001320,S01007005
Tullynessle & Forbes Community & Hall Association (SCIO),SC051048,Aberdeenshire,AB33 8AT,57.25129636,-2.70081138,S02001320,S01007005
Alford Valley Community Railway Ltd,SC051076,Aberdeenshire,AB33 8AT,57.25129636,-2.70081138,S02001320,S01007005
Friends of Maud Railway Museum (SCIO),SC048327,Aberdeenshire,AB32 6RA,57.15044587,-2.29082617,S02001310,S01006941
1st Macduff Scout Group Council,SC048455,Aberdeenshire,AB44 1PY,57.66392218,-2.48678797,S02001327,S01007037
AOG Central Fraserburgh,SC048510,Aberdeenshire,AB43 9PQ,57.68801524,-2.0124692,S02001342,S01007122
Friends of Westfield,SC049411,Aberdeenshire,AB43 9BL,57.68529213,-2.02296654,S02001341,S01007119
Admiralty Gateway Charitable Trust,SC049803,Aberdeenshire,AB42 2ZX,57.49185322,-1.7942375,S02001334,S01007072
Blueskate Peterhead,SC049808,Aberdeenshire,AB42 1TY,57.509066,-1.78481129,S02001336,S01007085
Peterhead and District Allotment Society [SCIO],SC050261,Aberdeenshire,AB42 2FP,57.49865231,-1.81105098,S02001334,S01007077
Light Up Peterhead,SC050717,Aberdeenshire,AB42 2FJ,57.50107797,-1.81130544,S02001334,S01007077
Newmachar and Kingseat Community Allotments [SCIO],SC050679,Aberdeenshire,AB21 0AD,57.25971092,-2.1569852,S02001311,S01006950
Let's All Talk North East Mums,SC051029,Aberdeenshire,AB51 4GP,57.29116141,-2.39675769,S02001303,S01006901
