Name,Charity Number,Local authority,Postcode,Latitude,Longitude,IntermediateZone2011Code,DataZone2011Code
Stoneyburn Community Education Centre Assoc,SC000001,West Lothian,EH47 8BY,55.84607238,-3.6333608,S02002479,S01013253
St John The Baptist Over 50s Group,SC033074,West Lothian,EH47 8DG,55.84376621,-3.63851868,S02002479,S01013253
Rainbow Vaulting Group,SC039442,West Lothian,EH47 8BP,55.84752939,-3.63259133,S02002479,S01013253
MOOD (SCIO),SC048845,West Lothian,EH47 8DE,55.84437591,-3.63659579,S02002479,S01013253
2nd West Lothian Scout Group,SC000407,West Lothian,EH49 6AA,55.97641759,-3.58721553,S02002507,S01013441
Society Of Friends Of St Michaels Parish Church Of Scotland,SC003911,West Lothian,EH49 6AN,55.97376061,-3.59534349,S02002507,S01013441
Donaldson's School Parent Staff Association,SC039736,West Lothian,EH49 6BZ,55.97434737,-3.59860473,S02002507,S01013441
Springfield Community Education Association,SC000462,West Lothian,EH49 7SN,55.9803279,-3.58221486,S02002509,S01013449
Springfield Out Of School Care Club SCIO,SC024476,West Lothian,EH49 7SN,55.9803279,-3.58221486,S02002509,S01013449
8th Linlithgow Brownies,SC032190,West Lothian,EH49 7JP,55.98107551,-3.58487396,S02002509,S01013449
Citizens Advice Bureau West Lothian,SC000630,West Lothian,EH54 5EH,55.89690347,-3.49728416,S02002487,S01013306
West Lothian Drug & Alcohol Service,SC005776,West Lothian,EH54 5EH,55.89690347,-3.49728416,S02002487,S01013306
Craigshill Good Neighbour Network,SC007280,West Lothian,EH54 5EJ,55.89699437,-3.49572036,S02002487,S01013306
Open Door Accommodation Project,SC008533,West Lothian,EH54 5EH,55.89690347,-3.49728416,S02002487,S01013306
First Steps Playgroup For Children With Special Needs,SC024136,West Lothian,EH54 5EJ,55.89699437,-3.49572036,S02002487,S01013306
Signpost,SC032398,West Lothian,EH54 5EJ,55.89699437,-3.49572036,S02002487,S01013306
Beatlie School Parent Council,SC033581,West Lothian,EH54 5EJ,55.89699437,-3.49572036,S02002487,S01013306
Prior Communities Ltd,SC038295,West Lothian,EH54 5EH,55.89690347,-3.49728416,S02002487,S01013306
Daisy Drop In,SC039424,West Lothian,EH54 5EH,55.89690347,-3.49728416,S02002487,S01013306
Armadale Parish Church Of Scotland,SC000791,West Lothian,EH48 3TU,55.89904091,-3.7150143,S02002500,S01013386
Breich Valley Parish Church Of Scotland,SC000800,West Lothian,EH47 8JD,55.85891527,-3.68061874,S02002499,S01013378
Whitburn Pentecostal Church,SC008274,West Lothian,EH47 8HJ,55.85976354,-3.68298819,S02002499,S01013378
Answer Project,SC029271,West Lothian,EH47 8HJ,55.85976354,-3.68298819,S02002499,S01013378
West Lothian Financial Inclusion Network SCIO,SC039867,West Lothian,EH47 8HB,55.86103213,-3.68877941,S02002499,S01013378
Family And Community Development West Lothian,SC000843,West Lothian,EH52 6EY,55.93536712,-3.4947497,S02002511,S01013463
Simply Play,SC041420,West Lothian,EH52 6EY,55.93536712,-3.4947497,S02002511,S01013463
Whitburn South Parish Church of Scotland,SC001053,West Lothian,EH47 8NZ,55.84433239,-3.67850389,S02002497,S01013364
St Joseph's Parent Council,SC039454,West Lothian,EH47 8FD,55.84347976,-3.68039968,S02002497,S01013364
Broxburn Baptist Church,SC001425,West Lothian,EH52 6BP,55.93076488,-3.50960291,S02002512,S01013469
"Strathbrock Parish Church of Scotland, Uphall",SC006336,West Lothian,EH52 6BY,55.93146451,-3.50897383,S02002512,S01013469
Uphall Playgroup,SC010836,West Lothian,EH52 6BN,55.92909685,-3.51225909,S02002512,S01013469
Uphall Community Education Centre Association,SC031603,West Lothian,EH52 6BN,55.92909685,-3.51225909,S02002512,S01013469
St Nicholas United Free Church Of Scotland: Broxburn,SC001621,West Lothian,EH52 5QT,55.93183494,-3.46791354,S02002513,S01013476
Broxburn Parish Church of Scotland,SC017180,West Lothian,EH52 5QT,55.93183494,-3.46791354,S02002513,S01013476
Seafield Community Education Centre,SC001629,West Lothian,EH47 7AL,55.87625838,-3.59559354,S02002495,S01013354
Pinewood Parent Staff Association,SC032502,West Lothian,EH47 7FA,55.8779134,-3.59339152,S02002495,S01013354
West Lothian Women's Aid,SC001784,West Lothian,EH54 6HZ,55.88294269,-3.503637,S02002483,S01013282
West Lothian Women's Aid SCIO,SC046887,West Lothian,EH54 6HZ,55.88294269,-3.503637,S02002483,S01013282
Armadale Community Education Association,SC001801,West Lothian,EH48 3QB,55.89959332,-3.69915601,S02002500,S01013388
Blackridge Parish Church of Scotland,SC006811,West Lothian,EH48 2PZ,55.90012807,-3.69230163,S02002500,S01013388
West Lothian Visually Impaired Bowlers,SC024430,West Lothian,EH48 2PZ,55.90012807,-3.69230163,S02002500,S01013388
Armadale Methodist Church,SC037712,West Lothian,EH48 2PZ,55.90012807,-3.69230163,S02002500,S01013388
Livingston Dedridge Congregation Of Jehovahs Witnesses,SC001858,West Lothian,EH54 6PL,55.8732968,-3.52150098,S02002481,S01013267
Crofthead Farm Community Education Association,SC038507,West Lothian,EH54 6DG,55.8749149,-3.52508075,S02002481,S01013267
Brighter Days Support Group,SC042422,West Lothian,EH54 6DG,55.8749149,-3.52508075,S02002481,S01013267
"Boghall Parish Church of Scotland, Bathgate",SC001881,West Lothian,EH48 1NH,55.89671282,-3.60580523,S02002503,S01013405
Deansmeadow Allotment Association,SC017869,West Lothian,EH48 1NL,55.89521381,-3.60843004,S02002503,S01013405
Torphichen Community Centre Association,SC002356,West Lothian,EH48 4LZ,55.93491556,-3.65313932,S02002506,S01013433
Torphichen Summer Nights Society,SC034044,West Lothian,EH48 4LX,55.93249163,-3.65497304,S02002506,S01013433
Howden & Ladywell Community Education Association,SC002842,West Lothian,EH54 6BN,55.89405826,-3.51244669,S02002488,S01013314
Firefly Arts Limited,SC002848,West Lothian,EH54 6AE,55.89281504,-3.51708376,S02002488,S01013314
Braid Health & Wellbeing Ltd,SC012574,West Lothian,EH54 6BU,55.89237446,-3.51126179,S02002488,S01013314
Fauldhouse Partnership Centre Association,SC003127,West Lothian,EH47 9JD,55.82954678,-3.70421041,S02002478,S01013248
Livingston Disabled Persons Club,SC003150,West Lothian,EH54 6UW,55.89562063,-3.52854792,S02002490,S01013323
Addiewell Community Centre Association,SC003172,West Lothian,EH55 8PG,55.84518634,-3.61744744,S02002479,S01013255
18th West Lothian (West Calder) Scout Group,SC047301,West Lothian,EH55 8PG,55.84518634,-3.61744744,S02002479,S01013255
Skolie Burn Community Meadow & Woodland SCIO,SC049555,West Lothian,EH55 8NE,55.8454533,-3.60185379,S02002479,S01013255
Strathbrock Community Centre Association,SC003683,West Lothian,EH52 5LH,55.93287351,-3.48397651,S02002511,S01013459
Mental Health Advocacy Project (West Lothian) SCIO,SC011560,West Lothian,EH52 5LH,55.93287351,-3.48397651,S02002511,S01013459
Broxburn Pre-School Playgroup,SC021094,West Lothian,EH52 5LH,55.93287351,-3.48397651,S02002511,S01013459
The Brock Garden Centre SCIO,SC044528,West Lothian,EH52 5LH,55.93287351,-3.48397651,S02002511,S01013459
West Kirk Of Calder (Church of Scotland),SC004703,West Lothian,EH54 6UG,55.89830135,-3.52614237,S02002490,S01013325
West Lothian Armed Forces Day,SC044587,West Lothian,EH54 6UG,55.89830135,-3.52614237,S02002490,S01013325
Linlithgow and District Community Day Care Centre,SC005173,West Lothian,EH49 7EZ,55.9764399,-3.60077444,S02002508,S01013444
Lochside Playgroup,SC013205,West Lothian,EH49 7HZ,55.97839961,-3.59656023,S02002508,S01013444
Linlithgow Link Voluntary Group,SC013502,West Lothian,EH49 7EZ,55.9764399,-3.60077444,S02002508,S01013444
Linlithgow Heritage Trust,SC017593,West Lothian,EH49 7EZ,55.9764399,-3.60077444,S02002508,S01013444
Linlithgow Young People's Project,SC019826,West Lothian,EH49 7EX,55.97696293,-3.60132492,S02002508,S01013444
Linlithgow Community Arts Association,SC028268,West Lothian,EH49 7DY,55.97549952,-3.6046779,S02002508,S01013444
Low Port Out of School Club SCIO,SC047701,West Lothian,EH49 7HZ,55.97839961,-3.59656023,S02002508,S01013444
Linlithgow Arts Guild (SCIO),SC048083,West Lothian,EH49 7HW,55.97674374,-3.60573908,S02002508,S01013444
Linlithgow Peace Garden,SC048583,West Lothian,EH49 7AX,55.975445,-3.60954743,S02002508,S01013444
The New Well,SC050173,West Lothian,EH49 7EN,55.97581304,-3.6061332,S02002508,S01013444
St John's Church Linlithgow,SC050351,West Lothian,EH49 7EN,55.97581304,-3.6061332,S02002508,S01013444
Livingston (Deans) Congregation Of Jehovahs Witnesses,SC005223,West Lothian,EH54 8NP,55.90059352,-3.5491046,S02002494,S01013350
Idea Zone (West Lothian),SC036210,West Lothian,EH54 8PT,55.9018097,-3.54600206,S02002494,S01013350
4th West Lothian Scout Group,SC005411,West Lothian,EH49 7TD,55.9813311,-3.63139788,S02002508,S01013447
9th Linlithgow Brownie Unit,SC032023,West Lothian,EH49 7QE,55.97974802,-3.62471186,S02002508,S01013447
Linlithgow Bridge Primary School Parent Council,SC035946,West Lothian,EH49 7PB,55.978072,-3.62233372,S02002508,S01013447
Linlithgow Rose Community Football Club,SC044283,West Lothian,EH49 7PL,55.97956753,-3.61999224,S02002508,S01013447
Kingfisher Club,SC027193,West Lothian,EH49 7TL,55.98133226,-3.628593,S02002508,S01013447
Lanthorn Association,SC005904,West Lothian,EH54 6NY,55.8815224,-3.50441338,S02002483,S01013279
West Lothian Family History Society,SC031501,West Lothian,EH54 6JJ,55.88201695,-3.50659073,S02002483,S01013279
Carmondean Community Centre Association,SC005910,West Lothian,EH54 8AX,55.9059118,-3.54421369,S02002494,S01013353
Livingston Assembly of God,SC006779,West Lothian,EH54 8QE,55.90918373,-3.54341587,S02002492,S01013341
Kirknewton & East Calder Parish Church Of Scotland,SC006973,West Lothian,EH53 0RD,55.88592289,-3.45530755,S02002485,S01013293
3rd East Calder Brownie Unit,SC031088,West Lothian,EH53 0LE,55.88886023,-3.45919103,S02002485,S01013293
2nd East Calder Guide Unit,SC033041,West Lothian,EH53 0RQ,55.88902118,-3.45774202,S02002485,S01013293
2nd East Calder Rainbow Unit,SC038985,West Lothian,EH53 0RQ,55.88902118,-3.45774202,S02002485,S01013293
Mid Calder Community Centre Association,SC007047,West Lothian,EH53 0AL,55.89244672,-3.48166511,S02002484,S01013288
Mid Calder Mother & Toddler Group,SC010380,West Lothian,EH53 0AL,55.89244672,-3.48166511,S02002484,S01013288
East Calder Gala Day Fund,SC007100,West Lothian,EH53 0RN,55.8882805,-3.45502805,S02002485,S01013292
East Calder Playgroup,SC016077,West Lothian,EH53 0BF,55.89135899,-3.45989247,S02002485,S01013292
Blackridge Community Education Association,SC007382,West Lothian,EH48 3SP,55.8848465,-3.76181046,S02002506,S01013431
Bathgate High Parish Church of Scotland,SC007418,West Lothian,EH48 4HB,55.90424863,-3.64015681,S02002504,S01013417
HomeAid West Lothian Ltd,SC024461,West Lothian,EH48 4HD,55.90369942,-3.63888593,S02002504,S01013417
Church Of Christ,SC007668,West Lothian,EH54 6RA,55.89633002,-3.53364553,S02002489,S01013322
Peelers After School And Holiday Club Limited,SC029444,West Lothian,EH54 6RA,55.89633002,-3.53364553,S02002489,S01013322
Linlithgow Parish Trust,SC008427,West Lothian,EH49 7ST,55.97968442,-3.57351781,S02002509,S01013451
6th Linlithgow Brownie Pack,SC031612,West Lothian,EH49 7TF,55.97913108,-3.57181249,S02002509,S01013451
4th Linlithgow Brownie Pack,SC032102,West Lothian,EH49 7SS,55.98083774,-3.57186571,S02002509,S01013451
Dechmont Memorial Hall Association,SC008474,West Lothian,EH52 6NT,55.92089587,-3.53595997,S02002512,S01013464
Whitburn Community Centre,SC008491,West Lothian,EH47 8EZ,55.86448582,-3.68397547,S02002497,S01013371
Acredale House Association,SC009635,West Lothian,EH48 1PS,55.90210014,-3.63886646,S02002504,S01013414
Community Playgroups SCIO,SC012049,West Lothian,EH48 1TS,55.90140796,-3.64427562,S02002504,S01013414
"St Mary's Primary School, Whitburn Rd, Bathgate Parent/Teacher Association",SC018606,West Lothian,EH48 2RD,55.90018998,-3.64732705,S02002504,S01013414
West Lothian 50+ Network,SC024257,West Lothian,EH48 4PP,55.90241341,-3.64367835,S02002504,S01013414
Voluntary Sector Gateway West Lothian,SC027612,West Lothian,EH48 1AX,55.90010364,-3.64033373,S02002504,S01013414
4th Bathgate Boys Brigade,SC034459,West Lothian,EH48 1QD,55.90108497,-3.63749605,S02002504,S01013414
Sarajia Islamic Studies and Community Centre,SC043888,West Lothian,EH48 1HE,55.89985528,-3.64345817,S02002504,S01013414
Livingston ( Howden ) Pre-School Playgroup,SC010853,West Lothian,EH54 6BA,55.89300777,-3.50944741,S02002488,S01013311
6th West Lothian Scout Group,SC011088,West Lothian,EH52 5TD,55.93013897,-3.48047856,S02002513,S01013474
Uphall South Parish Church Of Scotland,SC024255,West Lothian,EH52 5LR,55.93147519,-3.47995328,S02002513,S01013474
Pumpherston United Football Club,SC048446,West Lothian,EH52 5TD,55.93013897,-3.48047856,S02002513,S01013474
"St Ninians Craigmailen Parish Church of Scotland, Linlithgow",SC011348,West Lothian,EH49 6HX,55.96888516,-3.60334651,S02002507,S01013440
2nd Linlithgow Rainbow Guide Unit,SC031029,West Lothian,EH49 6HX,55.96888516,-3.60334651,S02002507,S01013440
1st Linlithgow Brownie Unit,SC032094,West Lothian,EH49 6HY,55.9672322,-3.60331018,S02002507,S01013440
The Linlithgow Community Magazine,SC042542,West Lothian,EH49 6SF,55.96778642,-3.60076951,S02002507,S01013440
Friends of Low Port Primary School SCIO,SC047942,West Lothian,EH49 6AT,55.96948957,-3.59832423,S02002507,S01013440
Livingston Old Parish Church of Scotland,SC011826,West Lothian,EH54 6LW,55.88858613,-3.54926566,S02002489,S01013318
Stoneyburn Access Group,SC011975,West Lothian,EH47 8BN,55.84777005,-3.62731432,S02002479,S01013254
Stoneyburn & Bents Children's Gala Committee,SC028773,West Lothian,EH47 8BG,55.84938654,-3.62535323,S02002479,S01013254
Stoneyburn and Bents Future Vision Group SCIO,SC046760,West Lothian,EH47 8BA,55.84935033,-3.62741233,S02002479,S01013254
Livingston United Parish Church,SC012054,West Lothian,EH54 9AU,55.86799857,-3.50146126,S02002482,S01013271
Kirk of Calder Parish (Church of Scotland),SC013461,West Lothian,EH54 9HU,55.86131674,-3.50556552,S02002482,S01013271
Murieston Environmental Group (MEG),SC043123,West Lothian,EH54 9DT,55.86389626,-3.50552151,S02002482,S01013271
East Calder Community Resources Association,SC012943,West Lothian,EH53 0EP,55.89637419,-3.46056064,S02002485,S01013298
Mid Calder After School Care Club,SC036156,West Lothian,EH53 0FR,55.90297388,-3.44881225,S02002485,S01013298
3rd West Lothian Scout Group,SC036184,West Lothian,EH53 0HL,55.90121152,-3.45348093,S02002485,S01013298
Bathgate Community First Responders,SC040658,West Lothian,EH53 0FQ,55.90060663,-3.45752086,S02002485,S01013298
Reuse and Thrive,SC049977,West Lothian,EH53 0HD,55.8963938,-3.46193674,S02002485,S01013298
Loganlea Miners Welfare Charitable Society,SC013063,West Lothian,EH55 8HU,55.84263303,-3.62503939,S02002479,S01013251
Bathgate Community Education Centre Association,SC013090,West Lothian,EH47 8JQ,55.85598482,-3.68725032,S02002499,S01013379
Livingston Station Pre-School Playgroup Assoc,SC013272,West Lothian,EH54 8QW,55.90543577,-3.55916757,S02002492,S01013339
Lady Park Trustees Linlithgow,SC013876,West Lothian,EH49 6EJ,55.96840056,-3.61567999,S02002507,S01013436
3rd Linlithgow Rainbow Guides,SC032168,West Lothian,EH49 6EF,55.96967912,-3.61411494,S02002507,S01013436
Linlithgow Community First Responders ,SC044085,West Lothian,EH49 6EE,55.96979705,-3.61540171,S02002507,S01013436
Bathgate E U United Reformed Church,SC014304,West Lothian,EH48 4DN,55.90793375,-3.63536907,S02002504,S01013418
Livingston Village Community Education Centre Assoc,SC014391,West Lothian,EH54 7EQ,55.88716591,-3.54286142,S02002489,S01013317
Livingston Village Mother & Toddler Group,SC018508,West Lothian,EH54 7EQ,55.88716591,-3.54286142,S02002489,S01013317
West Lothian Myalgic Encaphalomyelitis Self Help Group-Mesh,SC023544,West Lothian,EH54 7BS,55.88839731,-3.53565104,S02002489,S01013317
Livingston Village Out Of School Care Project,SC035151,West Lothian,EH54 7EQ,55.88716591,-3.54286142,S02002489,S01013317
Ladywell Playgroup,SC015335,West Lothian,EH54 8HW,55.90413992,-3.52777936,S02002491,S01013333
Knightsridge Adventure Project,SC024108,West Lothian,EH54 8RA,55.90487003,-3.53121528,S02002491,S01013333
"St John's Church of Scotland, Bathgate",SC016755,West Lothian,EH48 2TT,55.88948832,-3.62902837,S02002502,S01013403
Forestbank Community Education Assoc,SC017013,West Lothian,EH54 6DX,55.89835249,-3.51253385,S02002490,S01013326
East Whitburn Community Education Centre,SC017039,West Lothian,EH47 8EX,55.86729841,-3.6608445,S02002497,S01013367
East Whitburn And Redmill Old Age Pensioner's Association,SC038061,West Lothian,EH47 8EU,55.86826326,-3.66059802,S02002497,S01013367
Bennie Museum,SC017071,West Lothian,EH48 4HU,55.90353605,-3.64372584,S02002504,S01013415
Livingston Youth Trust,SC017112,West Lothian,EH54 6FF,55.88727041,-3.51491672,S02002488,S01013309
Carers Of West Lothian,SC019628,West Lothian,EH54 6AX,55.88900507,-3.52724845,S02002488,S01013309
James Wood Bequest For Poor,SC019706,West Lothian,EH54 6FF,55.88727041,-3.51491672,S02002488,S01013309
James Wood Bequest For A Nurse,SC019708,West Lothian,EH54 6FF,55.88727041,-3.51491672,S02002488,S01013309
James Wood Bequest For The Poor,SC019709,West Lothian,EH54 6FF,55.88727041,-3.51491672,S02002488,S01013309
John Armstrong Bequest For The Cross Well,SC019710,West Lothian,EH54 6FF,55.88727041,-3.51491672,S02002488,S01013309
David Forrester Bequest,SC019711,West Lothian,EH54 6FF,55.88727041,-3.51491672,S02002488,S01013309
Mrs Christina Muir Trust For Poor,SC019712,West Lothian,EH54 6FF,55.88727041,-3.51491672,S02002488,S01013309
Quarter Farm Mortification For Benefit Of Poor,SC019714,West Lothian,EH54 6FF,55.88727041,-3.51491672,S02002488,S01013309
Captain Matthew & Mrs White Fund For Poor,SC019715,West Lothian,EH54 6FF,55.88727041,-3.51491672,S02002488,S01013309
Norman M Henderson Bequest For Poor,SC019716,West Lothian,EH54 6FF,55.88727041,-3.51491672,S02002488,S01013309
Miss Ellen Murray Aitken Trust For Poor,SC019717,West Lothian,EH54 6FF,55.88727041,-3.51491672,S02002488,S01013309
Miss Margaret Marshall Aitken Bequest For Deserving Poor,SC019718,West Lothian,EH54 6FF,55.88727041,-3.51491672,S02002488,S01013309
William Greenhill Bequest For Deserving Poor,SC019719,West Lothian,EH54 6FF,55.88727041,-3.51491672,S02002488,S01013309
Whitten & Hebson Bequests For Poor,SC019720,West Lothian,EH54 6FF,55.88727041,-3.51491672,S02002488,S01013309
Bathgate & Boghall Youth & Community Endeavour Trust,SC020953,West Lothian,EH54 6FF,55.88727041,-3.51491672,S02002488,S01013309
West Lothian Council Charitable Trusts,SC025091,West Lothian,EH54 6FF,55.88727041,-3.51491672,S02002488,S01013309
West Lothian Trust For The Benefit Of People With Disabilities,SC029023,West Lothian,EH54 6FF,55.88727041,-3.51491672,S02002488,S01013309
Home-Start West Lothian,SC029770,West Lothian,EH54 6TS,55.89151984,-3.52880241,S02002488,S01013309
West Lothian Community Race Forum  ,SC043199,West Lothian,EH54 6FF,55.88727041,-3.51491672,S02002488,S01013309
Fun Little Education,SC048096,West Lothian,EH54 6AX,55.88900507,-3.52724845,S02002488,S01013309
West Lothian Hospital Broadcasting Service SCIO,SC050302,West Lothian,EH54 6PP,55.89189595,-3.52310844,S02002488,S01013309
Polish Educational Society,SC050407,West Lothian,EH54 6AX,55.88900507,-3.52724845,S02002488,S01013309
Polbeth Harwood Parish Church of Scotland,SC017373,West Lothian,EH55 8UW,55.86340576,-3.54866242,S02002480,S01013262
Ladywell Neighbourhood Network SCIO,SC017410,West Lothian,EH54 6EE,55.89693943,-3.52146691,S02002490,S01013324
Friends of Cedarbank (SCIO),SC049858,West Lothian,EH54 6DR,55.89698904,-3.51671893,S02002490,S01013324
Ladywell Baptist Church - Livingston,SC050304,West Lothian,EH54 6DR,55.89698904,-3.51671893,S02002490,S01013324
Livingston Station Community Association,SC020188,West Lothian,EH54 8BE,55.90118199,-3.56721823,S02002493,S01013344
Livingston Station Parent & Toddlers,SC036581,West Lothian,EH54 8BE,55.90118199,-3.56721823,S02002493,S01013344
Livingston Islamic Centre and Mosque,SC043124,West Lothian,EH54 8BE,55.90118199,-3.56721823,S02002493,S01013344
Livingston Homereach,SC020235,West Lothian,EH54 8EN,55.90011833,-3.56394445,S02002493,S01013342
Ecclesmachan & Threemiletown Village Hall Management Association,SC020288,West Lothian,EH52 6NG,55.9469018,-3.50975046,S02002512,S01013466
Craigsfarm Community Development Project Ltd,SC020712,West Lothian,EH54 5BP,55.89556844,-3.5006551,S02002488,S01013312
West Lothian Youth Action Project,SC026347,West Lothian,EH54 5BP,55.89556844,-3.5006551,S02002488,S01013312
Almond Housing Association Limited,SC031696,West Lothian,EH54 5AB,55.8936952,-3.50320539,S02002488,S01013312
Craigshill Thistle Community Sports Club,SC044747,West Lothian,EH54 5BP,55.89556844,-3.5006551,S02002488,S01013312
Rosebery Centre,SC021092,West Lothian,EH55 8SH,55.85956812,-3.55156145,S02002480,S01013260
Polbeth United Community Football Club,SC042412,West Lothian,EH55 8TW,55.86005995,-3.55957002,S02002480,S01013260
Polbeth Community HUB SCIO,SC048906,West Lothian,EH55 8SD,55.85699438,-3.55612403,S02002480,S01013260
Sports & Well-Being For All Trust SCIO,SC049012,West Lothian,EH55 8SD,55.85699438,-3.55612403,S02002480,S01013260
West Lothian Social Enterprise Network,SC050766,West Lothian,EH55 8SD,55.85699438,-3.55612403,S02002480,S01013260
Torphichen Parish Church of Scotland,SC021516,West Lothian,EH48 1HU,55.90029742,-3.60104302,S02002503,S01013407
Bridgehouse Community Hall Association,SC021995,West Lothian,EH48 3DL,55.91798584,-3.7038813,S02002506,S01013432
Westfield Community Association,SC026322,West Lothian,EH48 3BU,55.93219486,-3.70245605,S02002506,S01013432
Bathgate Band,SC035364,West Lothian,EH48 3DH,55.92056652,-3.70311437,S02002506,S01013432
The Bridge 19-40 Union Canal Society,SC023110,West Lothian,EH48 2RS,55.88956883,-3.65599141,S02002502,S01013400
St Peter's Scottish Episcopal Church: Linlithgow,SC023190,West Lothian,EH49 7GR,55.98407682,-3.57927437,S02002509,S01013452
4th Linlithgow Rainbow Unit,SC032134,West Lothian,EH49 7HY,55.98233216,-3.58218452,S02002509,S01013452
Linlithgow Burgh Trust,SC047211,West Lothian,EH49 7GR,55.98407682,-3.57927437,S02002509,S01013452
St Columba Episcopal Church: Bathgate,SC023269,West Lothian,EH48 2AJ,55.90074779,-3.65531618,S02002505,S01013425
Whitburn Congregation Of Jehovah's Witnesses,SC024124,West Lothian,EH48 4LG,55.91590653,-3.67862002,S02002505,S01013427
Blackburn and Seafield Parish Church of Scotland,SC024154,West Lothian,EH47 7EB,55.87575098,-3.59175244,S02002495,S01013355
First West Lothian Sea Scout Group,SC024347,West Lothian,EH49 7QG,55.97889604,-3.61775243,S02002508,S01013445
1st Linlithgow Girl Guides Unit,SC031557,West Lothian,EH49 7BP,55.97987618,-3.61221579,S02002508,S01013445
Young At Heart,SC024443,West Lothian,EH47 7QN,55.87157034,-3.62218843,S02002496,S01013358
New Directions West Lothian,SC024495,West Lothian,EH54 7AF,55.88584294,-3.53871586,S02002489,S01013316
Air Training Corps No 1756 Broxburn Squadron Non - Public Sports & Welfare Funds,SC024629,West Lothian,EH52 6GX,55.93576678,-3.47651495,S02002511,S01013462
Air Training Corps No 439 Linlithgow Squadron Non- Public Sports & Welfare Funds,SC024676,West Lothian,EH49 6BY,55.97403226,-3.60556261,S02002507,S01013438
"Pardovan, Kingscavil And Winchburgh Parish Church Of Scotland",SC026230,West Lothian,EH52 6UL,55.95813003,-3.47222464,S02002510,S01013458
33rd West Lothian Scout Group,SC046196,West Lothian,EH52 6UR,55.95981307,-3.46974157,S02002510,S01013458
Blackburn Family Centre Limited,SC026691,West Lothian,EH47 7HH,55.87633399,-3.62552014,S02002496,S01013362
Korean War Living Memorial Fund,SC026899,West Lothian,EH48 2EP,55.88397587,-3.62796602,S02002502,S01013404
West Lothian Foodbank (SCIO),SC048112,West Lothian,EH48 2EP,55.88397587,-3.62796602,S02002502,S01013404
Mosswood Community Education Centre Association,SC027996,West Lothian,EH54 8JF,55.90910605,-3.52440711,S02002491,S01013335
Newyearfield Farm Community Association,SC028162,West Lothian,EH54 6AB,55.89909631,-3.53231525,S02002491,S01013330
Newyearfield Farm Pre School,SC028206,West Lothian,EH54 6AB,55.89909631,-3.53231525,S02002491,S01013330
Blackburn House Animal Shelter,SC044918,West Lothian,EH54 6UT,55.90015601,-3.53525202,S02002491,S01013330
The Friends of St Michaelâ€™s Hospital,SC028536,West Lothian,EH49 7RY,55.97922905,-3.5093432,S02002510,S01013455
Newton Community Education Association,SC031598,West Lothian,EH52 6QG,55.9832371,-3.45628474,S02002510,S01013455
2nd Linlithgow Company Girls Brigade,SC033463,West Lothian,EH52 6WG,55.96087405,-3.47269729,S02002510,S01013455
Winchburgh Community Development Trust,SC048619,West Lothian,EH52 6WP,55.96187633,-3.45793323,S02002510,S01013455
Light Of The Holy City Of Madina Mosque And School Trust,SC029077,West Lothian,EH55 8DN,55.82780856,-3.65714918,S02002479,S01013250
West Lothian Division Girls Brigade,SC033604,West Lothian,EH55 8DN,55.82780856,-3.65714918,S02002479,S01013250
Boghall Pop Skool,SC040017,West Lothian,EH55 8DN,55.82780856,-3.65714918,S02002479,S01013250
Dedridge Good Neighbour Network SCIO,SC047318,West Lothian,EH55 8RP,55.83699452,-3.53368767,S02002479,S01013250
Harburn Village Hall SCIO,SC049395,West Lothian,EH55 8RP,55.83699452,-3.53368767,S02002479,S01013250
East Whitburn And Redmill Childrens Gala Committee,SC029909,West Lothian,EH47 0JF,55.86971982,-3.66320137,S02002497,S01013368
New Life Christian Fellowship Broxburn,SC030319,West Lothian,EH54 5QJ,55.918479,-3.49874006,S02002486,S01013302
17th West Lothian Scout Group,SC035910,West Lothian,EH54 5QJ,55.918479,-3.49874006,S02002486,S01013302
1st Uphall Brownie Pack,SC030884,West Lothian,EH53 0RT,55.88534916,-3.49344967,S02002484,S01013286
2nd Mid Calder  Rainbows,SC042325,West Lothian,EH53 0LD,55.885608,-3.49507443,S02002484,S01013286
Mid Calder Children's Gala,SC046987,West Lothian,EH53 0SW,55.88679633,-3.49267385,S02002484,S01013286
9th West Lothian Scout Group,SC031098,West Lothian,EH54 9ED,55.87191775,-3.50650323,S02002482,S01013274
1st Bathgate Brownies,SC031233,West Lothian,EH47 0NS,55.86242673,-3.70299761,S02002498,S01013373
Evangel West Lothian (SCIO),SC048022,West Lothian,EH47 0PE,55.86292833,-3.70311544,S02002498,S01013373
Murieston Initiative SCIO,SC031680,West Lothian,EH54 9JJ,55.87579362,-3.52885553,S02002481,S01013266
4th Bathgate Brownies,SC031901,West Lothian,EH48 2AD,55.89773774,-3.65662739,S02002505,S01013421
7th West Lothian (Brucefield Church) Scout Group,SC033141,West Lothian,EH48 2AD,55.89773774,-3.65662739,S02002505,S01013421
Planet Tennis,SC045017,West Lothian,EH48 2SX,55.89749551,-3.65258667,S02002505,S01013421
2nd Isle of Skye Guide Unit,SC046915,West Lothian,EH48 2AD,55.89773774,-3.65662739,S02002505,S01013421
1st Kirknewton Brownie Unit,SC032867,West Lothian,EH27 8AD,55.8891782,-3.42204317,S02002484,S01013290
Kirknewton Community Development Trust Limited,SC037895,West Lothian,EH27 8AH,55.88765695,-3.41915748,S02002484,S01013290
3rd Linlithgow Brownie Pack,SC033132,West Lothian,EH49 7QN,55.9769474,-3.62720671,S02002508,S01013446
1st Midcalder Brownies,SC033753,West Lothian,EH54 8QT,55.90465033,-3.5559048,S02002494,S01013351
1st Armadale Girls Brigade,SC033852,West Lothian,EH48 3PQ,55.9005969,-3.70196704,S02002500,S01013387
League Of Friends Of Tippethill Hospital,SC034156,West Lothian,EH54 9EN,55.86763861,-3.51543067,S02002481,S01013264
10th Livingston Guides,SC036169,West Lothian,EH54 9EN,55.86763861,-3.51543067,S02002481,S01013264
2nd Bathgate Girls Brigade,SC034609,West Lothian,EH48 1AS,55.90022877,-3.63294947,S02002504,S01013413
31st West Lothian Scout Group,SC036327,West Lothian,EH48 1AL,55.90172826,-3.63574768,S02002504,S01013413
4th Linlithgow Guide Unit,SC034611,West Lothian,EH49 7JG,55.97874487,-3.5879199,S02002509,S01013448
23rd Livingston Brownies,SC034689,West Lothian,EH54 9LF,55.87076331,-3.51270756,S02002482,S01013273
25th Livingston Brownies,SC036172,West Lothian,EH54 9LF,55.87076331,-3.51270756,S02002482,S01013273
10th Livingston Rainbows,SC036176,West Lothian,EH54 9LD,55.87001855,-3.51042515,S02002482,S01013273
12th West Lothian Scout Group,SC040040,West Lothian,EH54 9LF,55.87076331,-3.51270756,S02002482,S01013273
West Lothian Wolves Basketball Club,SC045197,West Lothian,EH54 9LF,55.87076331,-3.51270756,S02002482,S01013273
1st Winchburgh Brownie Unit,SC048787,West Lothian,EH54 9LF,55.87076331,-3.51270756,S02002482,S01013273
Linlithgow And Linlithgow Bridge Childrens Gala Day,SC035267,West Lothian,EH49 6AZ,55.97076697,-3.60167779,S02002507,S01013439
West Lothian District Scout Council,SC035332,West Lothian,EH48 3AH,55.88131993,-3.76208232,S02002506,S01013430
The Boghall Drop In Centre,SC036080,West Lothian,EH48 1SR,55.90115543,-3.60622876,S02002503,S01013406
Generation Arts Association,SC036084,West Lothian,EH48 2UJ,55.88725104,-3.63307585,S02002502,S01013402
6th Bathgate Guide Unit,SC046778,West Lothian,EH48 2UA,55.88797272,-3.63286632,S02002502,S01013402
The Livingston Players (SCIO),SC047580,West Lothian,EH48 2TY,55.88882813,-3.63002406,S02002502,S01013402
17th Livingston Rainbows,SC036170,West Lothian,EH54 9AE,55.86770394,-3.52614047,S02002481,S01013263
17th Livingston Guides,SC036171,West Lothian,EH54 9AE,55.86770394,-3.52614047,S02002481,S01013263
The Larder West Lothian,SC042554,West Lothian,EH54 9BJ,55.86744702,-3.53090867,S02002481,S01013263
Astro Gymnastics Limited,SC043346,West Lothian,EH54 9DJ,55.864518,-3.53087333,S02002481,S01013263
24th Livingston Rainbows,SC036177,West Lothian,EH54 9HL,55.86696766,-3.51080211,S02002482,S01013272
26th Livingston Brownies,SC039614,West Lothian,EH54 9HR,55.86796226,-3.50663771,S02002482,S01013272
1st East Calder Guides,SC036250,West Lothian,EH27 8BZ,55.88787456,-3.42831114,S02002484,S01013289
4th East Calder Brownie Unit,SC039208,West Lothian,EH27 8BJ,55.88810179,-3.42886312,S02002484,S01013289
Newbattle Beekeepers Association ,SC049575,West Lothian,EH27 8DQ,55.87334383,-3.43992465,S02002484,S01013289
Broxburn Footlights,SC036382,West Lothian,EH48 2DH,55.89618109,-3.66211063,S02002505,S01013422
1st Uphall Guide Unit,SC036847,West Lothian,EH48 2LZ,55.88587234,-3.64953435,S02002502,S01013401
3rd Whitburn Rainbow Unit,SC037185,West Lothian,EH48 2XP,55.89332448,-3.65803846,S02002502,S01013401
6th Whitburn(Brucefield) Brownie Unit,SC037041,West Lothian,EH47 8PB,55.86091278,-3.67317907,S02002497,S01013365
Onward Whitburn,SC047056,West Lothian,EH47 8PG,55.85971134,-3.67562,S02002497,S01013365
River Kids,SC037312,West Lothian,EH52 5EE,55.93450486,-3.46932721,S02002514,S01013479
River Kids SCIO,SC050325,West Lothian,EH52 5EE,55.93450486,-3.46932721,S02002514,S01013479
West Lothian Children's Panel Fund,SC037622,West Lothian,EH54 9BS,55.87897958,-3.49406827,S02002482,S01013276
14th Livingston Guides,SC038065,West Lothian,EH54 6NU,55.87707654,-3.51229773,S02002483,S01013277
Livingston and District Childminding Group,SC045244,West Lothian,EH54 6NU,55.87707654,-3.51229773,S02002483,S01013277
Special,SC038503,West Lothian,EH52 6UJ,55.95896191,-3.47028596,S02002510,S01013456
Winchboarders (SCIO),SC051095,West Lothian,EH52 6RN,55.95787589,-3.45883999,S02002510,S01013456
Fauldhouse and Breich Valley Community Development Trust Ltd,SC038616,West Lothian,EH47 9HX,55.82750243,-3.70841558,S02002478,S01013244
1st East Calder Brownie Unit,SC038853,West Lothian,EH53 0JQ,55.89233132,-3.46200782,S02002485,S01013297
19th Livingston Brownie Unit,SC038907,West Lothian,EH54 9HG,55.863456,-3.51357397,S02002482,S01013270
Courage Together,SC051150,West Lothian,EH54 9JN,55.86205176,-3.51741814,S02002482,S01013270
Adult Learning Friends,SC039176,West Lothian,EH55 8AN,55.85258748,-3.56350397,S02002480,S01013258
Livingston South Community Church,SC044088,West Lothian,EH55 8BW,55.85024441,-3.5689688,S02002480,S01013258
Fauldhouse Miners Charitable Society,SC039415,West Lothian,EH47 9LD,55.83410794,-3.70124835,S02002478,S01013249
Mid Calder Colts Community Football Association,SC039437,West Lothian,EH54 6FT,55.88918098,-3.49831385,S02002483,S01013283
Team Jak Foundation,SC045586,West Lothian,EH54 6QF,55.88164082,-3.51234735,S02002483,S01013283
Life Centre Livingston,SC050134,West Lothian,EH54 6QU,55.88673998,-3.51128259,S02002483,S01013283
Broxburn United Sports Club Trust,SC039547,West Lothian,EH52 5AN,55.93376472,-3.45902205,S02002514,S01013481
The Ashwood Scotland Foundation,SC040025,West Lothian,EH54 8TE,55.88923267,-3.57268471,S02002492,S01013337
14th West Lothian Scout Group,SC043861,West Lothian,EH54 8AT,55.90984071,-3.55689662,S02002492,S01013337
Musically Active Dudes,SC040674,West Lothian,EH47 8EQ,55.84114575,-3.64632975,S02002479,S01013252
Whitburn and District Community Development Trust,SC041122,West Lothian,EH47 0QD,55.8661353,-3.68754666,S02002498,S01013374
St Josephs Primary Education Trust,SC041157,West Lothian,EH49 6HB,55.97252066,-3.61053165,S02002507,S01013437
Linlithgow Rugby Club Ltd,SC050439,West Lothian,EH49 6DB,55.97360894,-3.61663429,S02002507,S01013437
Linlithgow Primary School Parent Council,SC050713,West Lothian,EH49 6HB,55.97252066,-3.61053165,S02002507,S01013437
Church of Hope United Pentecostal Church,SC041212,West Lothian,EH54 6LA,55.89109145,-3.51109998,S02002488,S01013310
St Margaret's Academy West Lothian Parent Council,SC041517,West Lothian,EH52 5GY,55.92892997,-3.48685089,S02002513,S01013473
Community Action Blackburn,SC042167,West Lothian,EH47 7JW,55.87458982,-3.62490379,S02002496,S01013360
Bellsquarry Village Hall Association,SC042276,West Lothian,EH55 8QW,55.86636639,-3.53973531,S02002481,S01013269
The School Bank West Lothian,SC046483,West Lothian,EH54 7DE,55.88101656,-3.53302552,S02002481,S01013269
Easter Breich Wood Community Group (SCIO),SC051201,West Lothian,EH55 8PR,55.86707985,-3.57495331,S02002481,S01013269
2nd West Calder Rainbow Unit,SC043370,West Lothian,EH55 8HF,55.84701125,-3.57725608,S02002480,S01013256
2nd West Calder Brownies,SC043371,West Lothian,EH55 8HF,55.84701125,-3.57725608,S02002480,S01013256
Polbeth and West Calder Community Garden SCIO,SC043818,West Lothian,EH55 8BQ,55.85277976,-3.56675462,S02002480,S01013257
West Calder and Harburn Community Development Trust Ltd,SC043914,West Lothian,EH55 8DZ,55.8490742,-3.57475196,S02002480,S01013257
West Calder Community Education Association SCIO,SC049312,West Lothian,EH55 8DZ,55.8490742,-3.57475196,S02002480,S01013257
West Lothian Artistic Gymnastic Club SCIO,SC043925,West Lothian,EH54 5LU,55.89920889,-3.49243089,S02002487,S01013307
28 West Lothian Scout Group,SC044012,West Lothian,EH48 2LD,55.89441829,-3.68797492,S02002501,S01013397
Heedrum Hodrum,SC044132,West Lothian,EH54 6TZ,55.89525457,-3.54204705,S02002494,S01013346
Uphall Station Institute Hall Association,SC044162,West Lothian,EH54 5PS,55.91653706,-3.50544954,S02002486,S01013301
Mid Calder Primary School Parent Staff Association,SC044390,West Lothian,EH53 0RR,55.88636756,-3.48354391,S02002484,S01013285
Armadale and District War Memorial Association ,SC044493,West Lothian,EH48 3QZ,55.90141772,-3.70628975,S02002500,S01013389
Watson Memorial Bowling Club (SCIO),SC050383,West Lothian,EH48 3QT,55.90207565,-3.70679852,S02002500,S01013389
23rd Livingston Rainbow Unit,SC044739,West Lothian,EH54 9JY,55.87357604,-3.5351937,S02002481,S01013265
Whitburn Band,SC044829,West Lothian,EH47 9GA,55.8259535,-3.69436287,S02002478,S01013245
The Bridge Community Project,SC045049,West Lothian,EH54 5FD,55.90801065,-3.51121415,S02002486,S01013299
Bathgate Amateur Swimming Club,SC045674,West Lothian,EH47 8NX,55.86142213,-3.66875886,S02002497,S01013366
9th Livingston Guide Unit,SC045957,West Lothian,EH53 0SP,55.8876351,-3.49019577,S02002484,S01013287
Linlithgow Community Development Trust (SCIO),SC045971,West Lothian,EH49 7AY,55.97559178,-3.61138046,S02002508,S01013443
1st Livingston Brownie Unit,SC046091,West Lothian,EH54 8PP,55.90855656,-3.53392024,S02002492,S01013340
Scottish Turkish Solidarity Foundation,SC046108,West Lothian,EH54 6BB,55.89431642,-3.50825087,S02002488,S01013313
Livingston Athletic Club,SC046189,West Lothian,EH54 5ER,55.90140777,-3.50372768,S02002487,S01013305
Bathgate Fabb Club,SC046272,West Lothian,EH48 4DT,55.90705618,-3.62835722,S02002504,S01013419
Armadale Shed,SC046618,West Lothian,EH48 3EN,55.89818745,-3.69944641,S02002500,S01013383
Passion4Fusion,SC047525,West Lothian,EH48 3PZ,55.89832076,-3.70215524,S02002500,S01013383
Dedridge Baptist Church,SC047763,West Lothian,EH54 6QR,55.87789494,-3.51370428,S02002483,S01013278
The James Young Outdoor Trust ,SC050110,West Lothian,EH54 6NE,55.88095817,-3.51524631,S02002483,S01013278
Community Moorings Scotland ,SC047877,West Lothian,EH49 6QY,55.97645172,-3.55564582,S02002510,S01013454
Bathgate Thistle Community Football Club,SC048444,West Lothian,EH48 2TA,55.89332429,-3.6825541,S02002501,S01013398
Dignity Boxes,SC048930,West Lothian,EH54 6JY,55.88220342,-3.49646227,S02002483,S01013281
Broxburn & Uphall Community Website Trust,SC050044,West Lothian,EH52 5DQ,55.92886328,-3.50197407,S02002512,S01013468
West Lothian Battalion of the Boys' Brigade,SC050569,West Lothian,EH54 6PA,55.87646132,-3.51993041,S02002481,S01013268
Dunedin Fencing Club,SC050965,West Lothian,EH54 5NH,55.89769405,-3.48543166,S02002487,S01013303
