Name,Charity Number,Local authority,Postcode,Latitude,Longitude,IntermediateZone2011Code,DataZone2011Code
Vale of Leven Humane Society,SC000269,West Dunbartonshire,G83 0QR,55.99576435,-4.57933702,S02002475,S01013227
Bonhill Church Of Scotland,SC000886,West Dunbartonshire,G83 8HT,56.00574473,-4.57185308,S02002476,S01013236
Lomond Parish Church of Scotland,SC001268,West Dunbartonshire,G83 8HU,56.00609858,-4.57341663,S02002476,S01013236
Vale of Leven Baptist Church,SC014092,West Dunbartonshire,G83 8EW,56.00716153,-4.56899545,S02002476,S01013236
Enable Vale Of Leven Branch,SC021268,West Dunbartonshire,G83 8HN,56.00434338,-4.57310739,S02002476,S01013236
1st Vale Of Leven Guide Unit,SC031971,West Dunbartonshire,G83 8HW,56.00482817,-4.57227339,S02002476,S01013236
Callander's Landscape SCIO,SC048880,West Dunbartonshire,G83 8EG,56.00347486,-4.57466977,S02002476,S01013236
Lodge Bonhill & Alexandria St Andrews No321 - St Andrews Royal Arch - Benevolent Fund,SC001930,West Dunbartonshire,G83 0DA,55.9871303,-4.58345979,S02002473,S01013210
Lodge Cochno No 1304 Benevolent Fund,SC002055,West Dunbartonshire,G81 6AD,55.92150987,-4.40825107,S02002464,S01013150
Duntocher Trinity Parish Church of Scotland,SC008854,West Dunbartonshire,G81 5NS,55.92104794,-4.40153187,S02002464,S01013150
Kilmaronock Gartocharn Church of Scotland,SC002145,West Dunbartonshire,G83 8RY,56.04186472,-4.52371023,S02002477,S01013242
Kilmaronock Millennium Association,SC024904,West Dunbartonshire,G83 8NF,56.04340015,-4.52466156,S02002477,S01013242
Gartocharn Trust,SC028347,West Dunbartonshire,G83 8RZ,56.03485926,-4.51378106,S02002477,S01013242
Kilmaronock Community Trust,SC037756,West Dunbartonshire,G83 8SA,56.0360813,-4.50275106,S02002477,S01013242
West Dunbartonshire Citizens Advice Bureau,SC002558,West Dunbartonshire,G82 1NW,55.94479708,-4.57354338,S02002471,S01013195
"Riverside Parish Church of Scotland, Dumbarton",SC002937,West Dunbartonshire,G82 1NB,55.94293468,-4.5671736,S02002471,S01013195
St Augustine's Episcopal Church: Dumbarton,SC002984,West Dunbartonshire,G82 1LL,55.9433032,-4.56932813,S02002471,S01013195
Dr A K Glen Fund For Annual Outing For Old Age Pensioners,SC018701,West Dunbartonshire,G82 1QL,55.94352608,-4.5672608,S02002471,S01013195
Ben View Resource Centre,SC024093,West Dunbartonshire,G82 1BA,55.94605378,-4.56327971,S02002471,S01013195
West Dunbartonshire Council Charitable Trusts,SC025070,West Dunbartonshire,G82 1QL,55.94352608,-4.5672608,S02002471,S01013195
Clydebank Trust,SC026696,West Dunbartonshire,G82 1QL,55.94352608,-4.5672608,S02002471,S01013195
Feis Dhun Bhreatainn An Iar,SC028009,West Dunbartonshire,G82 1LJ,55.94383002,-4.57035604,S02002471,S01013195
West Dunbartonshire Mental Health Forum,SC039187,West Dunbartonshire,G82 1BA,55.94605378,-4.56327971,S02002471,S01013195
Skylark IX Recovery Trust,SC044184,West Dunbartonshire,G82 1LG,55.94285393,-4.57104408,S02002471,S01013195
West Dunbartonshire Community Foodshare,SC044248,West Dunbartonshire,G82 1NW,55.94479708,-4.57354338,S02002471,S01013195
Food for Thought SCIO,SC047239,West Dunbartonshire,G82 1LL,55.9433032,-4.56932813,S02002471,S01013195
Viresco Studios,SC049904,West Dunbartonshire,G82 1SD,55.94594558,-4.57105687,S02002471,S01013195
Dumbarton United Reformed Church,SC002617,West Dunbartonshire,G82 1EQ,55.94007036,-4.54408313,S02002471,S01013191
Radnor Park Congregational Church,SC003654,West Dunbartonshire,G81 3RQ,55.91517831,-4.42174952,S02002467,S01013164
Friends Of Kilpatrick,SC007198,West Dunbartonshire,G81 4SW,55.92231862,-4.43248732,S02002467,S01013164
"Radnor Park Church of Scotland, Clydebank",SC013242,West Dunbartonshire,G81 3RA,55.91465646,-4.42451759,S02002467,S01013164
The Church of Scotland â€“ Clydebank Waterfront Parish Church,SC004596,West Dunbartonshire,G81 1ER,55.89595441,-4.38395291,S02002460,S01013125
Our Holy Redeemer Primary School Parent Council West Dunbartonshire,SC049580,West Dunbartonshire,G81 1EZ,55.89454035,-4.38688922,S02002460,S01013125
Duntocher West United Free Church Of Scotland,SC004605,West Dunbartonshire,G81 6EA,55.92568036,-4.42655092,S02002466,S01013162
"Faifley Parish Church of Scotland, Clydebank",SC005108,West Dunbartonshire,G81 6PT,55.92980077,-4.40711661,S02002465,S01013152
Clydebank Unit (No 87) of the Sea Cadet Corps,SC021808,West Dunbartonshire,G81 6PP,55.93103398,-4.40885818,S02002465,S01013152
Dumbarton Christian Brethren - Lennox Evangelical Church,SC005301,West Dunbartonshire,G82 5HY,55.95171574,-4.60570539,S02002472,S01013204
St Andrews Church Of Scotland: Dumbarton,SC006235,West Dunbartonshire,G82 3BN,55.95825226,-4.5584466,S02002470,S01013185
Bellsmyre Schools Out Club,SC027599,West Dunbartonshire,G82 3DT,55.95807117,-4.55114462,S02002470,S01013185
Bellsmyre Housing Association Limited,SC038496,West Dunbartonshire,G82 3EB,55.95799283,-4.55319028,S02002470,S01013185
Clydebank Mentally Disabled Association,SC009492,West Dunbartonshire,G81 3PL,55.9181136,-4.41919579,S02002463,S01013144
Dumbarton and District Women's Aid,SC010067,West Dunbartonshire,G83 8DE,56.00421189,-4.56389099,S02002477,S01013239
Old Kilpatrick Bowling Parish Church Of Scotland,SC011630,West Dunbartonshire,G60 5BJ,55.93115102,-4.49637858,S02002469,S01013178
Bowling Village Hall,SC042932,West Dunbartonshire,G60 5BL,55.93142922,-4.49373869,S02002469,S01013178
Clydebank Women's Aid,SC011636,West Dunbartonshire,G81 1QW,55.90071679,-4.40019481,S02002461,S01013129
Clydebank Forum On Disability,SC019256,West Dunbartonshire,G81 1RZ,55.90032299,-4.40471378,S02002461,S01013129
Stepping Stones Organisation (Mental Health),SC019270,West Dunbartonshire,G81 1QF,55.90192199,-4.3992294,S02002461,S01013129
West Dunbartonshire Council For Voluntary Services,SC032003,West Dunbartonshire,G81 1UJ,55.9012853,-4.40698106,S02002461,S01013129
Clydebank Housing Association Limited,SC033962,West Dunbartonshire,G81 1BL,55.90173743,-4.40592121,S02002461,S01013129
Clydebank Restoration Trust,SC035487,West Dunbartonshire,G81 1UJ,55.9012853,-4.40698106,S02002461,S01013129
The Ship Yard Trust SCIO ,SC048448,West Dunbartonshire,G81 1UJ,55.9012853,-4.40698106,S02002461,S01013129
Aiken Endowment Renton,SC012007,West Dunbartonshire,G82 4LY,55.96828729,-4.58364555,S02002474,S01013222
Renton Trinity Parish Church of Scotland,SC014833,West Dunbartonshire,G82 4LY,55.96828729,-4.58364555,S02002474,S01013222
Renton Trinity Church - Benevolent Funds,SC015360,West Dunbartonshire,G82 4LY,55.96828729,-4.58364555,S02002474,S01013222
Renton Community Development Trust Ltd,SC038606,West Dunbartonshire,G82 4LY,55.96828729,-4.58364555,S02002474,S01013222
The Dumbarton Area Council On Alcohol,SC012237,West Dunbartonshire,G82 4AD,55.94532226,-4.57894389,S02002472,S01013200
Old Kilpatrick Playgroup,SC015829,West Dunbartonshire,G82 4DG,55.94604038,-4.58241932,S02002472,S01013200
West Dunbartonshire Gymnastics Club ,SC050947,West Dunbartonshire,G82 4EN,55.94670027,-4.58566677,S02002472,S01013200
Dalmuir Barclay Church Of Scotland,SC013599,West Dunbartonshire,G60 5EJ,55.917851,-4.44477122,S02002468,S01013172
Old Kilpatrick Food Parcels,SC050874,West Dunbartonshire,G60 5EH,55.9171102,-4.44360424,S02002468,S01013172
"Kilbowie St Andrews Church of Scotland, Clydebank",SC015005,West Dunbartonshire,G81 3BU,55.90957937,-4.41303161,S02002463,S01013143
Parkhall Tenants Hall,SC047416,West Dunbartonshire,G81 3ET,55.91246169,-4.41637924,S02002463,S01013143
Balloch Pre-School Playgroup,SC015040,West Dunbartonshire,G83 9HR,55.98234989,-4.57352153,S02002473,S01013211
Rockvale Rebound Talking Newspaper,SC016017,West Dunbartonshire,G81 5PB,55.92376851,-4.39982737,S02002464,S01013151
Focus (West Dunbartonshire Action Network for Vision Impaired People),SC036823,West Dunbartonshire,G81 5PB,55.92376851,-4.39982737,S02002464,S01013151
Bankie Talking Newspaper Group,SC016686,West Dunbartonshire,G81 1PF,55.89525041,-4.39752179,S02002461,S01013128
West Dunbartonshire Minorty Ethnic Association,SC028310,West Dunbartonshire,G81 1PF,55.89525041,-4.39752179,S02002461,S01013128
Carers Of West Dunbartonshire Limited,SC038695,West Dunbartonshire,G81 1UG,55.90186875,-4.40885701,S02002461,S01013128
Dalmuir Plots Association,SC041338,West Dunbartonshire,G81 1UA,55.90080225,-4.40778301,S02002461,S01013128
Clydebank G81 Trust SCIO,SC047386,West Dunbartonshire,G81 1PF,55.89525041,-4.39752179,S02002461,S01013128
Lodge St John No 543 Benevolent Fund,SC017106,West Dunbartonshire,G82 1BU,55.94249387,-4.55162528,S02002471,S01013192
2nd Dumbarton Brownie Unit,SC032121,West Dunbartonshire,G82 1EX,55.94008623,-4.5498334,S02002471,S01013192
South Drumry Neighbourhood Association SCIO,SC021093,West Dunbartonshire,G81 2PR,55.90512619,-4.39622744,S02002462,S01013135
Double L Centre Management Committee,SC021477,West Dunbartonshire,G81 2SR,55.90152326,-4.38599045,S02002462,S01013136
Linnvale Community Bus,SC039966,West Dunbartonshire,G81 2SZ,55.90428881,-4.38241655,S02002462,S01013136
Dunbartonshire Stage Lights Theatre Company,SC021979,West Dunbartonshire,G83 8SR,56.00192677,-4.58678949,S02002476,S01013233
His Family Church Clydebank,SC023686,West Dunbartonshire,G82 2SH,55.94810893,-4.52646233,S02002469,S01013179
Milton Community Hall,SC042090,West Dunbartonshire,G82 2TL,55.93737078,-4.52283245,S02002469,S01013179
Loch Lomond Steamship Company,SC024062,West Dunbartonshire,G83 9DE,55.97611954,-4.56411495,S02002474,S01013217
Dumbarton District Disabled Childrens Forum,SC024818,West Dunbartonshire,G82 5AW,55.95045991,-4.59665028,S02002472,S01013205
Tullochan,SC025309,West Dunbartonshire,G82 2RD,55.94758314,-4.56709693,S02002471,S01013198
Dumbarton Baptist Church SCIO,SC049733,West Dunbartonshire,G82 2BP,55.95509046,-4.56051287,S02002471,S01013198
Knowes Housing Association Limited,SC027466,West Dunbartonshire,G81 5BX,55.93174044,-4.38828057,S02002465,S01013155
Dumbarton & Vale Of Leven Disabled Womens Group,SC028297,West Dunbartonshire,G83 9LQ,55.98173849,-4.55799409,S02002474,S01013219
Gavinburn Out Of School Care,SC029373,West Dunbartonshire,G60 5NE,55.9272667,-4.46478312,S02002468,S01013177
Dumbarton Senior Citizens Committee,SC029715,West Dunbartonshire,G83 8JN,56.00860321,-4.57743358,S02002477,S01013241
Loch Lomond Highland Games Limited,SC044895,West Dunbartonshire,G83 8NA,56.01458083,-4.55105199,S02002477,S01013241
West Dunbartonshire Access Panel,SC029778,West Dunbartonshire,G60 5EW,55.91808544,-4.44699468,S02002468,S01013173
Clyde Shopmobility,SC034635,West Dunbartonshire,G60 5EW,55.91808544,-4.44699468,S02002468,S01013173
1st Glen Lusset (Old Kilpatrick) Scout Group,SC040054,West Dunbartonshire,G60 5EU,55.91946252,-4.45772523,S02002468,S01013173
Dumbarton And District Pipe Band,SC030608,West Dunbartonshire,G82 5EH,55.94937347,-4.60468296,S02002472,S01013203
8th Dumbarton Brownies,SC031987,West Dunbartonshire,G82 2NP,55.95596362,-4.56520068,S02002474,S01013215
West Dunbartonshire Environment Trust,SC034037,West Dunbartonshire,G82 3PD,55.9694913,-4.57636951,S02002474,S01013215
D Unit Combat Sports Hub ,SC046971,West Dunbartonshire,G82 3PW,55.9726173,-4.57774747,S02002474,S01013215
Clyde Valley Gymnastics Club,SC049578,West Dunbartonshire,G82 3PD,55.9694913,-4.57636951,S02002474,S01013215
3rd Vale Leven Brownie Unit,SC032104,West Dunbartonshire,G82 3EU,55.95243017,-4.5531443,S02002470,S01013187
The Dumbarton Castle Society,SC037549,West Dunbartonshire,G82 3HD,55.95455472,-4.55211473,S02002470,S01013187
Bellsmyre Digital Community SCIO,SC041737,West Dunbartonshire,G82 3HD,55.95455472,-4.55211473,S02002470,S01013187
2nd Balloch Rainbow Unit,SC049349,West Dunbartonshire,G82 3ER,55.9535907,-4.55309258,S02002470,S01013187
2nd Balloch Guide Unit,SC049357,West Dunbartonshire,G82 3ER,55.9535907,-4.55309258,S02002470,S01013187
Clydebank Local History Society,SC033023,West Dunbartonshire,G81 6LL,55.92788412,-4.4150342,S02002466,S01013159
6th Clydebank Rainbow Unit,SC034807,West Dunbartonshire,G81 2EE,55.91110913,-4.399605,S02002462,S01013140
Vale Of Leven Arthritis Club,SC035010,West Dunbartonshire,G83 8BL,56.00125861,-4.57405715,S02002477,S01013238
Inler Park Trust,SC043617,West Dunbartonshire,G83 8AB,56.00058893,-4.56565591,S02002477,S01013238
Age Concern - Vale Of Leven,SC036077,West Dunbartonshire,G82 4DU,55.94296839,-4.58703555,S02002472,S01013201
2nd Vale of Leven Brownie Unit,SC047361,West Dunbartonshire,G82 4QS,55.94305098,-4.58481484,S02002472,S01013201
Drumchapel Amateurs Football Club,SC036194,West Dunbartonshire,G81 6HH,55.92633178,-4.41719476,S02002466,S01013161
Duntocher Village Hall,SC043724,West Dunbartonshire,G81 6JQ,55.92425668,-4.41897041,S02002466,S01013161
1st Vale of Leven Boys Brigade,SC036860,West Dunbartonshire,G81 2HX,55.90921126,-4.4019839,S02002462,S01013134
Faifley Housing Association Ltd,SC037273,West Dunbartonshire,G81 5JY,55.92775732,-4.39483916,S02002465,S01013153
Independent Resource Centre,SC037670,West Dunbartonshire,G81 4ET,55.90888599,-4.42498936,S02002461,S01013132
The Linda Wilson Bequest,SC038017,West Dunbartonshire,G83 0BH,55.97909186,-4.5844625,S02002473,S01013209
Age Concern Dumbarton,SC038359,West Dunbartonshire,G82 2LS,55.94399938,-4.5501067,S02002469,S01013182
Y Sort-It,SC038548,West Dunbartonshire,G81 3EA,55.91199636,-4.40710091,S02002463,S01013141
The Recycle Room,SC050630,West Dunbartonshire,G81 2DN,55.91192145,-4.40357576,S02002463,S01013141
Trafalgar Housing Association Limited,SC038597,West Dunbartonshire,G81 4DX,55.90717225,-4.42027423,S02002461,S01013131
8th Dumbarton Rainbow Unit,SC038607,West Dunbartonshire,G82 3LA,55.94947423,-4.5430983,S02002470,S01013188
Dumbarton Riverside Football Club,SC045437,West Dunbartonshire,G82 3JT,55.9508101,-4.54717465,S02002470,S01013188
3rd Vale Of Leven Guide Unit,SC038661,West Dunbartonshire,G83 9NE,55.9781106,-4.55567053,S02002474,S01013218
1st/3rd Vale of Leven Scout Group,SC040493,West Dunbartonshire,G83 9LH,55.98052976,-4.55820281,S02002474,S01013218
1st Loch Lomond Scout Group,SC040931,West Dunbartonshire,G83 9LH,55.98052976,-4.55820281,S02002474,S01013218
Haldane Youth Services,SC038681,West Dunbartonshire,G82 4QW,55.96401483,-4.57821678,S02002473,S01013207
The Leamy Foundation,SC045684,West Dunbartonshire,G82 4QW,55.96401483,-4.57821678,S02002473,S01013207
2nd Balloch Brownie Unit,SC039038,West Dunbartonshire,G83 9JP,55.97516377,-4.56943748,S02002473,S01013212
1st Faifley Rainbow Unit,SC039143,West Dunbartonshire,G81 5AR,55.9292739,-4.39957549,S02002465,S01013157
Renton Craigandro Football Club,SC041817,West Dunbartonshire,G82 2EQ,55.94978041,-4.55566094,S02002470,S01013189
6th Clydebank Scout Group,SC041940,West Dunbartonshire,G81 4HP,55.9112479,-4.43009752,S02002467,S01013166
Dumbarton Community Foundation,SC042340,West Dunbartonshire,G82 3QH,55.94768099,-4.5402737,S02002469,S01013183
Dumbarton United Community Trust,SC045360,West Dunbartonshire,G82 3LS,55.94786025,-4.54073394,S02002469,S01013183
Dunbartonshire South Eastern Division Guides,SC042831,West Dunbartonshire,G81 3JD,55.91605729,-4.40901711,S02002463,S01013146
Bellsmyre Development Trust SCIO,SC042891,West Dunbartonshire,G82 3DR,55.95772335,-4.5497118,S02002470,S01013184
West Dunbartonshire Leisure Trust,SC042999,West Dunbartonshire,G83 0NU,55.98480269,-4.58130033,S02002475,S01013223
The Vale of Leven Trust,SC047591,West Dunbartonshire,G83 9HL,55.98554699,-4.57278805,S02002475,S01013223
Armed Forces Veterans Association Alexandria,SC044297,West Dunbartonshire,G83 0JN,55.99705221,-4.58992795,S02002476,S01013231
Bellsmyre Community Garden,SC045397,West Dunbartonshire,G82 3BB,55.9567033,-4.55296114,S02002470,S01013186
Men's Shed Clydebank,SC046361,West Dunbartonshire,G81 4RQ,55.91048227,-4.42516906,S02002461,S01013133
Golden Friendships,SC047924,West Dunbartonshire,G81 4AU,55.90946963,-4.42547385,S02002461,S01013133
Dumbarton Stations Improvement Trust ,SC046496,West Dunbartonshire,G82 2DY,55.95057498,-4.55851663,S02002471,S01013197
The Audrey Coleman Trust,SC046549,West Dunbartonshire,G81 3BF,55.90973035,-4.41587324,S02002467,S01013165
6th Clydebank Guide Unit,SC047216,West Dunbartonshire,G81 3BF,55.90973035,-4.41587324,S02002467,S01013165
1st Linnvale Brownie Unit,SC046728,West Dunbartonshire,G81 2LN,55.9086154,-4.39335456,S02002462,S01013138
Duntocher Charitable Foundation ,SC046929,West Dunbartonshire,G81 5PW,55.92380389,-4.39293047,S02002465,S01013154
Westbridgend Community Hall Development Association (SCIO) ,SC048546,West Dunbartonshire,G82 4BT,55.94529118,-4.57785267,S02002472,S01013199
The Get Up and Go Youth Club,SC048970,West Dunbartonshire,G81 1AP,55.89838874,-4.38402231,S02002460,S01013126
Centre81 Steering Group,SC049927,West Dunbartonshire,G81 1DP,55.90101893,-4.38882307,S02002460,S01013127
