Name,Charity Number,Local authority,Postcode,Latitude,Longitude,IntermediateZone2011Code,DataZone2011Code
Kintyre Agricultural Society,SC000143,Argyll and Bute,PA28 6PF,55.42298239,-5.63291901,S02001379,S01007331
Bridgend Episcopal Church (St Columba's),SC018473,Argyll and Bute,PA28 6NS,55.44887129,-5.6461695,S02001379,S01007331
St Kiaran Episcopal Church: Campbelltown,SC023277,Argyll and Bute,PA28 6NS,55.44887129,-5.6461695,S02001379,S01007331
Kintyre Crime Prevention Panel,SC041547,Argyll and Bute,PA28 6GA,55.45171545,-5.69399291,S02001379,S01007331
Machrihanish Airbase Community Company,SC042435,Argyll and Bute,PA28 6NU,55.44324498,-5.69517784,S02001379,S01007331
Kintyre Youth Theatre Community Arts Training,SC046491,Argyll and Bute,PA28 6PR,55.41389057,-5.6950101,S02001379,S01007331
Islay Arts Assoc,SC000272,Argyll and Bute,PA47 7SW,55.68024961,-6.50563942,S02001378,S01007325
Islay Festival Association,SC004390,Argyll and Bute,PA49 7UN,55.76837942,-6.35967576,S02001378,S01007325
Islay & Jura Sick Childrens Fund,SC007384,Argyll and Bute,PA49 7UN,55.76837942,-6.35967576,S02001378,S01007325
Islay Natural History Trust,SC013713,Argyll and Bute,PA48 7TX,55.73954933,-6.37842513,S02001378,S01007325
Rhinns of Islay Hall Committee,SC019971,Argyll and Bute,PA47 7SH,55.68048848,-6.50770476,S02001378,S01007325
Islay Pipe Band Association,SC028598,Argyll and Bute,PA47 7SR,55.67695885,-6.50413014,S02001378,S01007325
Bowmore Harbour Improvement Association,SC029708,Argyll and Bute,PA48 7TL,55.73761943,-6.38032904,S02001378,S01007325
Islay Development Initiative Ltd,SC030558,Argyll and Bute,PA44 7NZ,55.78895718,-6.25179974,S02001378,S01007325
Iomairt Chille-Chomain,SC032361,Argyll and Bute,PA48 7UE,55.71224249,-6.42399078,S02001378,S01007325
Cantilena Festival On Islay,SC033071,Argyll and Bute,PA48 7UE,55.71224249,-6.42399078,S02001378,S01007325
Bruichladdich Hall Committee,SC035687,Argyll and Bute,PA49 7UR,55.76686648,-6.36630327,S02001378,S01007325
2nd Islay Rainbow Unit,SC038396,Argyll and Bute,PA49 7UT,55.79565071,-6.39649711,S02001378,S01007325
Islay and Jura Youth Action,SC042860,Argyll and Bute,PA49 7UX,55.78650312,-6.44815922,S02001378,S01007325
Islay Link Club,SC043571,Argyll and Bute,PA44 7PQ,55.78587379,-6.25875775,S02001378,S01007325
Islay and Jura Bump to Birth Fund,SC046019,Argyll and Bute,PA47 7SR,55.67695885,-6.50413014,S02001378,S01007325
Islay Heritage,SC046938,Argyll and Bute,PA44 7PS,55.81692065,-6.39581644,S02001378,S01007325
1st Islay Scout Group (3rd Argyll),SC047258,Argyll and Bute,PA49 7UN,55.76837942,-6.35967576,S02001378,S01007325
Museum of Islay Life/Taigh-tasgaidh Muinntir Ìle,SC048723,Argyll and Bute,PA48 7UA,55.74291614,-6.37759104,S02001378,S01007325
Islay Youth Football Club (SCIO),SC049238,Argyll and Bute,PA49 7UN,55.76837942,-6.35967576,S02001378,S01007325
Islay Natural History Trust (SCIO),SC049310,Argyll and Bute,PA48 7TX,55.73954933,-6.37842513,S02001378,S01007325
Rhinns Playing Field Association,SC049507,Argyll and Bute,PA47 7SN,55.68070428,-6.50868487,S02001378,S01007325
This Is Islay SCIO,SC049646,Argyll and Bute,PA49 7UR,55.76686648,-6.36630327,S02001378,S01007325
Islay And Jura Toy Library,SC037579,Argyll and Bute,PA44 7NZ,55.78895718,-6.25179974,S02001378,S01007325
The Younger (Benmore) Trust,SC000284,Argyll and Bute,PA23 8SG,56.07703244,-4.98920154,S02001384,S01007355
Lochgoilhead & Kilmorich Church (Church of Scotland),SC006458,Argyll and Bute,PA24 8AD,56.16830588,-4.91444764,S02001384,S01007355
Sandbank Parent And Toddler Group,SC009776,Argyll and Bute,PA23 8PW,55.97566229,-4.94172633,S02001384,S01007355
Benmore & Rashfield Community Assoc,SC012312,Argyll and Bute,PA23 8RA,56.02109261,-4.99992988,S02001384,S01007355
Ardentinny Hall Association,SC027868,Argyll and Bute,PA23 8TR,56.04549315,-4.91052187,S02001384,S01007355
Lochgoilhead Village Hall,SC030203,Argyll and Bute,PA24 8AH,56.16106693,-4.89661476,S02001384,S01007355
Deer Park Community Woodland Trust,SC030658,Argyll and Bute,PA23 8RA,56.02109261,-4.99992988,S02001384,S01007355
Lochgoilhead Jetty Trust,SC033133,Argyll and Bute,PA24 8AD,56.16830588,-4.91444764,S02001384,S01007355
Lochgoil Community Trust Limited,SC033976,Argyll and Bute,PA24 8AQ,56.17087848,-4.90062484,S02001384,S01007355
Ardentinny Community Trust Limited,SC034235,Argyll and Bute,PA23 8TR,56.04549315,-4.91052187,S02001384,S01007355
Interloch Transport,SC037541,Argyll and Bute,PA23 8SE,56.00025388,-4.95198556,S02001384,S01007355
Fiddlefolk,SC038185,Argyll and Bute,PA24 8AH,56.16106693,-4.89661476,S02001384,S01007355
Ardentinny Renewables Trust,SC047215,Argyll and Bute,PA23 8TU,56.043318,-4.91013314,S02001384,S01007355
Dunoon Men's Shed,SC047923,Argyll and Bute,PA23 7RG,55.95555209,-4.93161139,S02001384,S01007355
Cormonachan Community Woodlands Limited,SC050840,Argyll and Bute,PA24 8AF,56.11384833,-4.9096186,S02001384,S01007355
Mairi Semple Fund,SC000390,Argyll and Bute,PA29 6UT,55.56835671,-5.69652112,S02001379,S01007329
Kintyre Music Club,SC002406,Argyll and Bute,PA29 6XE,55.59868295,-5.68471752,S02001379,S01007329
Gigha & Cara Church (Church of Scotland),SC002567,Argyll and Bute,PA41 7AD,55.66677798,-5.7499861,S02001379,S01007329
Kilcalmonell Parish Church (Church of Scotland),SC006948,Argyll and Bute,PA29 6XD,55.60090829,-5.68427522,S02001379,S01007329
Killean & Kilchenzie Parish Church (Church of Scotland),SC016020,Argyll and Bute,PA29 6XD,55.60090829,-5.68427522,S02001379,S01007329
Tayinloan Village Hall Committee Of Management,SC022710,Argyll and Bute,PA29 6XG,55.67572059,-5.64671042,S02001379,S01007329
Gigha Village Hall,SC029641,Argyll and Bute,PA41 7AD,55.66677798,-5.7499861,S02001379,S01007329
Isle Of Gigha Heritage Trust,SC032302,Argyll and Bute,PA41 7AA,55.68538537,-5.73664807,S02001379,S01007329
Trustees For Glenbarr War Memorial,SC032619,Argyll and Bute,PA29 6XD,55.60090829,-5.68427522,S02001379,S01007329
Kilkenzie And Tangy Community Association,SC035461,Argyll and Bute,PA28 6QD,55.47569833,-5.69158424,S02001379,S01007329
Clachan Youth Club,SC036901,Argyll and Bute,PA29 6XG,55.67572059,-5.64671042,S02001379,S01007329
Killean and Kilchenzie Churches Preservation Association,SC040708,Argyll and Bute,PA29 6XD,55.60090829,-5.68427522,S02001379,S01007329
Tayinloan Youth Club,SC042511,Argyll and Bute,PA29 6XQ,55.65454654,-5.66714771,S02001379,S01007329
The Kintyre Way,SC047608,Argyll and Bute,PA29 6XE,55.59868295,-5.68471752,S02001379,S01007329
Argyll Guides Association,SC000523,Argyll and Bute,PA23 8JY,55.97085945,-4.91385544,S02001385,S01007361
Dunoon Senior Citizens Club,SC020257,Argyll and Bute,PA23 8HQ,55.96201601,-4.91073845,S02001385,S01007361
Cowal Dog Training Club,SC030574,Argyll and Bute,PA23 8JR,55.9641748,-4.91485914,S02001385,S01007361
Girlguiding Cowal,SC038544,Argyll and Bute,PA23 8JY,55.97085945,-4.91385544,S02001385,S01007361
2nd Dunoon Guide Unit,SC038855,Argyll and Bute,PA23 8JY,55.97085945,-4.91385544,S02001385,S01007361
Hunter's Quay Community Association,SC046700,Argyll and Bute,PA23 8JU,55.9691386,-4.91060045,S02001385,S01007361
Holy Cross Episcopal Church,SC000619,Argyll and Bute,PA34 5JJ,56.42085253,-5.46786896,S02001372,S01007299
Oban Pipe Band,SC004610,Argyll and Bute,PA34 5JW,56.42079835,-5.47076768,S02001372,S01007299
"All Saints Episcopal Church, Inveraray",SC025646,Argyll and Bute,PA34 5JJ,56.42085253,-5.46786896,S02001372,S01007299
Oban Youth Café Project,SC032354,Argyll and Bute,PA34 5NY,56.4170732,-5.47344499,S02001372,S01007299
Lorn and Oban Healthy Options Limited,SC041998,Argyll and Bute,PA34 5JJ,56.42085253,-5.46786896,S02001372,S01007299
Friends of Oban Community Playpark,SC043720,Argyll and Bute,PA34 5JL,56.42096766,-5.46985849,S02001372,S01007299
Oban Pride,SC049763,Argyll and Bute,PA34 5JQ,56.42069977,-5.47204019,S02001372,S01007299
Argyll Wellbeing Hub,SC050100,Argyll and Bute,PA34 5PH,56.4180233,-5.47354789,S02001372,S01007299
Adventure Oban Ltd,SC050968,Argyll and Bute,PA34 5JE,56.41874377,-5.47093722,S02001372,S01007299
Ardchattan (Church of Scotland),SC000680,Argyll and Bute,PA37 1RW,56.4593489,-5.39545254,S02001373,S01007305
North Connel Hall Limited,SC012508,Argyll and Bute,PA37 1RQ,56.46295517,-5.29509447,S02001373,S01007305
Croileagan Apainn,SC031331,Argyll and Bute,PA37 1RQ,56.46295517,-5.29509447,S02001373,S01007305
Appin Community Sports And Leisure Association,SC037267,Argyll and Bute,PA37 1RD,56.4715025,-5.36249405,S02001373,S01007305
Spotlight Musical Theatre Group (SCIO),SC047562,Argyll and Bute,PA37 1RA,56.45914108,-5.37309135,S02001373,S01007305
The Ardchattan Centre,SC051251,Argyll and Bute,PA37 1RD,56.4715025,-5.36249405,S02001373,S01007305
Home-Start Lorn,SC000783,Argyll and Bute,PA34 4HP,56.41049694,-5.4710288,S02001371,S01007296
St Conan's Church: Loch Awe,SC012643,Argyll and Bute,PA34 4AL,56.41066919,-5.47514747,S02001371,S01007296
Iona Heritage Trust,SC015292,Argyll and Bute,PA34 4AL,56.41066919,-5.47514747,S02001371,S01007296
West Highland Housing Association Ltd,SC017357,Argyll and Bute,PA34 4HB,56.40810276,-5.47465382,S02001371,S01007296
Argyll Couple Counselling,SC023995,Argyll and Bute,PA34 4HP,56.41049694,-5.4710288,S02001371,S01007296
Crossroads (North Argyll) Care Attendant Scheme,SC032051,Argyll and Bute,PA34 4AL,56.41066919,-5.47514747,S02001371,S01007296
Argyll and Lochaber RDA Driving Group,SC038417,Argyll and Bute,PA34 4BG,56.41125527,-5.47220071,S02001371,S01007296
North Argyll Carers' Centre Limited,SC040902,Argyll and Bute,PA34 4AL,56.41066919,-5.47514747,S02001371,S01007296
Hope Kitchen SCIO,SC041770,Argyll and Bute,PA34 4HU,56.41006949,-5.46991952,S02001371,S01007296
Oban Lorne Rugby Football Club SCIO,SC048218,Argyll and Bute,PA34 4AZ,56.41199398,-5.47150583,S02001371,S01007296
"Culture, Heritage, and Arts Assembly, Argyll and The Isles  ",SC049113,Argyll and Bute,PA34 4HP,56.41049694,-5.4710288,S02001371,S01007296
Friends of the Sound of Jura,SC049740,Argyll and Bute,PA34 4AT,56.41174042,-5.47221251,S02001371,S01007296
Hope to Oban,SC034645,Argyll and Bute,PA34 4PL,56.40661802,-5.47502104,S02001371,S01007296
Finlaggan Trust,SC000821,Argyll and Bute,PA45 7QT,55.83964611,-6.16417305,S02001378,S01007326
Kilmeny Community Playing Field,SC005748,Argyll and Bute,PA46 7RF,55.84005919,-6.12822347,S02001378,S01007326
North and West Islay Church of Scotland,SC015317,Argyll and Bute,PA46 7RQ,55.84181861,-6.12778687,S02001378,S01007326
Ballygrant Hall Association,SC017035,Argyll and Bute,PA45 7QR,55.81926091,-6.15929207,S02001378,S01007326
Islay & Jura Highland Dancers,SC024439,Argyll and Bute,PA46 7RB,55.85114911,-6.11774619,S02001378,S01007326
Ionad Chaluim Chille Ile,SC030322,Argyll and Bute,PA43 7LN,55.76260776,-6.26672929,S02001378,S01007326
Comann Nam Parant (Islay & Jura) Group,SC031639,Argyll and Bute,PA43 7LN,55.76260776,-6.26672929,S02001378,S01007326
Islay Quilters,SC031720,Argyll and Bute,PA44 7PZ,55.76447554,-6.20717486,S02001378,S01007326
Islay Book Festival,SC037096,Argyll and Bute,PA44 7PG,55.79279046,-6.22413687,S02001378,S01007326
Bridgend Community Centre Committee,SC037235,Argyll and Bute,PA44 7PG,55.79279046,-6.22413687,S02001378,S01007326
Islay and Jura Dog Management,SC037412,Argyll and Bute,PA46 7RN,55.86804167,-6.11873669,S02001378,S01007326
Girlguiding Islay and Jura,SC038438,Argyll and Bute,PA44 7PZ,55.76447554,-6.20717486,S02001378,S01007326
6th Islay Brownie Unit,SC039122,Argyll and Bute,PA42 7EF,55.66730013,-6.07017419,S02001378,S01007326
Sidekick,SC050513,Argyll and Bute,PA44 7PD,55.78769098,-6.23822134,S02001378,S01007326
Tiree Parish Church Of Scotland,SC000878,Argyll and Bute,PA77 6UA,56.46611888,-6.89687185,S02001370,S01007284
Comunn Feis Thiriodh,SC005324,Argyll and Bute,PA77 6UL,56.49321128,-6.81900259,S02001370,S01007284
Tiree Baptist Church,SC021250,Argyll and Bute,PA77 6UZ,56.51740248,-6.90001655,S02001370,S01007284
Tiree & Coll Gaelic Partnership,SC022642,Argyll and Bute,PA77 6UE,56.45775026,-6.93747139,S02001370,S01007284
Tiree Community Business Limited,SC023595,Argyll and Bute,PA77 6UP,56.49435737,-6.88462794,S02001370,S01007284
Charles Mackinnon Maclean Memorial Trust,SC024585,Argyll and Bute,PA77 6TR,56.5304141,-6.76703589,S02001370,S01007284
Tiree Rural Development Limited,SC033726,Argyll and Bute,PA77 6UP,56.49435737,-6.88462794,S02001370,S01007284
An Talla Limited,SC033839,Argyll and Bute,PA77 6UP,56.49435737,-6.88462794,S02001370,S01007284
Coll Parish Church (Church of Scotland),SC035582,Argyll and Bute,PA78 6TB,56.60072674,-6.61277273,S02001370,S01007284
Tiree Maritime Trust Limited,SC036602,Argyll and Bute,PA77 6UE,56.45775026,-6.93747139,S02001370,S01007284
Tiree Community Development Trust,SC037018,Argyll and Bute,PA77 6UP,56.49435737,-6.88462794,S02001370,S01007284
An Iodhlann Trust,SC038003,Argyll and Bute,PA77 6UE,56.45775026,-6.93747139,S02001370,S01007284
Development Coll,SC038217,Argyll and Bute,PA78 6SY,56.6233998,-6.52757721,S02001370,S01007284
Coll Sailing Club,SC038432,Argyll and Bute,PA78 6TB,56.60072674,-6.61277273,S02001370,S01007284
Cùram Thiriodh,SC042742,Argyll and Bute,PA77 6UP,56.49435737,-6.88462794,S02001370,S01007284
The Isle of Coll Heritage Trust,SC044958,Argyll and Bute,PA78 6SY,56.6233998,-6.52757721,S02001370,S01007284
Natural History & Antiquarian Society of Mid Argyll,SC000894,Argyll and Bute,PA31 8RE,56.07100823,-5.46279384,S02001375,S01007314
The Lachlan Miller Memorial Trust,SC040618,Argyll and Bute,PA31 8QA,56.08145354,-5.45035469,S02001375,S01007314
Lochgilphead Phoenix Project (SCIO),SC041108,Argyll and Bute,PA31 8UH,56.05921743,-5.48558235,S02001375,S01007314
Barmaddy Centre,SC050724,Argyll and Bute,PA31 8QL,56.10320195,-5.42519512,S02001375,S01007314
North Knapdale Parish Church Of Scotland,SC001002,Argyll and Bute,PA31 8PN,56.02828964,-5.62972725,S02001377,S01007320
South Knapdale Parish Church (Church of Scotland),SC010782,Argyll and Bute,PA31 8NZ,55.91943811,-5.58560586,S02001377,S01007320
Tayvallich Village Hall Committee,SC030632,Argyll and Bute,PA31 8PJ,56.0232291,-5.62661881,S02001377,S01007320
Lanterns @ 10,SC035705,Argyll and Bute,PA31 8PT,55.96409745,-5.64046023,S02001377,S01007320
Tayvallich Community Company,SC040087,Argyll and Bute,PA31 8PW,56.01961607,-5.62778877,S02001377,S01007320
Ardrishaig Community Trust,SC040296,Argyll and Bute,PA30 8ET,55.95699738,-5.44671437,S02001377,S01007320
Moving On - Mid Argyll,SC041901,Argyll and Bute,PA31 8PN,56.02828964,-5.62972725,S02001377,S01007320
Allt Dearg Educational Trust,SC044159,Argyll and Bute,PA31 8PG,56.04693216,-5.59310082,S02001377,S01007320
Tayvallich Community Hall SCIO ,SC048540,Argyll and Bute,PA31 8PJ,56.0232291,-5.62661881,S02001377,S01007320
Achnamara Community Trust SCIO,SC048950,Argyll and Bute,PA31 8PT,55.96409745,-5.64046023,S02001377,S01007320
Cardross Trust,SC001041,Argyll and Bute,G82 5HD,55.96759402,-4.67134346,S02001392,S01007406
Helensburgh Dorian Choir,SC002028,Argyll and Bute,G82 5NS,55.96297857,-4.65575383,S02001392,S01007406
Cardross Parish Church Of Scotland,SC003494,Argyll and Bute,G82 5JQ,55.95839747,-4.64768496,S02001392,S01007406
Cardross Scouts Group,SC014872,Argyll and Bute,G82 5NW,55.96116384,-4.65362649,S02001392,S01007406
Geilston Hall Management Committee,SC040631,Argyll and Bute,G82 5NS,55.96297857,-4.65575383,S02001392,S01007406
Presbytery Of Argyll,SC001424,Argyll and Bute,PA30 8HE,56.01530997,-5.45094898,S02001376,S01007319
Craignish Parish Church Of Scotland,SC003718,Argyll and Bute,PA30 8HE,56.01530997,-5.45094898,S02001376,S01007319
Mid Argyll Arts Association,SC006711,Argyll and Bute,PA30 8EE,56.01083925,-5.45006844,S02001376,S01007319
St Columba's - Poltalloch,SC031391,Argyll and Bute,PA30 8EL,56.01529383,-5.45056232,S02001376,S01007319
Rosneath St Modans Church of Scotland,SC001510,Argyll and Bute,G84 0QA,56.01676994,-4.81232888,S02001387,S01007377
Princess Louise Hall Committee,SC021746,Argyll and Bute,G84 0QX,56.02374214,-4.81797225,S02001387,S01007377
Helensburgh Festive Lighting Charitable Trust,SC034029,Argyll and Bute,G84 0QX,56.02374214,-4.81797225,S02001387,S01007377
Craigrownie Parish Church Of Scotland,SC001725,Argyll and Bute,G84 0JA,55.98663471,-4.83685388,S02001387,S01007373
Friends Of The Linn Gardens,SC029702,Argyll and Bute,G84 0LF,55.98847644,-4.80549426,S02001387,S01007373
Cove and Kilcreggan Youth Cafe,SC042054,Argyll and Bute,G84 0HU,55.98702585,-4.84055465,S02001387,S01007373
Strachur & Strathlachlan Church (Church of Scotland),SC001767,Argyll and Bute,PA27 8BY,56.16220108,-5.0894156,S02001384,S01007357
Dunoon Free Church,SC007880,Argyll and Bute,PA27 8DE,56.16533869,-5.08220827,S02001384,S01007357
Old Smiddy Strachur Museum Society,SC022780,Argyll and Bute,PA27 8DF,56.16745241,-5.07422509,S02001384,S01007357
Strachur Memorial Hall Committee,SC024404,Argyll and Bute,PA27 8BY,56.16220108,-5.0894156,S02001384,S01007357
Here We Are,SC027715,Argyll and Bute,PA26 8BL,56.26964932,-4.93330156,S02001384,S01007357
Strachur Friendship Group,SC029264,Argyll and Bute,PA27 8DP,56.15874843,-5.09447009,S02001384,S01007357
Loch Fyne Oysters Trust,SC030683,Argyll and Bute,PA26 8BL,56.26964932,-4.93330156,S02001384,S01007357
Strachur & District Community Development Company Limited,SC033175,Argyll and Bute,PA27 8BY,56.16220108,-5.0894156,S02001384,S01007357
Cairndow Community Childcare Limited,SC036218,Argyll and Bute,PA26 8BL,56.26964932,-4.93330156,S02001384,S01007357
Strachur Hub,SC049158,Argyll and Bute,PA27 8BW,56.16370285,-5.08471924,S02001384,S01007357
Cowal Kirk (Church of Scotland),SC001976,Argyll and Bute,PA23 8HA,55.95777936,-4.91389736,S02001385,S01007363
Royal Scottish Country Dance Society South Argyll Branch,SC025504,Argyll and Bute,PA23 8JJ,55.95752061,-4.92102445,S02001385,S01007363
Dunoon Jazz Festival Community Trust,SC049499,Argyll and Bute,PA23 8FG,55.95677396,-4.91763531,S02001385,S01007363
"Glassary, Kilmartin & Ford Parish Church Of Scotland",SC002121,Argyll and Bute,PA31 8RQ,56.13897087,-5.48381903,S02001375,S01007313
Ford Hall Fund,SC002390,Argyll and Bute,PA31 8RH,56.18248016,-5.43266398,S02001375,S01007313
Kilmartin Under Fives,SC011929,Argyll and Bute,PA31 8UN,56.13399784,-5.48449582,S02001375,S01007313
Kilmartin Museum Company Ltd,SC022744,Argyll and Bute,PA31 8RQ,56.13897087,-5.48381903,S02001375,S01007313
Craignish Village Hall Committee,SC022883,Argyll and Bute,PA31 8QN,56.18135817,-5.53803891,S02001375,S01007313
Puffer Preservation Trust,SC032793,Argyll and Bute,PA31 8QH,56.08568651,-5.54237524,S02001375,S01007313
Dalriada Arts & Culture,SC034363,Argyll and Bute,PA31 8RH,56.18248016,-5.43266398,S02001375,S01007313
Ford Village Hall Ltd,SC035463,Argyll and Bute,PA31 8RH,56.18248016,-5.43266398,S02001375,S01007313
Craignish Community Company Limited,SC035761,Argyll and Bute,PA31 8UW,56.19268296,-5.49872081,S02001375,S01007313
Heart of Argyll Wildlife Organisation ,SC047167,Argyll and Bute,PA31 8RH,56.18248016,-5.43266398,S02001375,S01007313
Dunadd Community Enterprise (SCIO),SC050367,Argyll and Bute,PA31 8RQ,56.13897087,-5.48381903,S02001375,S01007313
Kilninver & Kilmelford Parish Church Of Scotland,SC002458,Argyll and Bute,PA34 4XF,56.25825178,-5.47771696,S02001374,S01007309
Oban Congregation Of Jehovahs Witnesses,SC002840,Argyll and Bute,PA34 4UX,56.29714342,-5.44855901,S02001374,S01007309
Kilchrenan Village Hall (SCIO),SC007889,Argyll and Bute,PA35 1HF,56.35032255,-5.17321707,S02001374,S01007309
Kilchrenan & Dalavich Parish Church (Church of Scotland),SC009417,Argyll and Bute,PA35 1HF,56.35032255,-5.17321707,S02001374,S01007309
Muckairn Parish Church (Church of Scotland),SC013377,Argyll and Bute,PA35 1HF,56.35032255,-5.17321707,S02001374,S01007309
Kilmelford & Kilninver Community SCIO,SC022862,Argyll and Bute,PA34 4XD,56.26610936,-5.51176058,S02001374,S01007309
Dalavich Improvement Group,SC032664,Argyll and Bute,PA35 1HN,56.26304138,-5.2797482,S02001374,S01007309
Loch Awe Coastal Rowing Club,SC050249,Argyll and Bute,PA35 1HG,56.34685166,-5.18795129,S02001374,S01007309
Campbeltown: Highland Parish Church Of Scotland,SC002493,Argyll and Bute,PA28 6LL,55.41898556,-5.61092562,S02001380,S01007338
Kintyre Toy Library & Resources,SC026051,Argyll and Bute,PA28 6LJ,55.41909826,-5.61319653,S02001380,S01007338
5th Campbeltown Rainbow Unit,SC039219,Argyll and Bute,PA28 6LP,55.41881628,-5.6166486,S02001380,S01007338
Saddell & Carradale Church (Church of Scotland),SC002609,Argyll and Bute,PA28 6SG,55.5912368,-5.46576589,S02001379,S01007330
Peninver Village Hall,SC017003,Argyll and Bute,PA28 6QP,55.46728965,-5.54766605,S02001379,S01007330
Carradale Community Trust,SC024417,Argyll and Bute,PA28 6QX,55.58066602,-5.49003927,S02001379,S01007330
Carradale Activity Play Park (Capp),SC028769,Argyll and Bute,PA28 6QT,55.56887277,-5.50125812,S02001379,S01007330
Campbeltown Brass,SC035700,Argyll and Bute,PA28 6QW,55.44653868,-5.55874159,S02001379,S01007330
Carradale Village Hall,SC046722,Argyll and Bute,PA28 6RZ,55.58986898,-5.47247204,S02001379,S01007330
28th Argyll Carradale Scout Group,SC050069,Argyll and Bute,PA28 6SQ,55.59201025,-5.46226178,S02001379,S01007330
East Kintyre Community Fund,SC050650,Argyll and Bute,PA28 6QT,55.56887277,-5.50125812,S02001379,S01007330
"Tarbert, Loch Fyne and Kilberry (Church of Scotland)",SC002622,Argyll and Bute,PA29 6UG,55.86390921,-5.39425042,S02001377,S01007323
Templar Arts And Leisure Centre Trust,SC029453,Argyll and Bute,PA29 6UH,55.86305953,-5.41324925,S02001377,S01007323
Charles And Barbara Tyre Trust,SC031378,Argyll and Bute,PA29 6UL,55.86288203,-5.41478445,S02001377,S01007323
Tarbert & Skipness Community Trust,SC033379,Argyll and Bute,PA29 6UQ,55.86438412,-5.40601106,S02001377,S01007323
Tarbert Academy Parent Council,SC046644,Argyll and Bute,PA29 6UG,55.86390921,-5.39425042,S02001377,S01007323
North East Kintyre Regeneration Trust,SC049498,Argyll and Bute,PA29 6UL,55.86288203,-5.41478445,S02001377,S01007323
Loch Fyne International Viking Festival SCIO,SC049869,Argyll and Bute,PA29 6UQ,55.86438412,-5.40601106,S02001377,S01007323
Taynuilt Pre-School Playgroup,SC002637,Argyll and Bute,PA35 1JP,56.43325951,-5.23545731,S02001373,S01007306
Taynuilt Village Hall,SC017528,Argyll and Bute,PA35 1JQ,56.43642659,-5.22983633,S02001373,S01007306
Connel Millennium Sports Field Association,SC029451,Argyll and Bute,PA35 1JW,56.42974624,-5.24502276,S02001373,S01007306
1st North Connel Guides,SC031357,Argyll and Bute,PA35 1AG,56.43223582,-5.23438056,S02001373,S01007306
Oban Mountain Rescue Team,SC031761,Argyll and Bute,PA35 1JZ,56.4285092,-5.23904443,S02001373,S01007306
1st Connel Brownie Pack,SC034475,Argyll and Bute,PA35 1JW,56.42974624,-5.24502276,S02001373,S01007306
North Mull (Church of Scotland) ,SC002878,Argyll and Bute,PA75 6PN,56.61995498,-6.07541223,S02001370,S01007286
Co-Roinn Ghaidlig Mhuile Agus Idhe (Mull & Iona Gaelic Partnership),SC023080,Argyll and Bute,PA75 6PS,56.62701011,-6.06813075,S02001370,S01007286
Aros Hall,SC027209,Argyll and Bute,PA75 6NT,56.62156938,-6.07005663,S02001370,S01007286
Tobermory Endeavour SCIO,SC037158,Argyll and Bute,PA75 6PN,56.61995498,-6.07541223,S02001370,S01007286
Aros Park Historic Walled Garden (SCIO),SC049377,Argyll and Bute,PA75 6PN,56.61995498,-6.07541223,S02001370,S01007286
Tobermory Fishermans Pier Association,SC051166,Argyll and Bute,PA75 6PS,56.62701011,-6.06813075,S02001370,S01007286
Jura Parish Church Of Scotland,SC002925,Argyll and Bute,PA60 7XZ,55.87647139,-5.90485412,S02001378,S01007324
Colonsay Village Hall Committee,SC011533,Argyll and Bute,PA61 7YN,56.07571668,-6.17967002,S02001378,S01007324
Colonsay And Oronsay Heritage Trust,SC021607,Argyll and Bute,PA61 7YT,56.10574445,-6.20274048,S02001378,S01007324
Jura Playground Association,SC023926,Argyll and Bute,PA60 7XS,55.83365798,-5.95180026,S02001378,S01007324
Jura Care Centre,SC024743,Argyll and Bute,PA60 7XF,55.84213109,-5.94810612,S02001378,S01007324
Jura Music Festival Organising Committee,SC026893,Argyll and Bute,PA60 7YA,55.83165552,-5.95170873,S02001378,S01007324
Isle Of Jura Development Trust,SC027029,Argyll and Bute,PA60 7XG,55.85267452,-5.94770593,S02001378,S01007324
Jura Hall,SC030014,Argyll and Bute,PA60 7XZ,55.87647139,-5.90485412,S02001378,S01007324
Colonsay Medical Equipment Fund,SC030242,Argyll and Bute,PA61 7YW,56.07095281,-6.18965316,S02001378,S01007324
Colonsay Community Development Company Limited,SC030317,Argyll and Bute,PA61 7YW,56.07095281,-6.18965316,S02001378,S01007324
Colonsay & Oronsay Church Of Scotland,SC031271,Argyll and Bute,PA61 7YR,56.0740885,-6.23342764,S02001378,S01007324
Gordon Wright Trust,SC032205,Argyll and Bute,PA60 7XZ,55.87647139,-5.90485412,S02001378,S01007324
Glenorchy & Innishael Church Of Scotland,SC003179,Argyll and Bute,PA33 1BJ,56.3393812,-5.15955413,S02001374,S01007308
Lochawe Village Hall Committee,SC010031,Argyll and Bute,PA33 1AQ,56.40000361,-5.04583802,S02001374,S01007308
Port Sonachan Village Hall,SC027535,Argyll and Bute,PA33 1BW,56.2720685,-5.23636418,S02001374,S01007308
Dalmally Community Company,SC029719,Argyll and Bute,PA33 1AR,56.40689751,-4.95376593,S02001374,S01007308
Glenorchy and Innishail Community Orchard,SC043638,Argyll and Bute,PA33 1BH,56.34600219,-5.121802,S02001374,S01007308
Bridge of Orchy Village Hall Trust,SC046194,Argyll and Bute,PA33 1BD,56.43667388,-4.86774833,S02001374,S01007308
The Argyllshire Gathering Trust,SC050614,Argyll and Bute,PA33 1BQ,56.35742229,-5.07132567,S02001374,S01007308
Helensburgh & Gareloch Horticultural Society,SC003379,Argyll and Bute,G84 8FA,56.01379229,-4.75673672,S02001392,S01007404
Luss Hall Trustees,SC015983,Argyll and Bute,G83 8RQ,56.04604783,-4.65285448,S02001392,S01007404
Garelochhead Parish Church of Scotland,SC016699,Argyll and Bute,G84 9EQ,56.02662079,-4.71126319,S02001392,S01007404
Luss Village Hall Restoration And Maintenance Association,SC031837,Argyll and Bute,G83 8RQ,56.04604783,-4.65285448,S02001392,S01007404
"Kilmun, Strone & Ardentinny: The Shore Kirk, (Church of Scotland)",SC003410,Argyll and Bute,PA23 8TH,55.99692286,-4.89690676,S02001384,S01007356
Air Training Corps No 2296 Dunoon Squadron Non Public Sports & Welfare Funds,SC024717,Argyll and Bute,PA23 8TJ,55.9977317,-4.89614927,S02001384,S01007356
Kilmun Hall & Recreation Association,SC025824,Argyll and Bute,PA23 8TL,56.00526614,-4.89913587,S02001384,S01007356
Cowal Camera Club,SC034945,Argyll and Bute,PA23 8RY,55.98952381,-4.92396841,S02001384,S01007356
Bullwood Nature Trail,SC039606,Argyll and Bute,PA23 8RY,55.98952381,-4.92396841,S02001384,S01007356
Blairmore Village Hall,SC043493,Argyll and Bute,PA23 8TP,56.019176,-4.90545897,S02001384,S01007356
"The Friends of Riverbank Bird Hide, Kilmun",SC049274,Argyll and Bute,PA23 8TL,56.00526614,-4.89913587,S02001384,S01007356
Kilmun Hall and Recreation Association (SCIO),SC049893,Argyll and Bute,PA23 8TL,56.00526614,-4.89913587,S02001384,S01007356
Blairmore Hall Trust SCIO,SC050150,Argyll and Bute,PA23 8TE,55.989498,-4.89575768,S02001384,S01007356
Kilfinan Parish Church (Church of Scotland),SC003483,Argyll and Bute,PA21 2EP,55.95602375,-5.31521722,S02001383,S01007352
Colintraive Village Hall,SC007214,Argyll and Bute,PA22 3AH,55.9594101,-5.18524537,S02001383,S01007352
Society Of Friends Of The Parish Church Of Kilfinan,SC018466,Argyll and Bute,PA21 2EP,55.95602375,-5.31521722,S02001383,S01007352
Kilmodan & Colintraive Parish Church Of Scotland,SC021449,Argyll and Bute,PA22 3AR,55.92939768,-5.16204293,S02001383,S01007352
Strathlachlan Community Centre,SC027614,Argyll and Bute,PA27 8BU,56.09903074,-5.21507889,S02001383,S01007352
Glendaruel Village Hall,SC028436,Argyll and Bute,PA22 3AJ,55.99165013,-5.19141125,S02001383,S01007352
Colintraive & Glendaruel Development Trust,SC040002,Argyll and Bute,PA22 3AS,55.91777559,-5.13809165,S02001383,S01007352
Rest and Be Thankful Heritage Centre,SC048606,Argyll and Bute,PA22 3AH,55.9594101,-5.18524537,S02001383,S01007352
Port Appin Village Hall,SC003759,Argyll and Bute,PA38 4BA,56.53729254,-5.34447586,S02001373,S01007304
Trustees Of Appin Village Hall,SC009529,Argyll and Bute,PA38 4DD,56.56291807,-5.38281938,S02001373,S01007304
Appin Parish Church (Church of Scotland),SC015795,Argyll and Bute,PA38 4BG,56.55973399,-5.3563723,S02001373,S01007304
Appin Community Trust,SC017887,Argyll and Bute,PA38 4DD,56.56291807,-5.38281938,S02001373,S01007304
Lismore Public Hall,SC021440,Argyll and Bute,PA34 5UL,56.53227898,-5.47239492,S02001373,S01007304
Lismore Community Transport ,SC030469,Argyll and Bute,PA34 5UG,56.51463495,-5.50359586,S02001373,S01007304
Lismore Parish Church (Church of Scotland),SC030972,Argyll and Bute,PA34 5UL,56.53227898,-5.47239492,S02001373,S01007304
Lismore Community Trust,SC041461,Argyll and Bute,PA34 5UL,56.53227898,-5.47239492,S02001373,S01007304
Appin Community Development Trust,SC047073,Argyll and Bute,PA38 4BJ,56.58236265,-5.2093621,S02001373,S01007304
Helensburgh Oratorio Choir,SC003942,Argyll and Bute,G84 7AZ,55.99764086,-4.71580853,S02001391,S01007401
Skipness: St Brendan's Church (Church of Scotland),SC004280,Argyll and Bute,PA29 6XT,55.76966429,-5.34293714,S02001377,S01007321
Whitehouse Village Hall,SC028342,Argyll and Bute,PA29 6YG,55.77023091,-5.40606463,S02001377,S01007321
Skipness Village Hall,SC028768,Argyll and Bute,PA29 6XT,55.76966429,-5.34293714,S02001377,S01007321
Tarbert Youth Group,SC033427,Argyll and Bute,PA29 6YE,55.82265084,-5.49336298,S02001377,S01007321
1st Tarbert Rainbow Unit,SC038604,Argyll and Bute,PA29 6YL,55.92288565,-5.42451605,S02001377,S01007321
1st Tarbert Guide Unit,SC040125,Argyll and Bute,PA29 6XZ,55.796552,-5.53038261,S02001377,S01007321
1st Tarbert Brownie Unit,SC040173,Argyll and Bute,PA29 6XZ,55.796552,-5.53038261,S02001377,S01007321
Clachan Village Hall (Kintyre) SCIO,SC050324,Argyll and Bute,PA29 6XW,55.73913304,-5.58714014,S02001377,S01007321
West Kintyre Community Fund,SC050864,Argyll and Bute,PA29 6XS,55.79023026,-5.49931392,S02001377,S01007321
Rosneath Peninsula Amenity Society,SC004393,Argyll and Bute,G84 0HW,55.98648525,-4.84333718,S02001387,S01007374
1st Cove & Kilcreggan Scout Group,SC026888,Argyll and Bute,G84 0HJ,55.98404035,-4.83279954,S02001387,S01007374
Rosneath Peninsula West Community Development Trust,SC041983,Argyll and Bute,G84 0HQ,55.98411385,-4.82842758,S02001387,S01007374
Garelochhead Pre-School Playgroup,SC004949,Argyll and Bute,G84 0DG,56.08268452,-4.83233998,S02001387,S01007380
Garelochhead Station Trust,SC049407,Argyll and Bute,G84 0AT,56.08086165,-4.83186857,S02001387,S01007380
Southend Parish Church (Church of Scotland),SC005484,Argyll and Bute,PA28 6RF,55.32832787,-5.57492426,S02001379,S01007332
Argyll Memorial Trust,SC013632,Argyll and Bute,PA28 6RW,55.31396052,-5.64506797,S02001379,S01007332
Campbeltown Cat Rescue,SC030907,Argyll and Bute,PA28 6RU,55.3141866,-5.68929931,S02001379,S01007332
Dunaverty Village Hall,SC032777,Argyll and Bute,PA28 6RQ,55.32455275,-5.63000224,S02001379,S01007332
Stewarton And District Hall Committee,SC037059,Argyll and Bute,PA28 6RD,55.41358682,-5.57189711,S02001379,S01007332
Bute Community Nursery,SC005669,Argyll and Bute,PA20 0HD,55.83340956,-5.05624431,S02001382,S01007347
Bute Shinty and Amateur Athletic Club SCIO,SC049581,Argyll and Bute,PA20 0ED,55.83035588,-5.06082814,S02001382,S01007347
Abbeyfield Helensburgh Society Ltd,SC005720,Argyll and Bute,G84 8ED,56.00634865,-4.73985845,S02001389,S01007393
Beacon Trust Helensburgh,SC023059,Argyll and Bute,G84 9JS,56.0077102,-4.73278345,S02001389,S01007393
"South Islay, Church of Scotland",SC006032,Argyll and Bute,PA43 7LB,55.75757587,-6.28594114,S02001378,S01007327
Islay & Jura Community Enterprises Ltd,SC015815,Argyll and Bute,PA43 7JS,55.75623036,-6.29021138,S02001378,S01007327
The Islay Getting Together SCIO (formerly IDEA),SC022066,Argyll and Bute,PA43 7LL,55.76081364,-6.27331239,S02001378,S01007327
Feis Oigridh Ile (Islay Youth Festival),SC022198,Argyll and Bute,PA43 7JE,55.75582052,-6.28469562,S02001378,S01007327
Ileach Ltd,SC033685,Argyll and Bute,PA43 7JH,55.75565217,-6.28719714,S02001378,S01007327
Islay Baptist Church,SC033816,Argyll and Bute,PA43 7JA,55.75701933,-6.28101524,S02001378,S01007327
Bowmore Hall Committee,SC035183,Argyll and Bute,PA43 7JA,55.75701933,-6.28101524,S02001378,S01007327
Islay Energy Trust,SC037819,Argyll and Bute,PA43 7JJ,55.75660659,-6.28794002,S02001378,S01007327
Islay and Jura Youth Wind Band,SC042863,Argyll and Bute,PA43 7JW,55.75600961,-6.28777871,S02001378,S01007327
Bowmore Primary School Parent Council,SC048231,Argyll and Bute,PA43 7JX,55.75548523,-6.28888538,S02001378,S01007327
Islay Foodbank,SC051098,Argyll and Bute,PA43 7HL,55.75662208,-6.2854376,S02001378,S01007327
Trustees Of Tarbert Village Hall,SC006102,Argyll and Bute,PA29 6TX,55.86317637,-5.42101348,S02001377,S01007322
Kintyre Six Circle Group,SC032716,Argyll and Bute,PA29 6TX,55.86317637,-5.42101348,S02001377,S01007322
Tarbert After School Care,SC042748,Argyll and Bute,PA29 6TX,55.86317637,-5.42101348,S02001377,S01007322
Tarbert Castle Trust,SC043056,Argyll and Bute,PA29 6TU,55.86588761,-5.41533625,S02001377,S01007322
Tarbet Free Church of Scotland,SC049096,Argyll and Bute,PA29 6TX,55.86317637,-5.42101348,S02001377,S01007322
Benderloch and North Connel Drama Club,SC006105,Argyll and Bute,PA34 4PU,56.41210104,-5.45931979,S02001371,S01007294
Kilmore & Oban Church Of Scotland,SC011171,Argyll and Bute,PA34 4PU,56.41210104,-5.45931979,S02001371,S01007294
Multiple Sclerosis Therapy Centre (Oban) Limited,SC016889,Argyll and Bute,PA34 4PU,56.41210104,-5.45931979,S02001371,S01007294
Oban Music Society,SC020711,Argyll and Bute,PA34 4PU,56.41210104,-5.45931979,S02001371,S01007294
1st Oban Rainbow Unit,SC035321,Argyll and Bute,PA34 4EN,56.40922263,-5.46419897,S02001371,S01007294
LochWatch,SC044477,Argyll and Bute,PA34 4RX,56.41504619,-5.45365121,S02001371,S01007294
Trinity Church (Church of Scotland),SC006420,Argyll and Bute,PA20 9JR,55.84275952,-5.0384452,S02001381,S01007342
Bute Conservation Trust,SC017854,Argyll and Bute,PA20 9EG,55.83818246,-5.02903005,S02001381,S01007342
Rothesay & District Pipe Band,SC025318,Argyll and Bute,PA20 9EB,55.84375317,-5.03825116,S02001381,S01007342
The United Church of Bute (Church of Scotland),SC030563,Argyll and Bute,PA20 9DY,55.84221141,-5.04279601,S02001381,S01007342
Dunoon Baptist Church,SC006436,Argyll and Bute,PA23 8AB,55.94902944,-4.92466196,S02001386,S01007367
Patchwork 2-5 Nursery,SC009128,Argyll and Bute,PA23 7PH,55.95157901,-4.93198378,S02001386,S01007367
Help (Argyll And Bute) Limited,SC034478,Argyll and Bute,PA23 8BN,55.95124388,-4.92490915,S02001386,S01007367
Argyll and Bute Rape Crisis,SC037022,Argyll and Bute,PA23 7QT,55.95148747,-4.92827596,S02001386,S01007367
People And Agencies Of Cowal Coming Together (pacct),SC037095,Argyll and Bute,PA23 8BW,55.95181806,-4.92419948,S02001386,S01007367
St Michael & All Angels Church: Helensburgh,SC006468,Argyll and Bute,G84 8ET,56.00523543,-4.74666184,S02001390,S01007394
Bute Advice Centre,SC006571,Argyll and Bute,PA20 9DG,55.83693134,-5.05235143,S02001382,S01007350
Bute Victoriana Limited,SC013026,Argyll and Bute,PA20 9AG,55.8375838,-5.05286586,S02001382,S01007350
Beachwatch Bute SCIO,SC029603,Argyll and Bute,PA20 9DG,55.83693134,-5.05235143,S02001382,S01007350
Bute Community Media Limited,SC033825,Argyll and Bute,PA20 9HA,55.83614429,-5.05291271,S02001382,S01007350
Bute Advice Centre SCIO,SC051240,Argyll and Bute,PA20 9DG,55.83693134,-5.05235143,S02001382,S01007350
St Orans Parish Church Of Scotland: Connel,SC006738,Argyll and Bute,PA37 1PG,56.4536707,-5.37721675,S02001373,S01007301
Trustees Of Connel Hall,SC020507,Argyll and Bute,PA37 1PG,56.4536707,-5.37721675,S02001373,S01007301
Taynuilt Medical Practice Patient Participation Group,SC037629,Argyll and Bute,PA37 1PH,56.4543212,-5.3879736,S02001373,S01007301
1st Connel Rainbow Unit,SC038711,Argyll and Bute,PA37 1PE,56.45212646,-5.3804401,S02001373,S01007301
Kintyre Antiquarian & Natural History Society,SC006823,Argyll and Bute,PA28 6SN,55.4267415,-5.58020114,S02001380,S01007333
Scottish Community Drama Association Argyll & Kintyre District,SC021374,Argyll and Bute,PA28 6EP,55.4280635,-5.59244866,S02001380,S01007333
South Kintyre Senior Citizens Committee,SC028498,Argyll and Bute,PA28 6NW,55.43626489,-5.61984332,S02001380,S01007333
Laggan Opportunity and Amenity Fund,SC037331,Argyll and Bute,PA28 6TB,55.43105891,-5.60279402,S02001380,S01007333
Kintyre Seasports,SC047447,Argyll and Bute,PA28 6EP,55.4280635,-5.59244866,S02001380,S01007333
Campbeltown Community Windfarm Trust,SC050831,Argyll and Bute,PA28 6TB,55.43105891,-5.60279402,S02001380,S01007333
Kintyre Alcohol & Drugs Advisory Service,SC007606,Argyll and Bute,PA28 6EG,55.42580512,-5.60531914,S02001380,S01007336
Campbeltown Community Business Ltd,SC009499,Argyll and Bute,PA28 6DL,55.42756635,-5.60840502,S02001380,S01007336
Kintyre Recycling,SC037742,Argyll and Bute,PA28 6LR,55.42591339,-5.61048346,S02001380,S01007336
Kintyre Youth Cafe,SC040392,Argyll and Bute,PA28 6EG,55.42580512,-5.60531914,S02001380,S01007336
InspirAlba Ltd,SC040666,Argyll and Bute,PA28 6GE,55.42453174,-5.60642038,S02001380,S01007336
South Kintyre Young Carers Group,SC041686,Argyll and Bute,PA28 6EG,55.42580512,-5.60531914,S02001380,S01007336
Campbeltown Free Church of Scotland,SC046745,Argyll and Bute,PA28 6JB,55.42527662,-5.60555552,S02001380,S01007336
Youth Impact,SC048443,Argyll and Bute,PA28 6JD,55.42503846,-5.60600811,S02001380,S01007336
Glenbarr Community Development Association ,SC048909,Argyll and Bute,PA28 6GE,55.42453174,-5.60642038,S02001380,S01007336
Salen Community Assoc,SC007723,Argyll and Bute,PA65 6AY,56.46596518,-5.69876692,S02001370,S01007288
Mrs Elizabeth Henrietta Macquarrie Trust,SC015034,Argyll and Bute,PA64 6AP,56.43779291,-5.686175,S02001370,S01007288
St Columba Episcopal Church: Gruline,SC023295,Argyll and Bute,PA71 6HS,56.48248218,-5.97793508,S02001370,S01007288
Mull & Iona Community Enterprise Limited,SC026351,Argyll and Bute,PA65 6AY,56.46596518,-5.69876692,S02001370,S01007288
Mull Progressive Care Centre Trust,SC029423,Argyll and Bute,PA63 6AH,56.38176212,-5.71585787,S02001370,S01007288
Pennyghael Community Hall,SC031866,Argyll and Bute,PA70 6HD,56.32699172,-5.98914091,S02001370,S01007288
Sound Of Mull Radio,SC042726,Argyll and Bute,PA65 6BE,56.47845695,-5.71431409,S02001370,S01007288
Waterfall Fund,SC045361,Argyll and Bute,PA65 6AY,56.46596518,-5.69876692,S02001370,S01007288
Craignure Recreational Activity Facility Team (SCIO),SC049564,Argyll and Bute,PA65 6BA,56.49752122,-5.78855313,S02001370,S01007288
Helensburgh Lions Club Charity Trust Fund,SC008316,Argyll and Bute,G84 7JJ,55.99507084,-4.70924501,S02001391,S01007402
Royal Scottish Country Dance Society Helensburgh & District Branch,SC024747,Argyll and Bute,G84 7JR,55.99602532,-4.70671359,S02001391,S01007402
Argyll Bird Club,SC008782,Argyll and Bute,PA32 8XN,56.15492784,-5.1839274,S02001375,S01007312
Argyll And Bute Concert Tours,SC021417,Argyll and Bute,PA32 8XN,56.15492784,-5.1839274,S02001375,S01007312
Mid Argyll Transport Volunteers,SC026106,Argyll and Bute,PA32 8YN,56.11818555,-5.25188769,S02001375,S01007312
Royal Scottish Country Dance Society - Mid Argyll Branch,SC027166,Argyll and Bute,PA31 8SB,56.06554098,-5.3359828,S02001375,S01007312
Minard Community Trust,SC028828,Argyll and Bute,PA32 8YE,56.11626068,-5.25465382,S02001375,S01007312
Friends Of Crarae,SC033244,Argyll and Bute,PA32 8YB,56.11461197,-5.25478804,S02001375,S01007312
Mid-Argyll Community Dance Group,SC036659,Argyll and Bute,PA31 8SB,56.06554098,-5.3359828,S02001375,S01007312
Furnace Community SCIO,SC048171,Argyll and Bute,PA32 8XN,56.15492784,-5.1839274,S02001375,S01007312
The Lochgair Association (SCIO),SC049176,Argyll and Bute,PA31 8SD,56.06173523,-5.33608767,S02001375,S01007312
Argyll Bird Club SCIO,SC050823,Argyll and Bute,PA32 8XN,56.15492784,-5.1839274,S02001375,S01007312
Dunoon & Cowal Heritage Trust,SC008881,Argyll and Bute,PA23 7HH,55.94735239,-4.92411893,S02001386,S01007370
Crossroads Caring for Carers (Cowal & Bute) SCIO,SC012956,Argyll and Bute,PA23 7HG,55.94804013,-4.92468344,S02001386,S01007370
East Cowal After School Care Project,SC020053,Argyll and Bute,PA23 7DR,55.94724011,-4.92733037,S02001386,S01007370
Cowal Hospice Trust,SC021169,Argyll and Bute,PA23 7NA,55.94981126,-4.9265633,S02001386,S01007370
Benmore And Kilmun Community Development Trust,SC034884,Argyll and Bute,PA23 7DJ,55.94827717,-4.92567854,S02001386,S01007370
Dunoon Radio Limited,SC039927,Argyll and Bute,PA23 7HA,55.95069739,-4.92747931,S02001386,S01007370
Dunoon Burgh Hall Trust,SC041392,Argyll and Bute,PA23 7DD,55.94995719,-4.92723116,S02001386,S01007370
The Argyll Mausoleum Limited,SC041413,Argyll and Bute,PA23 7DJ,55.94827717,-4.92567854,S02001386,S01007370
Daisy's Den Caring for Animals SCIO,SC045825,Argyll and Bute,PA23 7NA,55.94981126,-4.9265633,S02001386,S01007370
24th Argyll Scout Group Dunoon,SC046461,Argyll and Bute,PA23 7HR,55.94645094,-4.9261174,S02001386,S01007370
Inspired by Autism,SC047355,Argyll and Bute,PA23 7AE,55.94886383,-4.92935937,S02001386,S01007370
Cowal Highland Gathering,SC047875,Argyll and Bute,PA23 7DT,55.94730163,-4.92776754,S02001386,S01007370
Dunoon Community Development Trust,SC051050,Argyll and Bute,PA23 7DS,55.94762672,-4.92732752,S02001386,S01007370
Fyne Homes Limited,SC009152,Argyll and Bute,PA20 0AP,55.83785934,-5.05660966,S02001382,S01007346
Bute Museum Endowment Fund 1987,SC009667,Argyll and Bute,PA20 0EP,55.83592524,-5.05449296,S02001382,S01007346
Ardbeg Baptist Church,SC012573,Argyll and Bute,PA20 0DD,55.83663293,-5.05640153,S02001382,S01007346
Fyne Futures,SC036392,Argyll and Bute,PA20 0AP,55.83785934,-5.05660966,S02001382,S01007346
Radio Bute,SC043947,Argyll and Bute,PA20 0BZ,55.83723079,-5.05585741,S02001382,S01007346
For Bute,SC044153,Argyll and Bute,PA20 0AP,55.83785934,-5.05660966,S02001382,S01007346
Rothesay Pavilion,SC044932,Argyll and Bute,PA20 9AS,55.83670834,-5.05409114,S02001382,S01007346
Bute Island Alliance SCIO ,SC046927,Argyll and Bute,PA20 9AS,55.83670834,-5.05409114,S02001382,S01007346
The Lade Centre,SC048255,Argyll and Bute,PA20 0DJ,55.83591169,-5.05720752,S02001382,S01007346
Dunoon Congregation Of Jehovahs Witnesses,SC009547,Argyll and Bute,PA23 7UA,55.87316002,-4.97715154,S02001383,S01007353
Innellan Public Hall Trustees,SC019946,Argyll and Bute,PA23 7SE,55.89618078,-4.9559419,S02001383,S01007353
Cowal Music Club,SC020785,Argyll and Bute,PA23 7SE,55.89618078,-4.9559419,S02001383,S01007353
Cowal Choral Club,SC023105,Argyll and Bute,PA23 7SE,55.89618078,-4.9559419,S02001383,S01007353
Innellan Village Hall SCIO,SC045136,Argyll and Bute,PA23 7SE,55.89618078,-4.9559419,S02001383,S01007353
Argyll Nordic Walkers (ANWa) SCIO,SC046235,Argyll and Bute,PA23 7UP,55.86814486,-4.97934144,S02001383,S01007353
Mount Stuart Trust,SC009584,Argyll and Bute,PA20 9LR,55.79171627,-5.01876586,S02001381,S01007343
Bute Agricultural Society,SC015371,Argyll and Bute,PA20 9NR,55.76127982,-5.03107983,S02001381,S01007343
Bute Arts Society,SC020555,Argyll and Bute,PA20 9EU,55.82560821,-5.02310129,S02001381,S01007343
Friends Of Rothesay Castle,SC022767,Argyll and Bute,PA20 9NX,55.79489405,-5.04589994,S02001381,S01007343
St Pauls Scottish Episcopal Church: Isle Of Bute,SC023178,Argyll and Bute,PA20 0PQ,55.8585936,-5.07195286,S02001381,S01007343
Bute Museum and Natural History Society,SC047445,Argyll and Bute,PA20 9EU,55.82560821,-5.02310129,S02001381,S01007343
Rhu and Shandon Parish Church of Scotland,SC010086,Argyll and Bute,G84 8LW,56.02073439,-4.77183629,S02001388,S01007382
Royal Northern and Clyde Yacht Club Charitable Trust,SC034294,Argyll and Bute,G84 8NG,56.01767805,-4.78341236,S02001388,S01007382
Helensburgh & Lomond Autism,SC045096,Argyll and Bute,G84 8JG,56.02174986,-4.77584122,S02001388,S01007382
Helensburgh & District Men's Shed,SC045574,Argyll and Bute,G84 8LW,56.02073439,-4.77183629,S02001388,S01007382
Rhu & Shandon Community Centre ,SC045787,Argyll and Bute,G84 8NH,56.02193044,-4.78497037,S02001388,S01007382
Kames & District Recreation Club,SC010144,Argyll and Bute,PA21 2EB,55.91354396,-5.22079332,S02001383,S01007351
Kyles Parish Church (Church of Scotland),SC014928,Argyll and Bute,PA21 2AB,55.89182311,-5.24578905,S02001383,S01007351
Kilfinan Community Forest Company,SC038908,Argyll and Bute,PA21 2BD,55.90573712,-5.23839013,S02001383,S01007351
Tighnabruaich District Development Trust,SC044488,Argyll and Bute,PA21 2EB,55.91354396,-5.22079332,S02001383,S01007351
eXp- Experiencing Faith in Cowal,SC046355,Argyll and Bute,PA21 2AD,55.8914086,-5.24309872,S02001383,S01007351
Friends of Glenan Wood,SC047803,Argyll and Bute,PA21 2DA,55.87157384,-5.30631573,S02001383,S01007351
Clyde Cottage Day Nursery,SC010470,Argyll and Bute,PA23 8DB,55.95352221,-4.92625069,S02001386,S01007366
Ardrishaig Parish Church (Church of Scotland),SC010713,Argyll and Bute,PA30 8HT,56.01982105,-5.45167281,S02001376,S01007318
1st Lochgilphead Guides,SC031980,Argyll and Bute,PA30 8HH,56.02244968,-5.45059119,S02001376,S01007318
Port Ellen Mother & Toddler Group,SC010934,Argyll and Bute,PA42 7BP,55.62899078,-6.18168466,S02001378,S01007328
Mactaggart Community Cyber Café,SC028306,Argyll and Bute,PA42 7BJ,55.62979094,-6.18301001,S02001378,S01007328
Islay Community Access Group,SC037772,Argyll and Bute,PA42 7BD,55.62960668,-6.18629698,S02001378,S01007328
South Islay Development,SC042384,Argyll and Bute,PA42 7BY,55.63303841,-6.19167161,S02001378,S01007328
Port Ellen Primary School parent Council,SC051199,Argyll and Bute,PA42 7BY,55.63303841,-6.19167161,S02001378,S01007328
Oban Congregational Church,SC011117,Argyll and Bute,PA34 4LZ,56.40791031,-5.48694431,S02001371,S01007289
Comann Eachdraidh Lios Mor,SC023503,Argyll and Bute,PA34 4LU,56.41006148,-5.48302214,S02001371,S01007289
Royal Scottish Country Dance Society Oban and Lorn Branch,SC025326,Argyll and Bute,PA34 4LB,56.40732269,-5.48642025,S02001371,S01007289
Lorn Drama Festival,SC025659,Argyll and Bute,PA34 4PP,56.4047116,-5.47727932,S02001371,S01007289
MacDougall Of Dunollie Preservation Trust,SC028091,Argyll and Bute,PA34 4LU,56.41006148,-5.48302214,S02001371,S01007289
Comann Nam Parant (An T-Oban Agus Latharna),SC029924,Argyll and Bute,PA34 4ND,56.40843086,-5.47898108,S02001371,S01007289
OBAN & DISTRICT ACCESS PANEL,SC030304,Argyll and Bute,PA34 4LU,56.41006148,-5.48302214,S02001371,S01007289
3rd Oban Guide Unit,SC034718,Argyll and Bute,PA34 4PD,56.40876331,-5.48762242,S02001371,S01007289
1st Oban Senior Section Guide Unit,SC038462,Argyll and Bute,PA34 4PD,56.40876331,-5.48762242,S02001371,S01007289
1st Oban Brownie Unit,SC038706,Argyll and Bute,PA34 4PG,56.40662423,-5.48823732,S02001371,S01007289
The Isle of Kerrera Development Trust,SC040372,Argyll and Bute,PA34 4SX,56.40070345,-5.52873089,S02001371,S01007289
Taynuilt Medical Practice Charitable Trust,SC040670,Argyll and Bute,PA34 4PP,56.4047116,-5.47727932,S02001371,S01007289
Oban and Ganavan Heritage (SCIO),SC051180,Argyll and Bute,PA34 4LS,56.4108524,-5.48079161,S02001371,S01007289
Oban High School Parent Council,SC011256,Argyll and Bute,PA34 4GZ,56.39998175,-5.47923085,S02001371,S01007290
Oban Lifesaving Club,SC021678,Argyll and Bute,PA34 4GD,56.39952219,-5.48502541,S02001371,S01007290
School's Out Oban,SC026997,Argyll and Bute,PA34 4BF,56.39854972,-5.48252084,S02001371,S01007290
Nadair Trust,SC030096,Argyll and Bute,PA34 4GF,56.39950236,-5.48636924,S02001371,S01007290
Family Mediation Argyll & Bute,SC032952,Argyll and Bute,PA34 4RY,56.40230636,-5.476168,S02001371,S01007290
The Ryan MacPhail Memorial Fund,SC037505,Argyll and Bute,PA34 4PJ,56.39808209,-5.48795774,S02001371,S01007290
Roseneath Anvil Trust,SC011432,Argyll and Bute,G84 0EJ,56.08048624,-4.83764382,S02001387,S01007378
Gibson Community Centre Garelochhead,SC020873,Argyll and Bute,G84 0EG,56.07630881,-4.82775734,S02001387,S01007378
Helensburgh Amateur Athletic Club,SC048176,Argyll and Bute,G84 0DU,56.08160258,-4.8273899,S02001387,S01007378
Campbeltown: Lorne and Lowland Church of Scotland,SC011686,Argyll and Bute,PA28 6SW,55.42088316,-5.60147119,S02001380,S01007339
Campbeltown Unit (No 480) of the Sea Cadet Corps,SC012819,Argyll and Bute,PA28 6SW,55.42088316,-5.60147119,S02001380,S01007339
Kintyre Amenity Trust,SC022113,Argyll and Bute,PA28 6SW,55.42088316,-5.60147119,S02001380,S01007339
Kintyre Link Club,SC028913,Argyll and Bute,PA28 6AT,55.42211207,-5.60553558,S02001380,S01007339
Campbeltown And District Juvenile Football Association,SC033705,Argyll and Bute,PA28 6SW,55.42088316,-5.60147119,S02001380,S01007339
Girlguiding Kintyre,SC039305,Argyll and Bute,PA28 6JP,55.41781755,-5.59809354,S02001380,S01007339
5th Campbeltown Guide Unit,SC039395,Argyll and Bute,PA28 6JP,55.41781755,-5.59809354,S02001380,S01007339
Kintyre Environmental Group,SC041295,Argyll and Bute,PA28 6AZ,55.42224475,-5.60347662,S02001380,S01007339
South Kintyre Development Trust,SC042018,Argyll and Bute,PA28 6AB,55.42365976,-5.60580326,S02001380,S01007339
Campbeltown Community  Church (CCC),SC043322,Argyll and Bute,PA28 6SW,55.42088316,-5.60147119,S02001380,S01007339
1st Campbeltown Rainbow Unit,SC044317,Argyll and Bute,PA28 6JP,55.41781755,-5.59809354,S02001380,S01007339
5th Campbeltown Brownie Unit,SC044318,Argyll and Bute,PA28 6JP,55.41781755,-5.59809354,S02001380,S01007339
1st Campbeltown Brownie Unit,SC044321,Argyll and Bute,PA28 6JP,55.41781755,-5.59809354,S02001380,S01007339
The Church of Scotland - Helensburgh Parish Church,SC012053,Argyll and Bute,G84 8UP,56.00564041,-4.73451422,S02001390,S01007395
The Scottish Submarine Trust,SC045355,Argyll and Bute,G84 8TG,56.00456249,-4.73326695,S02001390,S01007395
The Tower Digital Arts Centre,SC045568,Argyll and Bute,G84 8TG,56.00456249,-4.73326695,S02001390,S01007395
Bethesda Christian Fellowship,SC049603,Argyll and Bute,G84 8UJ,56.00496813,-4.73483568,S02001390,S01007395
Grey Matters - Active Ageing,SC049789,Argyll and Bute,G84 8BN,56.00461673,-4.73851658,S02001390,S01007395
Helensburgh Event Cycle Responders,SC050916,Argyll and Bute,G84 8EB,56.00563744,-4.7374819,S02001390,S01007395
Bunessan Community Association,SC012499,Argyll and Bute,PA67 6DG,56.31829508,-6.23398195,S02001370,S01007287
Fionnphort Village Hall Fund,SC013193,Argyll and Bute,PA66 6BL,56.32468277,-6.36329467,S02001370,S01007287
Kilfinichen & Kilvickeon & the Ross of Mull Church Of Scotland,SC013473,Argyll and Bute,PA67 6DH,56.33626086,-6.22119226,S02001370,S01007287
Kilfinichen & Kilvickeon Agricultural Society (K/A Bunessan Show),SC029922,Argyll and Bute,PA67 6DU,56.3150253,-6.26527214,S02001370,S01007287
Iona Housing Partnership,SC034851,Argyll and Bute,PA76 6SJ,56.33110128,-6.39286316,S02001370,S01007287
Ross of Mull and Iona Community Transport Scheme,SC043302,Argyll and Bute,PA67 6DH,56.33626086,-6.22119226,S02001370,S01007287
Iona Primary School Parent Council,SC044927,Argyll and Bute,PA76 6SP,56.3269165,-6.40481444,S02001370,S01007287
The Iona Village Hall Community Trust,SC047362,Argyll and Bute,PA76 6SJ,56.33110128,-6.39286316,S02001370,S01007287
Iona Renewables,SC047510,Argyll and Bute,PA76 6SP,56.3269165,-6.40481444,S02001370,S01007287
Bendoran Water Activities Club,SC050119,Argyll and Bute,PA66 6BL,56.32468277,-6.36329467,S02001370,S01007287
Ross Of Mull Historical Centre (SCIO),SC030873,Argyll and Bute,PA67 6DG,56.31829508,-6.23398195,S02001370,S01007287
Lorn Agricultural Society,SC012833,Argyll and Bute,PA34 4JP,56.40135754,-5.46349992,S02001371,S01007292
A.B.C.D. Trust,SC029937,Argyll and Bute,PA34 4NL,56.40368501,-5.45999849,S02001371,S01007292
Soroba Community Enterprise Limited,SC037361,Argyll and Bute,PA34 4JR,56.40114416,-5.46695013,S02001371,S01007292
Donald Thomson Memorial Educational Trust,SC013598,Argyll and Bute,PA34 4RN,56.39926228,-5.47603615,S02001371,S01007291
Rockfield Primary School Parent Teachers Association,SC033780,Argyll and Bute,PA34 4SB,56.3989416,-5.47047851,S02001371,S01007291
5th Oban Brownies,SC034346,Argyll and Bute,PA34 4JL,56.40322848,-5.46957195,S02001371,S01007291
Argyll & Bute Youth Forum,SC035676,Argyll and Bute,PA34 4SB,56.3989416,-5.47047851,S02001371,S01007291
Helensburgh United Reformed Church,SC014017,Argyll and Bute,G84 9DA,56.01204981,-4.7235271,S02001389,S01007392
Helensburgh Heritage Trust,SC024603,Argyll and Bute,G84 7SQ,56.00936036,-4.72117178,S02001389,S01007392
Helensburgh Seafront Development Project ,SC046191,Argyll and Bute,G84 9BU,56.01262844,-4.72459475,S02001389,S01007392
Baird TV Centenary,SC051167,Argyll and Bute,G84 7SQ,56.00936036,-4.72117178,S02001389,S01007392
Inveraray Nursing Fund,SC014341,Argyll and Bute,PA32 8UG,56.22954384,-5.07305173,S02001375,S01007311
"West Lochfyneside: Cumlodden, Inveraray & Lochgair, Church of Scotland",SC016665,Argyll and Bute,PA32 8UD,56.22979953,-5.07397595,S02001375,S01007311
Argyll & Bute Third Sector Interface,SC029947,Argyll and Bute,PA32 8UY,56.23134893,-5.07276062,S02001375,S01007311
Inveraray & District Pipe Band,SC040981,Argyll and Bute,PA32 8UG,56.22954384,-5.07305173,S02001375,S01007311
Springbank Evangelical Church,SC014646,Argyll and Bute,PA28 6DY,55.4289008,-5.60218612,S02001380,S01007334
West Coast Trust,SC017657,Argyll and Bute,PA28 6DN,55.4288041,-5.60668382,S02001380,S01007334
Lochgilphead Church Of Scotland,SC016311,Argyll and Bute,PA31 8TR,56.04322557,-5.43714014,S02001376,S01007315
Mid Argyll Community Enterprises Ltd,SC020084,Argyll and Bute,PA31 8NG,56.04437478,-5.44170787,S02001376,S01007315
Argyll And Bute Citizens Advice Bureau,SC030477,Argyll and Bute,PA31 8NE,56.03843547,-5.43255424,S02001376,S01007315
Ardrishaig Brownie Unit,SC031101,Argyll and Bute,PA31 8TG,56.04123518,-5.43436104,S02001376,S01007315
Mid Argyll Music Festival,SC032232,Argyll and Bute,PA31 8TR,56.04322557,-5.43714014,S02001376,S01007315
Colenso Group,SC032880,Argyll and Bute,PA31 8AB,56.04602302,-5.43967017,S02001376,S01007315
Mid Argyll Pipe Band,SC035627,Argyll and Bute,PA31 8TR,56.04322557,-5.43714014,S02001376,S01007315
Lochgilphead Rainbow Unit,SC036409,Argyll and Bute,PA31 8NN,56.04075454,-5.43934545,S02001376,S01007315
1st Lochgilphead Brownies,SC036911,Argyll and Bute,PA31 8NN,56.04075454,-5.43934545,S02001376,S01007315
Positive Action Argyll (SCIO),SC043378,Argyll and Bute,PA31 8NL,56.03914611,-5.43995706,S02001376,S01007315
Cathedral Church Of St John The Divine,SC016664,Argyll and Bute,PA34 4SE,56.36974707,-5.48432918,S02001373,S01007307
Kilmore & Kilbride Village Hall Committee,SC020196,Argyll and Bute,PA34 4XX,56.36577097,-5.41241947,S02001373,S01007307
Oban Associated Presbyterian Church,SC022827,Argyll and Bute,PA34 4QB,56.41356564,-5.43932589,S02001373,S01007307
New Start Oban,SC041339,Argyll and Bute,PA34 4QB,56.41356564,-5.43932589,S02001373,S01007307
Friends of Loch Etive,SC043986,Argyll and Bute,PA35 1HR,56.41650302,-5.19455856,S02001373,S01007307
Friends of Kilbride (SCIO),SC046175,Argyll and Bute,PA34 4SE,56.36974707,-5.48432918,S02001373,S01007307
Inverawe Community Woodland,SC049985,Argyll and Bute,PA35 1HU,56.43319079,-5.2083553,S02001373,S01007307
Kilbrandon & Kilchattan Parish Church (Church of Scotland),SC017005,Argyll and Bute,PA34 4UA,56.24900796,-5.64959474,S02001374,S01007310
Oban Baptist Church,SC021242,Argyll and Bute,PA34 4TF,56.2917395,-5.60959765,S02001374,S01007310
Eilean Eisdeal,SC027102,Argyll and Bute,PA34 4TB,56.29159883,-5.65571104,S02001374,S01007310
Luing Social Committee,SC030066,Argyll and Bute,PA34 4RB,56.26924838,-5.62848236,S02001374,S01007310
Cullipool Village Hall Trust,SC030975,Argyll and Bute,PA34 4UB,56.25632921,-5.65134231,S02001374,S01007310
Seil Island Community Hall Charity,SC032419,Argyll and Bute,PA34 4TJ,56.31290951,-5.58717022,S02001374,S01007310
Isle Of Luing Community Trust,SC036441,Argyll and Bute,PA34 4TX,56.25042735,-5.6538968,S02001374,S01007310
North Argyll Volunteer Car Scheme,SC037509,Argyll and Bute,PA34 4RB,56.26924838,-5.62848236,S02001374,S01007310
Oban & Lorn Sports Festival,SC039834,Argyll and Bute,PA34 4TG,56.29008245,-5.61430754,S02001374,S01007310
Toberonochy Village Hall Trust,SC047061,Argyll and Bute,PA34 4TU,56.2639632,-5.63179432,S02001374,S01007310
Innellan and Toward Family Centre (SCIO),SC017041,Argyll and Bute,PA23 7SJ,55.89401832,-4.9587689,S02001383,S01007354
Toward & Loch Striven Memorial Hall,SC028438,Argyll and Bute,PA23 7SP,55.88797736,-4.96400312,S02001383,S01007354
South Cowal Community Development Company,SC044716,Argyll and Bute,PA23 7TH,55.89522606,-4.95377349,S02001383,S01007354
Toward Seasports Club (SCIO),SC045012,Argyll and Bute,PA23 7SR,55.88492661,-4.96861657,S02001383,S01007354
Kirn Gala,SC046943,Argyll and Bute,PA23 7TL,55.89985005,-4.95100517,S02001383,S01007354
Cowal Combined Services Club (SCIO),SC050654,Argyll and Bute,PA23 7SA,55.9057734,-4.95252751,S02001383,S01007354
1st Sea Scouts,SC018752,Argyll and Bute,G84 7ER,56.00599735,-4.72407959,S02001390,S01007397
BASIC (SCIO),SC024081,Argyll and Bute,G84 7QQ,56.00501793,-4.73137405,S02001390,S01007397
Hermitage Primary School Fund,SC024245,Argyll and Bute,G84 7EW,56.0058281,-4.7284794,S02001390,S01007397
Helensburgh & Lomond Games,SC039407,Argyll and Bute,G84 7EN,56.0051867,-4.724969,S02001390,S01007397
The Friends of Hermitage Park Association,SC042935,Argyll and Bute,G84 7EP,56.00612699,-4.72797107,S02001390,S01007397
Helensburgh and Lomond Highland Games (SCIO),SC049873,Argyll and Bute,G84 7EN,56.0051867,-4.724969,S02001390,S01007397
Helensburgh Baptist Church SCIO,SC049994,Argyll and Bute,G84 7QQ,56.00501793,-4.73137405,S02001390,S01007397
Lorn Toy Library,SC019837,Argyll and Bute,PA34 4DN,56.40973996,-5.46820294,S02001371,S01007295
Multiple Sclerosis Centre Mid-Argyll Limited,SC020476,Argyll and Bute,PA31 8JU,56.03668806,-5.43008638,S02001376,S01007316
Mid Argyll Youth Development Services,SC022931,Argyll and Bute,PA31 8JS,56.03692773,-5.43148879,S02001376,S01007316
Mid Argyll Young Carers Support Group,SC035784,Argyll and Bute,PA31 8QX,56.03625943,-5.42771972,S02001376,S01007316
Mid Argyll and Kintyre People and Agencies Coming Together (PACT),SC036969,Argyll and Bute,PA31 8SY,56.03309983,-5.4275357,S02001376,S01007316
Fyne Families,SC037443,Argyll and Bute,PA31 8QX,56.03625943,-5.42771972,S02001376,S01007316
1st Ardishaig Guide Unit,SC047904,Argyll and Bute,PA31 8JP,56.03402669,-5.43009093,S02001376,S01007316
Heads Up Mid Argyll,SC048779,Argyll and Bute,PA31 8JS,56.03692773,-5.43148879,S02001376,S01007316
Enable Helensburgh Branch,SC021042,Argyll and Bute,G84 7AW,56.00067613,-4.71919757,S02001391,S01007400
Gary Andrews Remember A Life,SC049610,Argyll and Bute,G84 7RW,56.00125708,-4.71853261,S02001391,S01007400
Argyll District Scout Council,SC023153,Argyll and Bute,PA23 8GZ,55.96304159,-4.93116843,S02001385,S01007365
26th Argyll (Sandbank) Scout Group,SC042913,Argyll and Bute,PA23 8GZ,55.96304159,-4.93116843,S02001385,S01007365
The Asten Jones Charitable Trust,SC047956,Argyll and Bute,PA23 8HU,55.96065467,-4.92948151,S02001385,S01007365
Barbara's Wildlife Rescue,SC048165,Argyll and Bute,PA23 8HT,55.96303267,-4.92927669,S02001385,S01007365
Dervaig Community Hall,SC023487,Argyll and Bute,PA75 6QW,56.58527236,-6.17949409,S02001370,S01007285
Craignure Village Hall,SC023550,Argyll and Bute,PA72 6JS,56.55357342,-5.97830254,S02001370,S01007285
Mull And Iona Community Trust,SC025995,Argyll and Bute,PA75 6QQ,56.5830676,-6.27070825,S02001370,S01007285
North West Mull Community Woodland Company Ltd,SC037336,Argyll and Bute,PA75 6QY,56.59990937,-6.27890523,S02001370,S01007285
1st Tobermory Guide Unit,SC038999,Argyll and Bute,PA75 6PY,56.61929402,-6.08184911,S02001370,S01007285
1st Tobermory Rainbow Unit,SC039386,Argyll and Bute,PA75 6PY,56.61929402,-6.08184911,S02001370,S01007285
1st Tobermory Brownies,SC039398,Argyll and Bute,PA75 6PY,56.61929402,-6.08184911,S02001370,S01007285
1st Ross Of Mull Brownies,SC042763,Argyll and Bute,PA75 6PY,56.61929402,-6.08184911,S02001370,S01007285
Isle of Mull RDA,SC045772,Argyll and Bute,PA75 6PY,56.61929402,-6.08184911,S02001370,S01007285
Salen Primary School Parent Council,SC050054,Argyll and Bute,PA72 6JS,56.55357342,-5.97830254,S02001370,S01007285
Argyll & Bute Museums and Heritage Forum (SCIO),SC050209,Argyll and Bute,PA73 6LY,56.48348755,-6.12927105,S02001370,S01007285
Dunoon & Cowal Heritage Society,SC023567,Argyll and Bute,PA23 8NT,55.96245657,-4.91908886,S02001385,S01007362
Envirokirn Action Group,SC033800,Argyll and Bute,PA23 8DU,55.95967604,-4.91655584,S02001385,S01007362
Cowal Community Sports Project,SC034288,Argyll and Bute,PA23 8LS,55.96186507,-4.91559883,S02001385,S01007362
Cowal Pipe Band,SC040338,Argyll and Bute,PA23 8HD,55.9595236,-4.91236199,S02001385,S01007362
Dunoon Link Club (SCIO),SC023754,Argyll and Bute,PA23 7AR,55.95020348,-4.93199188,S02001386,S01007369
Cowal Elderly Befrienders SCIO,SC024686,Argyll and Bute,PA23 7BN,55.95111063,-4.93089096,S02001386,S01007369
Gaidhlig san Dachaigh (Dun Omhainn),SC036962,Argyll and Bute,PA23 7BB,55.95048505,-4.9352654,S02001386,S01007369
Sandbank Village Hall Trustees,SC023807,Argyll and Bute,PA23 8PJ,55.9808101,-4.94824221,S02001385,S01007359
Cowal Community Care Forum,SC032126,Argyll and Bute,PA23 8FE,55.98210224,-4.94758701,S02001385,S01007359
Sandbank Community Development Trust,SC033090,Argyll and Bute,PA23 8PD,55.98759104,-4.9582361,S02001385,S01007359
1st Cowal Boys' Brigade & Girls' Association,SC050657,Argyll and Bute,PA23 8PY,55.97832089,-4.94332312,S02001385,S01007359
Scenic Sandbank,SC051168,Argyll and Bute,PA23 8PD,55.98759104,-4.9582361,S02001385,S01007359
Cairndow Village Hall,SC023955,Argyll and Bute,G83 7AW,56.21027299,-4.74573485,S02001384,S01007358
Arrochar & Tarbet Community Development Trust,SC031567,Argyll and Bute,G83 7DB,56.20409851,-4.71765425,S02001384,S01007358
Loch Long Jetty Association,SC047932,Argyll and Bute,G83 7AB,56.19635676,-4.74503012,S02001384,S01007358
Parklands School Parent Staff Association,SC024796,Argyll and Bute,G82 5QF,55.96290941,-4.65145453,S02001392,S01007405
Achievement Bute,SC027607,Argyll and Bute,PA20 0LQ,55.86076482,-5.07428227,S02001381,S01007340
Bute Community Land Company,SC041414,Argyll and Bute,PA20 0LH,55.86050216,-5.07795392,S02001381,S01007340
ButeFest SCIO,SC049961,Argyll and Bute,PA20 0QQ,55.85656506,-5.06894771,S02001381,S01007340
Helensburgh Area Christian Youth Project,SC027973,Argyll and Bute,G84 9AW,56.01624622,-4.73292128,S02001389,S01007387
Fun First,SC037292,Argyll and Bute,G84 9LJ,56.01217867,-4.73273013,S02001389,S01007387
Bute Jazz Concerts Ltd,SC028601,Argyll and Bute,PA20 0PG,55.85458971,-5.06633064,S02001381,S01007341
Runa Ringan,SC048914,Argyll and Bute,PA20 0PG,55.85458971,-5.06633064,S02001381,S01007341
Glasgow Bute Benevolent Society SCIO ,SC048945,Argyll and Bute,PA20 0NL,55.85299526,-5.06321645,S02001381,S01007341
Woodside Group RDA (SCIO),SC028680,Argyll and Bute,PA23 8QH,55.97924191,-4.93637079,S02001385,S01007360
Oban Hospice Limited,SC029299,Argyll and Bute,PA34 5NA,56.41273087,-5.47087564,S02001372,S01007297
Oban War & Peace Museum,SC029804,Argyll and Bute,PA34 5PX,56.41585885,-5.47378834,S02001372,S01007297
Argyll And Bute Care And Repair,SC033875,Argyll and Bute,PA34 5NJ,56.41504301,-5.47306514,S02001372,S01007297
Oban Phoenix Cinema,SC042407,Argyll and Bute,PA34 5NX,56.41704776,-5.47306961,S02001372,S01007297
Oban Communities Trust,SC045503,Argyll and Bute,PA34 5NA,56.41273087,-5.47087564,S02001372,S01007297
Oban Charitable Trust SCIO,SC050636,Argyll and Bute,PA34 5DU,56.41746921,-5.46861507,S02001372,S01007297
Friends Of Oban Hospice,SC029457,Argyll and Bute,PA34 5AJ,56.42096755,-5.47723933,S02001372,S01007300
Ballochgoy Family Education Project,SC029736,Argyll and Bute,PA20 0JT,55.83732614,-5.06286188,S02001382,S01007345
Bute Kidney Patients Support Group,SC034769,Argyll and Bute,PA20 0DW,55.83511679,-5.05880638,S02001382,S01007345
Garelochhead Senior Citizens Club,SC030036,Argyll and Bute,G84 0RY,56.00937411,-4.79842602,S02001387,S01007376
Argyll Peninsula Pipe Band,SC034003,Argyll and Bute,G84 0RE,56.00867996,-4.80049363,S02001387,S01007376
Comann Nam Parant (Comphail),SC030786,Argyll and Bute,PA23 7JH,55.94650396,-4.93597318,S02001386,S01007372
1st Dunoon Brownie Unit,SC033847,Argyll and Bute,PA23 7LH,55.94373591,-4.9363242,S02001386,S01007372
Cowal Red Squirrel Group,SC038192,Argyll and Bute,PA23 7QJ,55.93804342,-4.93566895,S02001386,S01007372
2nd Dunoon Brownie Unit,SC038912,Argyll and Bute,PA23 7LH,55.94373591,-4.9363242,S02001386,S01007372
Coisir Og Dhailriada (Choir Of Dalriada),SC031018,Argyll and Bute,PA31 8TF,56.03625759,-5.4229339,S02001376,S01007317
Cove Burgh Hall,SC031296,Argyll and Bute,G84 0NB,55.99428198,-4.85252265,S02001387,S01007375
Stay And Play Toddlers,SC033152,Argyll and Bute,G84 0LX,55.98872307,-4.84957927,S02001387,S01007375
Lodge St Modan Rosneath No 1015 Benevolent Fund,SC036646,Argyll and Bute,G84 0NE,56.01639789,-4.86439237,S02001387,S01007375
Helensburgh Tree Conservation Trust,SC032759,Argyll and Bute,G84 8QA,56.00691982,-4.7565678,S02001388,S01007385
Dunbeg Development Group,SC033038,Argyll and Bute,PA37 1QB,56.44648501,-5.43847167,S02001373,S01007302
Argyll Youth Theatre Group,SC034150,Argyll and Bute,PA37 1QQ,56.44563172,-5.44491978,S02001373,S01007302
Oban and Lorn Angling Club,SC047428,Argyll and Bute,PA37 1QB,56.44648501,-5.43847167,S02001373,S01007302
Rhu Primary School Association,SC033374,Argyll and Bute,G84 8NP,56.03773177,-4.80126629,S02001388,S01007381
Friends of Duchess Wood,SC039527,Argyll and Bute,G84 8QZ,56.03145825,-4.79371583,S02001388,S01007381
Helensburgh & Lomond Carers (SCIO),SC033382,Argyll and Bute,G84 7PW,56.0032273,-4.72699661,S02001390,S01007396
Visiting Friends SCIO,SC048362,Argyll and Bute,G84 7PJ,56.00229794,-4.72837482,S02001390,S01007396
Helensburgh Community Hall Ltd,SC050459,Argyll and Bute,G84 7DQ,56.00265683,-4.72434167,S02001390,S01007396
Fisher Bequest for the Poor,SC050763,Argyll and Bute,G84 7PG,56.00210994,-4.72874655,S02001390,S01007396
Helensburgh Community Centre Trust,SC035108,Argyll and Bute,G84 9PT,56.01282848,-4.74474607,S02001388,S01007386
Helensburgh Child Contact Centre,SC037546,Argyll and Bute,G84 9PY,56.01321651,-4.7475014,S02001388,S01007386
The John Dobbie Foundation,SC042464,Argyll and Bute,G84 9PF,56.0092156,-4.74593368,S02001388,S01007386
Helensburgh Community Woodlands Group,SC044648,Argyll and Bute,G84 9PY,56.01321651,-4.7475014,S02001388,S01007386
Helensburgh Scout and Guide Trust,SC048934,Argyll and Bute,G84 9PY,56.01321651,-4.7475014,S02001388,S01007386
Clann,SC035692,Argyll and Bute,PA23 8JL,55.9577458,-4.92176249,S02001385,S01007364
1st Helensburgh Scout Group,SC036850,Argyll and Bute,G84 9JB,56.01025204,-4.71701482,S02001389,S01007391
Helensburgh Winter Festival,SC046881,Argyll and Bute,G84 9SF,56.00937254,-4.71695304,S02001389,S01007391
Helensburgh & Lomond Community First Responders,SC049933,Argyll and Bute,G84 9EJ,56.01063659,-4.71343179,S02001389,S01007391
Barcaldine Community Association,SC037160,Argyll and Bute,PA37 1SG,56.52184427,-5.31713992,S02001373,S01007303
Bookends SCIO,SC048511,Argyll and Bute,PA37 1QP,56.49132702,-5.40299231,S02001373,S01007303
"The Victory Hall, Benderloch (SCIO)",SC049044,Argyll and Bute,PA37 1QS,56.50046414,-5.41367847,S02001373,S01007303
Tralee Community Ownership Project ,SC049146,Argyll and Bute,PA37 1ST,56.48994489,-5.40225091,S02001373,S01007303
37th Argyll (Ardchattan) Scout Group,SC051181,Argyll and Bute,PA37 1QP,56.49132702,-5.40299231,S02001373,S01007303
Oban and Lorn Lions Charitable Trust,SC038186,Argyll and Bute,PA34 5EA,56.41681181,-5.46544097,S02001372,S01007298
Oban Winter Festival,SC044782,Argyll and Bute,PA34 5JN,56.42169962,-5.46586973,S02001372,S01007298
Apple Tree Nursery Limited,SC040258,Argyll and Bute,PA20 0AY,55.84112324,-5.06236187,S02001382,S01007344
Isle of Bute Trust,SC045899,Argyll and Bute,PA20 0BG,55.83962299,-5.06304262,S02001382,S01007344
Meadows Under Fives,SC040440,Argyll and Bute,PA28 6LE,55.42141694,-5.60684759,S02001380,S01007337
Supporting the Homeless in Kintyre,SC041780,Argyll and Bute,PA28 6JJ,55.42401573,-5.60836541,S02001380,S01007337
Shopper-Aide Ltd,SC042272,Argyll and Bute,PA28 6ER,55.42538824,-5.60725747,S02001380,S01007337
Kintyre Amenity Trust SCIO,SC048847,Argyll and Bute,PA28 6JF,55.42359634,-5.60764728,S02001380,S01007337
Soroba Young Family Group Nursery,SC041375,Argyll and Bute,PA34 4YH,56.40448869,-5.46341169,S02001371,S01007293
1st Cowal Company Boys Brigade,SC041715,Argyll and Bute,PA23 7PT,55.95644746,-4.93515617,S02001386,S01007368
Baird of Bute Society,SC042490,Argyll and Bute,PA20 9HN,55.83328758,-5.0506601,S02001382,S01007349
Friends of Campbeltown Museum,SC042566,Argyll and Bute,PA28 6LU,55.42857991,-5.61548661,S02001380,S01007335
Kintyre Food Bank,SC045275,Argyll and Bute,PA28 6TP,55.42847999,-5.61187227,S02001380,S01007335
Argyll Community Housing Association,SC042713,Argyll and Bute,G84 7NL,56.00430797,-4.7118329,S02001391,S01007398
4th Helensburgh Scout Group,SC049601,Argyll and Bute,G84 8QL,56.01093341,-4.75555421,S02001388,S01007384
The Meeting Place (Dunoon),SC049769,Argyll and Bute,PA23 7JA,55.94626591,-4.9323829,S02001386,S01007371
Friends of Geilston,SC050608,Argyll and Bute,G82 5LY,55.96573486,-4.65214467,S02001392,S01007407
Rotary Club of Helensburgh Garelochside Charity SCIO,SC051142,Argyll and Bute,G84 8LE,56.0158022,-4.76491953,S02001388,S01007383
