Name,Charity Number,Local authority,Postcode,Latitude,Longitude,IntermediateZone2011Code,DataZone2011Code
Southend Community Hall Committee,SC000421,Na h-Eileanan Siar,HS8 5SY,57.18712573,-7.39635334,S02001687,S01009017
Urras Eachdraidh Uibhist a'Deas,SC016426,Na h-Eileanan Siar,HS8 5SS,57.16511661,-7.37221638,S02001687,S01009017
Lochboisdale Amenity Trust Limited,SC027920,Na h-Eileanan Siar,HS8 5TH,57.15415767,-7.31569634,S02001687,S01009017
"Martins Memorial Church of Scotland, Stornoway",SC000753,Na h-Eileanan Siar,HS1 2NB,58.20884721,-6.38595465,S02001693,S01009041
William Mackenzie Trust,SC001598,Na h-Eileanan Siar,HS1 2JF,58.20961401,-6.38405579,S02001693,S01009041
Stornoway Gaelic Choir,SC007060,Na h-Eileanan Siar,HS1 2DD,58.20948186,-6.38841852,S02001693,S01009041
Uig Parish Church Of Scotland,SC007879,Na h-Eileanan Siar,HS1 2RW,58.20502795,-6.37645338,S02001693,S01009041
An Treas Roinn Innse Gall or Third Sector Hebrides,SC015053,Na h-Eileanan Siar,HS1 2ND,58.20881157,-6.38463826,S02001693,S01009041
Counselling & Family Mediation - Western Isles,SC016055,Na h-Eileanan Siar,HS1 2XB,58.20879426,-6.38618665,S02001693,S01009041
Stornoway Trust,SC016206,Na h-Eileanan Siar,HS1 2DD,58.20948186,-6.38841852,S02001693,S01009041
Lewis Museum Trust,SC019875,Na h-Eileanan Siar,HS1 2NQ,58.21048396,-6.38203326,S02001693,S01009041
Lewis Pipe Band,SC022972,Na h-Eileanan Siar,HS1 2QT,58.207476,-6.38215616,S02001693,S01009041
Stornoway Historical Society,SC023424,Na h-Eileanan Siar,HS1 2DB,58.20823087,-6.38792313,S02001693,S01009041
Air Training Corps No 1731 Isle Of Lewis Squadron Non Public Sports & Welfare Funds,SC024736,Na h-Eileanan Siar,HS1 2LS,58.21078111,-6.3841147,S02001693,S01009041
Young Musicians Hebrides,SC026059,Na h-Eileanan Siar,HS1 2QT,58.207476,-6.38215616,S02001693,S01009041
Volunteer Centre Western Isles,SC027472,Na h-Eileanan Siar,HS1 2DG,58.21087828,-6.38860815,S02001693,S01009041
Royal British Legion Scotland Lewis Branch,SC029058,Na h-Eileanan Siar,HS1 2LS,58.21078111,-6.3841147,S02001693,S01009041
Stornoway Christian Bookshop,SC030274,Na h-Eileanan Siar,HS1 2DR,58.20952664,-6.38764025,S02001693,S01009041
"Western Isles Carers, Users And Supporters Network",SC030468,Na h-Eileanan Siar,HS1 2ND,58.20881157,-6.38463826,S02001693,S01009041
Advocacy Western Isles,SC034774,Na h-Eileanan Siar,HS1 2XB,58.20879426,-6.38618665,S02001693,S01009041
Western Isles Foyer,SC035440,Na h-Eileanan Siar,HS1 2DX,58.2132991,-6.38647056,S02001693,S01009041
Stornoway Baptist Church,SC036812,Na h-Eileanan Siar,HS1 2JW,58.21092772,-6.38534263,S02001693,S01009041
Lochside Arena,SC040150,Na h-Eileanan Siar,HS1 2JF,58.20961401,-6.38405579,S02001693,S01009041
Volunteering Hebrides,SC041459,Na h-Eileanan Siar,HS1 2ND,58.20881157,-6.38463826,S02001693,S01009041
Stornoway Bowling Club,SC046089,Na h-Eileanan Siar,HS1 2NQ,58.21048396,-6.38203326,S02001693,S01009041
Lewis and Harris Piping Society,SC046414,Na h-Eileanan Siar,HS1 2RE,58.20561286,-6.38063142,S02001693,S01009041
Western Isles Cancer Care Initiative,SC047153,Na h-Eileanan Siar,HS1 2DG,58.21087828,-6.38860815,S02001693,S01009041
Samaritans of the Western Isles SCIO ,SC047197,Na h-Eileanan Siar,HS1 2DG,58.21087828,-6.38860815,S02001693,S01009041
Friends of The Nicolson,SC047574,Na h-Eileanan Siar,HS1 2NQ,58.21048396,-6.38203326,S02001693,S01009041
Lewis and Harris Youth Pipe Band Supporters Association,SC048105,Na h-Eileanan Siar,HS1 2QT,58.207476,-6.38215616,S02001693,S01009041
Neuro Hebrides,SC049276,Na h-Eileanan Siar,HS1 2ND,58.20881157,-6.38463826,S02001693,S01009041
The Lewis Carnival,SC049650,Na h-Eileanan Siar,HS1 2QN,58.20813892,-6.38327732,S02001693,S01009041
Western Isles Motocross Club,SC050663,Na h-Eileanan Siar,HS1 2JW,58.21092772,-6.38534263,S02001693,S01009041
Harris Voluntary Service,SC000788,Na h-Eileanan Siar,HS3 3BG,57.90172111,-6.81387236,S02001689,S01009024
Scalpay Community Assoc,SC002217,Na h-Eileanan Siar,HS4 3XU,57.87211546,-6.69888878,S02001689,S01009024
Tarbert Church Of Scotland,SC004787,Na h-Eileanan Siar,HS3 3BW,57.89931467,-6.77117523,S02001689,S01009024
Harris Charity Shop,SC010161,Na h-Eileanan Siar,HS3 3AB,58.00220153,-6.75689477,S02001689,S01009024
Harris Mutual Improvement Association,SC011149,Na h-Eileanan Siar,HS3 3DG,57.8977808,-6.79869621,S02001689,S01009024
Lewis & Harris Youth Clubs Association,SC016425,Na h-Eileanan Siar,HS3 3AB,58.00220153,-6.75689477,S02001689,S01009024
Western Isles Community Care Fora,SC023918,Na h-Eileanan Siar,HS3 3BG,57.90172111,-6.81387236,S02001689,S01009024
Buna Sports & Activities,SC024890,Na h-Eileanan Siar,HS3 3AL,57.93324023,-6.84698693,S02001689,S01009024
Church of Scotland - Presbytery Of Uist,SC027334,Na h-Eileanan Siar,HS3 3BW,57.89931467,-6.77117523,S02001689,S01009024
Comann Eachdraidh Na Hearadh,SC027694,Na h-Eileanan Siar,HS3 3AJ,57.92104219,-6.84885615,S02001689,S01009024
Catherine M Macleod (Harris) Trust,SC029785,Na h-Eileanan Siar,HS3 3DL,57.89971914,-6.80285812,S02001689,S01009024
Urras Na Hearadh,SC030154,Na h-Eileanan Siar,HS3 3DG,57.8977808,-6.79869621,S02001689,S01009024
North Harris Trust,SC033413,Na h-Eileanan Siar,HS3 3DB,57.89855263,-6.79612982,S02001689,S01009024
Rionnagan Og,SC043331,Na h-Eileanan Siar,HS3 3BG,57.90172111,-6.81387236,S02001689,S01009024
North Harris Free Church,SC045814,Na h-Eileanan Siar,HS3 3DL,57.89971914,-6.80285812,S02001689,S01009024
Feis Eilean na Hearadh (FENH),SC047506,Na h-Eileanan Siar,HS3 3AJ,57.92104219,-6.84885615,S02001689,S01009024
Comunn Eachdraidh Scalpaigh,SC048899,Na h-Eileanan Siar,HS4 3YF,57.86818547,-6.69304128,S02001689,S01009024
Crossroads Care Harris,SC050188,Na h-Eileanan Siar,HS3 3BG,57.90172111,-6.81387236,S02001689,S01009024
Eilean Glas Trust,SC034477,Na h-Eileanan Siar,HS4 3YG,57.8596606,-6.67984617,S02001689,S01009024
Cross Ness Church Of Scotland,SC000991,Na h-Eileanan Siar,HS2 0SP,58.4681568,-6.31286181,S02001691,S01009032
Comunn Eachdraidh Nis,SC018004,Na h-Eileanan Siar,HS2 0SN,58.473349,-6.28409346,S02001691,S01009032
Port of Ness Harbour Limited,SC029619,Na h-Eileanan Siar,HS2 0TA,58.48076566,-6.26880694,S02001691,S01009032
North Lewis War Memorials Committee,SC030143,Na h-Eileanan Siar,HS2 0RS,58.42057428,-6.42952293,S02001691,S01009032
Urras Oighreachd Ghabhsainn,SC036903,Na h-Eileanan Siar,HS2 0SH,58.44136894,-6.39267466,S02001691,S01009032
Carthannas Nis,SC037828,Na h-Eileanan Siar,HS2 0SP,58.4681568,-6.31286181,S02001691,S01009032
Tong Recreation Association,SC000996,Na h-Eileanan Siar,HS2 0HS,58.24395989,-6.34382084,S02001692,S01009036
St Peters Episcopal Church: Stornoway,SC005332,Na h-Eileanan Siar,HS2 0LS,58.26793772,-6.33290231,S02001692,S01009036
Stornoway Phab Club,SC025468,Na h-Eileanan Siar,HS2 0HT,58.24633529,-6.33029624,S02001692,S01009036
The Failte Centre,SC030286,Na h-Eileanan Siar,HS2 0LS,58.26793772,-6.33290231,S02001692,S01009036
Back Football And Recreation Club,SC032761,Na h-Eileanan Siar,HS2 0LS,58.26793772,-6.33290231,S02001692,S01009036
Carragh-Cuimhne Cogaidh An Taobh Siar,SC034125,Na h-Eileanan Siar,HS2 0LT,58.25786372,-6.33269432,S02001692,S01009036
Tong Free Church Meeting House,SC034811,Na h-Eileanan Siar,HS2 0HT,58.24633529,-6.33029624,S02001692,S01009036
Hebrides Alpha Project,SC037559,Na h-Eileanan Siar,HS2 0LT,58.25786372,-6.33269432,S02001692,S01009036
Stornoway Singers,SC045292,Na h-Eileanan Siar,HS2 0LS,58.26793772,-6.33290231,S02001692,S01009036
The Caraidean Tong,SC045964,Na h-Eileanan Siar,HS2 0HP,58.24472275,-6.3528344,S02001692,S01009036
Stornoway Congregation Of Jehovahs Witnesses,SC001534,Na h-Eileanan Siar,HS1 2UG,58.21880425,-6.3812027,S02001694,S01009045
1st Stornoway Girls Brigade Company,SC036633,Na h-Eileanan Siar,HS1 2YA,58.22212123,-6.38307807,S02001694,S01009045
Manish-Scarista Church Of Scotland,SC001770,Na h-Eileanan Siar,HS3 3HX,57.83172173,-7.03410222,S02001689,S01009023
James Rice Memorial Trust,SC002672,Na h-Eileanan Siar,HS5 3UD,57.75175585,-7.00031805,S02001689,S01009023
Leverburgh Village Hall Committee,SC020249,Na h-Eileanan Siar,HS3 3JE,57.76021176,-6.93510154,S02001689,S01009023
Harris Community Trust,SC025016,Na h-Eileanan Siar,HS5 3UE,57.74392571,-6.98399088,S02001689,S01009023
Coisir Eilean Na Hearadh,SC026778,Na h-Eileanan Siar,HS3 3EZ,57.79840333,-6.87591087,S02001689,S01009023
Bays Of Harris Charitable Trust,SC031799,Na h-Eileanan Siar,HS3 3EH,57.82859998,-6.83778896,S02001689,S01009023
Obbe Day Centre,SC034273,Na h-Eileanan Siar,HS3 3JA,57.79668957,-7.06580971,S02001689,S01009023
Leverburgh Enhancement Group,SC036046,Na h-Eileanan Siar,HS5 3UE,57.74392571,-6.98399088,S02001689,S01009023
Co-Chomunn na Hearadh Ltd,SC045656,Na h-Eileanan Siar,HS5 3TS,57.7713924,-7.01472366,S02001689,S01009023
Friends of Ensay SCIO,SC048637,Na h-Eileanan Siar,HS3 3JQ,57.78092002,-6.89835556,S02001689,S01009023
Leverhulme Community Hub Ltd,SC051031,Na h-Eileanan Siar,HS5 3UD,57.75175585,-7.00031805,S02001689,S01009023
Stornoway United Football Club,SC001898,Na h-Eileanan Siar,HS1 2NX,58.21533316,-6.37359969,S02001694,S01009044
Stornoway Athletic Football & Recreation Club,SC012777,Na h-Eileanan Siar,HS1 2HP,58.21548094,-6.38186617,S02001694,S01009044
Western Isles Citizens Advice Service,SC015018,Na h-Eileanan Siar,HS1 2HP,58.21548094,-6.38186617,S02001694,S01009044
N.E.R.V.E.S. (Neurological Equal Rights Volunteers Eilean Siar),SC044196,Na h-Eileanan Siar,HS1 2TD,58.21416085,-6.37866988,S02001694,S01009044
Free Church of Scotland - Presbytery of the Western Isles,SC047062,Na h-Eileanan Siar,HS1 2NL,58.2135255,-6.3770067,S02001694,S01009044
The High Free Church Stornoway,SC045431,Na h-Eileanan Siar,HS1 2NL,58.2135255,-6.3770067,S02001694,S01009044
Benbecula Church Of Scotland,SC002191,Na h-Eileanan Siar,HS7 5LT,57.46527279,-7.38479194,S02001688,S01009020
Nunton Steading Trust,SC024981,Na h-Eileanan Siar,HS7 5LU,57.45743341,-7.39489001,S02001688,S01009020
Uist Community Riding School,SC028094,Na h-Eileanan Siar,HS7 5LA,57.47121638,-7.37101979,S02001688,S01009020
Tagsa Uibhist,SC029417,Na h-Eileanan Siar,HS7 5LA,57.47121638,-7.37101979,S02001688,S01009020
Caraidean Uibhist,SC034083,Na h-Eileanan Siar,HS7 5LH,57.4730702,-7.38848129,S02001688,S01009020
Balivanich Community Leisure Area Group,SC034437,Na h-Eileanan Siar,HS7 5LE,57.47153649,-7.3919297,S02001688,S01009020
The Caladh Trust,SC034569,Na h-Eileanan Siar,HS7 5LA,57.47121638,-7.37101979,S02001688,S01009020
East Camp Trust,SC035251,Na h-Eileanan Siar,HS7 5LA,57.47121638,-7.37101979,S02001688,S01009020
UCVO,SC045715,Na h-Eileanan Siar,HS7 5LA,57.47121638,-7.37101979,S02001688,S01009020
Uist Gymnastics SCIO Club,SC049346,Na h-Eileanan Siar,HS7 5LA,57.47121638,-7.37101979,S02001688,S01009020
Caraidean Uibhist SCIO,SC051298,Na h-Eileanan Siar,HS7 5LH,57.4730702,-7.38848129,S02001688,S01009020
Barvas & Brue Community Centre,SC002689,Na h-Eileanan Siar,HS2 0QY,58.35738806,-6.51327412,S02001691,S01009031
Westside Football And Recreational Club,SC020600,Na h-Eileanan Siar,HS2 0RH,58.40206482,-6.46807503,S02001691,S01009031
The Lewis and Harris Women's Cancer Support Group,SC027738,Na h-Eileanan Siar,HS2 0RH,58.40206482,-6.46807503,S02001691,S01009031
Clan Macquarrie Community Centre,SC028732,Na h-Eileanan Siar,HS2 0RX,58.41519468,-6.44098084,S02001691,S01009031
Barvas Free Church Of Scotland,SC036760,Na h-Eileanan Siar,HS2 0RQ,58.39804177,-6.47638752,S02001691,S01009031
Airidhantuim Young At Heart Club,SC038673,Na h-Eileanan Siar,HS2 0RH,58.40206482,-6.46807503,S02001691,S01009031
Comunn Chroig,SC042126,Na h-Eileanan Siar,HS2 0QY,58.35738806,-6.51327412,S02001691,S01009031
Barra Festival Society - Comann Feis Bharraigh,SC003856,Na h-Eileanan Siar,HS9 5XD,56.95564762,-7.48776286,S02001687,S01009014
Voluntary Action Barra & Vatersay,SC015602,Na h-Eileanan Siar,HS9 5XD,56.95564762,-7.48776286,S02001687,S01009014
Comunn Eachdraidh Bharraidh Agus Bhatarsaidh - Barra And Vatersay Heritage,SC023908,Na h-Eileanan Siar,HS9 5XB,56.95600795,-7.49409195,S02001687,S01009014
Barra Children's Centre,SC029076,Na h-Eileanan Siar,HS9 5XD,56.95564762,-7.48776286,S02001687,S01009014
Castlebay Community Hall,SC029795,Na h-Eileanan Siar,HS9 5XD,56.95564762,-7.48776286,S02001687,S01009014
Board Of Management Of Barra & Vatersay Hospice For The Care Of The Terminally Ill,SC035655,Na h-Eileanan Siar,HS9 5XD,56.95564762,-7.48776286,S02001687,S01009014
Lasagan,SC036017,Na h-Eileanan Siar,HS9 5XD,56.95564762,-7.48776286,S02001687,S01009014
Coimhearsnachd Bharraidh Agus Bhatarsaidh (Barra and Vatersay Community) Limited,SC041923,Na h-Eileanan Siar,HS9 5XB,56.95600795,-7.49409195,S02001687,S01009014
Beairteas Bharraigh Ltd,SC047589,Na h-Eileanan Siar,HS9 5XD,56.95564762,-7.48776286,S02001687,S01009014
Barra Church Of Scotland,SC003980,Na h-Eileanan Siar,HS9 5XR,56.98109821,-7.50251203,S02001687,S01009015
Cobhair Bharraigh (SCIO),SC032278,Na h-Eileanan Siar,HS9 5XL,56.95822072,-7.50249052,S02001687,S01009015
Garadh a Bhagh a Tuath SCIO,SC041742,Na h-Eileanan Siar,HS9 5YQ,56.99994406,-7.42419624,S02001687,S01009015
Communn Eachdraidh A` Rudha,SC006306,Na h-Eileanan Siar,HS2 0QG,58.20869622,-6.2145012,S02001695,S01009048
Lower Bayble Recreational Association,SC029687,Na h-Eileanan Siar,HS2 0QB,58.19906762,-6.22529861,S02001695,S01009048
Point Sport And Recreation Association,SC036014,Na h-Eileanan Siar,HS2 0QG,58.20869622,-6.2145012,S02001695,S01009048
Point and Sandwick Development Trust,SC041048,Na h-Eileanan Siar,HS2 0BW,58.20244213,-6.26867758,S02001695,S01009048
Point and Sandwick Coastal Community Path ,SC046771,Na h-Eileanan Siar,HS2 0BW,58.20244213,-6.26867758,S02001695,S01009048
Garrabost Gniomhach: Active Garrabost,SC050655,Na h-Eileanan Siar,HS2 0BW,58.20244213,-6.26867758,S02001695,S01009048
Benbecula Community Association,SC006367,Na h-Eileanan Siar,HS7 5QA,57.44282768,-7.35848488,S02001688,S01009019
South Uist Youth Development Group,SC031860,Na h-Eileanan Siar,HS7 5PJ,57.42558058,-7.35859317,S02001688,S01009019
"St Columba Old Parish Church of Scotland, Stornoway",SC006777,Na h-Eileanan Siar,HS2 0PF,58.2098857,-6.25125649,S02001695,S01009047
Urras Eaglais Na H-Aoidhe,SC030892,Na h-Eileanan Siar,HS2 0PN,58.21803756,-6.24545006,S02001695,S01009047
Clean Coast Outer Hebrides,SC049307,Na h-Eileanan Siar,HS2 0PD,58.20834068,-6.25955606,S02001695,S01009047
Kinloch Historical Society,SC006858,Na h-Eileanan Siar,HS2 9PJ,58.10250272,-6.53167439,S02001690,S01009025
Balallan & District Recreation Assoc,SC007772,Na h-Eileanan Siar,HS2 9PN,58.09322443,-6.59300107,S02001690,S01009025
Kinloch Church of Scotland,SC008004,Na h-Eileanan Siar,HS2 9JT,58.10398947,-6.49152946,S02001690,S01009025
Hebridean Childcare (SCIO),SC019878,Na h-Eileanan Siar,HS2 9QA,58.08892704,-6.51736525,S02001690,S01009025
Keose And Glebe Community Association,SC028546,Na h-Eileanan Siar,HS2 9JT,58.10398947,-6.49152946,S02001690,S01009025
Pairc Social Club,SC030449,Na h-Eileanan Siar,HS2 9QD,58.09013523,-6.47862694,S02001690,S01009025
Orinsay Village Association,SC030715,Na h-Eileanan Siar,HS2 9RG,58.0187828,-6.463164,S02001690,S01009025
Cairdean Cordal Ceann A Loch,SC031007,Na h-Eileanan Siar,HS2 9PT,58.08950972,-6.61932335,S02001690,S01009025
Erisort Trust,SC031813,Na h-Eileanan Siar,HS2 9QA,58.08892704,-6.51736525,S02001690,S01009025
Urras Leabhraichean Nan Eilean - The Islands Book Trust,SC032682,Na h-Eileanan Siar,HS2 9PN,58.09322443,-6.59300107,S02001690,S01009025
Pairc Trust,SC035193,Na h-Eileanan Siar,HS2 9QA,58.08892704,-6.51736525,S02001690,S01009025
Co-Chomunn Na Pairc,SC038920,Na h-Eileanan Siar,HS2 9QA,58.08892704,-6.51736525,S02001690,S01009025
Muaitheabhal Community Wind Farm Trust,SC041621,Na h-Eileanan Siar,HS2 9PN,58.09322443,-6.59300107,S02001690,S01009025
Hebridean Connections,SC042503,Na h-Eileanan Siar,HS2 9QA,58.08892704,-6.51736525,S02001690,S01009025
Lochs Agricultural Society,SC043297,Na h-Eileanan Siar,HS2 9QB,58.08505622,-6.54019002,S02001690,S01009025
Pairc Sports Hall,SC044134,Na h-Eileanan Siar,HS2 9QB,58.08505622,-6.54019002,S02001690,S01009025
North Lochs Community Association,SC007186,Na h-Eileanan Siar,HS2 9NS,58.1427042,-6.45658082,S02001690,S01009026
Lochs Crossbost Parish Church Of Scotland,SC024236,Na h-Eileanan Siar,HS2 9NS,58.1427042,-6.45658082,S02001690,S01009026
North Lochs Amenity Group,SC032440,Na h-Eileanan Siar,HS2 9NH,58.14491894,-6.41236355,S02001690,S01009026
Carloway Agricultural Society,SC007660,Na h-Eileanan Siar,HS2 9AU,58.28003828,-6.76564111,S02001691,S01009029
Carloway Community Association,SC011809,Na h-Eileanan Siar,HS2 9AU,58.28003828,-6.76564111,S02001691,S01009029
Urras Nan Gearranan - The Gearranan Trust,SC020139,Na h-Eileanan Siar,HS2 9AL,58.29492624,-6.78413309,S02001691,S01009029
Norse Mill Society,SC024139,Na h-Eileanan Siar,HS2 9BJ,58.32330097,-6.69879198,S02001691,S01009029
Shawbost Old School Trust,SC032047,Na h-Eileanan Siar,HS2 9BQ,58.32715098,-6.68213647,S02001691,S01009029
Carloway Church Of Scotland,SC032250,Na h-Eileanan Siar,HS2 9AU,58.28003828,-6.76564111,S02001691,S01009029
Comann Eachdraidh An Taobh Siar (West Side Historical Society),SC032321,Na h-Eileanan Siar,HS2 9BQ,58.32715098,-6.68213647,S02001691,S01009029
Clann An La De,SC034373,Na h-Eileanan Siar,HS2 9BJ,58.32330097,-6.69879198,S02001691,S01009029
Urras Dualchas Shiaboist,SC044533,Na h-Eileanan Siar,HS2 9BQ,58.32715098,-6.68213647,S02001691,S01009029
Carloway Estate Trust (Urras Oighreachd Charlabhaigh),SC044779,Na h-Eileanan Siar,HS2 9AU,58.28003828,-6.76564111,S02001691,S01009029
Stornoway Street Pastors,SC045657,Na h-Eileanan Siar,HS2 9AW,58.28303959,-6.78039132,S02001691,S01009029
Urras Sgire Oighreachd Bharabhais Community Company,SC046321,Na h-Eileanan Siar,HS2 9BQ,58.32715098,-6.68213647,S02001691,S01009029
Dalmore Cemetery Lairholders Association SCIO ,SC050087,Na h-Eileanan Siar,HS2 9AP,58.28154431,-6.79315163,S02001691,S01009029
Lochs-In-Bernera Church Of Scotland,SC008746,Na h-Eileanan Siar,HS2 9NA,58.24204167,-6.87366966,S02001690,S01009027
Bernera Community Association,SC010113,Na h-Eileanan Siar,HS2 9LT,58.22754318,-6.83912325,S02001690,S01009027
Comunn Eachdraidh Sgire Bhearnaraidh Bernara Local History Society,SC023632,Na h-Eileanan Siar,HS2 9LT,58.22754318,-6.83912325,S02001690,S01009027
Uig Community Centre Association,SC023792,Na h-Eileanan Siar,HS2 9JD,58.19659317,-7.01527672,S02001690,S01009027
Uig Heritage Trust,SC027656,Na h-Eileanan Siar,HS2 9JD,58.19659317,-7.01527672,S02001690,S01009027
Urras Ionad Bhaltois (Valtos Outdoor Centre Trust ),SC029959,Na h-Eileanan Siar,HS2 9JF,58.19261256,-7.03839728,S02001690,S01009027
Urras Eachdraigh Sgire Bhearnaraidh,SC030330,Na h-Eileanan Siar,HS2 9LT,58.22754318,-6.83912325,S02001690,S01009027
Western Isles Kidney Patients Association,SC031520,Na h-Eileanan Siar,HS2 9JD,58.19659317,-7.01527672,S02001690,S01009027
Gallan Head Community Trust,SC046600,Na h-Eileanan Siar,HS2 9JA,58.23166337,-7.02919153,S02001690,S01009027
Uig Development Trust SCIO,SC047581,Na h-Eileanan Siar,HS2 9JD,58.19659317,-7.01527672,S02001690,S01009027
Stornoway High Church of Scotland,SC010164,Na h-Eileanan Siar,HS2 0EG,58.22471533,-6.38426785,S02001693,S01009038
Western Isles Duke Of Edinburgh's Award,SC021492,Na h-Eileanan Siar,HS1 2EP,58.22026155,-6.39660315,S02001693,S01009038
Hebridean Housing Partnership,SC035767,Na h-Eileanan Siar,HS1 2QP,58.22011472,-6.40111875,S02001693,S01009038
Western Isles Transport Preservation Group,SC036956,Na h-Eileanan Siar,HS2 0DB,58.21908994,-6.40813307,S02001693,S01009038
The Outer Hebrides Fisheries Trust,SC040530,Na h-Eileanan Siar,HS2 0DD,58.21650774,-6.41050513,S02001693,S01009038
Breasclete Community Association,SC010214,Na h-Eileanan Siar,HS2 9ED,58.21947897,-6.73917784,S02001691,S01009028
Urras Nan Tursachan,SC022483,Na h-Eileanan Siar,HS2 9DY,58.20085378,-6.73689609,S02001691,S01009028
Hebridean Celtic Festival Trust,SC024134,Na h-Eileanan Siar,HS2 9EF,58.22119704,-6.74956826,S02001691,S01009028
Breasclete Junior Youth Club,SC026071,Na h-Eileanan Siar,HS2 9DW,58.2423494,-6.78145343,S02001691,S01009028
Lochs Gaelic Choir,SC030323,Na h-Eileanan Siar,HS2 9DZ,58.21090275,-6.73782812,S02001691,S01009028
Abc (Eldery Day Club),SC034455,Na h-Eileanan Siar,HS2 9DY,58.20085378,-6.73689609,S02001691,S01009028
Gaidhlig San Dachaigh (Breascleit),SC038118,Na h-Eileanan Siar,HS2 9DW,58.2423494,-6.78145343,S02001691,S01009028
Urras Tac Chalanais,SC042642,Na h-Eileanan Siar,HS2 9DZ,58.21090275,-6.73782812,S02001691,S01009028
Urras An Taighe Mhoir,SC048073,Na h-Eileanan Siar,HS2 9ED,58.21947897,-6.73917784,S02001691,S01009028
Torman,SC049334,Na h-Eileanan Siar,HS2 9ED,58.21947897,-6.73917784,S02001691,S01009028
Berneray Community Association,SC013320,Na h-Eileanan Siar,HS6 5BJ,57.71204723,-7.18190574,S02001688,S01009022
Taigh Chearsabhagh Trust,SC022145,Na h-Eileanan Siar,HS6 5AA,57.60124702,-7.16387889,S02001688,S01009022
Lochmaddy & Trumisgarry Social Welfare Committee,SC027264,Na h-Eileanan Siar,HS6 5AG,57.60547186,-7.17867765,S02001688,S01009022
Grimsay Boatshed Trust,SC032155,Na h-Eileanan Siar,HS6 5HY,57.48005905,-7.21000111,S02001688,S01009022
Comann Na Mara,SC032295,Na h-Eileanan Siar,HS6 5AA,57.60124702,-7.16387889,S02001688,S01009022
Berneray Development Group,SC034041,Na h-Eileanan Siar,HS6 5BD,57.71739576,-7.17325575,S02001688,S01009022
Ros-Chraobh,SC036838,Na h-Eileanan Siar,HS6 5JB,57.48938039,-7.25653296,S02001688,S01009022
Teampull Na Trionaid Conservation Association,SC040461,Na h-Eileanan Siar,HS6 5AP,57.61989151,-7.19846016,S02001688,S01009022
Talamh,SC040814,Na h-Eileanan Siar,HS6 5JA,57.48577899,-7.23953943,S02001688,S01009022
Uist Wool Limited,SC042442,Na h-Eileanan Siar,HS6 5JA,57.48577899,-7.23953943,S02001688,S01009022
Grimsay Community Association,SC045009,Na h-Eileanan Siar,HS6 5JA,57.48577899,-7.23953943,S02001688,S01009022
North Uist Community Church,SC046298,Na h-Eileanan Siar,HS6 5AG,57.60547186,-7.17867765,S02001688,S01009022
Comunn Eachdraidh Bhearnaraigh SCIO ,SC047024,Na h-Eileanan Siar,HS6 5BD,57.71739576,-7.17325575,S02001688,S01009022
Comann Eachdraidh Uibhist a Tuath,SC047186,Na h-Eileanan Siar,HS6 5AA,57.60124702,-7.16387889,S02001688,S01009022
Sealladh Hiort,SC047571,Na h-Eileanan Siar,HS6 5HY,57.48005905,-7.21000111,S02001688,S01009022
Knock Church Of Scotland,SC014492,Na h-Eileanan Siar,HS2 0EP,58.24195986,-6.16547029,S02001695,S01009049
Laxdale Gaelic Choir,SC015699,Na h-Eileanan Siar,HS2 0HE,58.25036343,-6.17109691,S02001695,S01009049
Coisir Sgire a' Bhac,SC017761,Na h-Eileanan Siar,HS2 0EU,58.2428006,-6.15982221,S02001695,S01009049
Sheshader Amenities Association,SC021424,Na h-Eileanan Siar,HS2 0EW,58.22769871,-6.16986447,S02001695,S01009049
Isle Of Lewis Access Panel,SC034155,Na h-Eileanan Siar,HS2 0HA,58.25041732,-6.15401258,S02001695,S01009049
Tiumpan Head Community Association,SC035666,Na h-Eileanan Siar,HS2 0HA,58.25041732,-6.15401258,S02001695,S01009049
Urras Storas An Rubha,SC046922,Na h-Eileanan Siar,HS2 0HA,58.25041732,-6.15401258,S02001695,S01009049
Stornoway Angling Association SCIO,SC050073,Na h-Eileanan Siar,HS2 0EU,58.2428006,-6.15982221,S02001695,S01009049
Point Agricultural Society SCIO,SC050098,Na h-Eileanan Siar,HS2 0EU,58.2428006,-6.15982221,S02001695,S01009049
Stoneybridge Community Hall Committee,SC014666,Na h-Eileanan Siar,HS8 5SG,57.28849699,-7.38041184,S02001687,S01009018
Cothrom,SC020879,Na h-Eileanan Siar,HS8 5SB,57.25835755,-7.39277761,S02001687,S01009018
Iochdar Community Association,SC024231,Na h-Eileanan Siar,HS8 5NZ,57.34416874,-7.26923141,S02001687,S01009018
South Uist Church of Scotland,SC031790,Na h-Eileanan Siar,HS8 5SN,57.23542045,-7.33956486,S02001687,S01009018
Sgoil An Iochdair Agus A'choimhearsnachd,SC032387,Na h-Eileanan Siar,HS8 5RQ,57.39257079,-7.35291129,S02001687,S01009018
Comann Spors A Chinn A Deas,SC034991,Na h-Eileanan Siar,HS8 5SG,57.28849699,-7.38041184,S02001687,S01009018
Uist & Barra Foodbank,SC047999,Na h-Eileanan Siar,HS8 5SH,57.30145195,-7.37421187,S02001687,S01009018
Bethesda Care Home and Hospice,SC015783,Na h-Eileanan Siar,HS1 2PS,58.21233859,-6.37333302,S02001694,S01009043
Western Isles District Scout Council,SC021124,Na h-Eileanan Siar,HS1 2NZ,58.21414464,-6.37023248,S02001694,S01009043
Mackinnon Dancers ,SC049315,Na h-Eileanan Siar,HS1 2NS,58.21448686,-6.37519956,S02001694,S01009043
Berneray and Lochmaddy Church Of Scotland,SC016358,Na h-Eileanan Siar,HS6 5BX,57.64242465,-7.37425171,S02001688,S01009021
Carinish Church Of Scotland,SC016461,Na h-Eileanan Siar,HS6 5BX,57.64242465,-7.37425171,S02001688,S01009021
Urachadh - Uibhist,SC024080,Na h-Eileanan Siar,HS6 5EP,57.56532932,-7.38454205,S02001688,S01009021
Carinish & District Village Hall,SC028489,Na h-Eileanan Siar,HS6 5HD,57.55244921,-7.33469108,S02001688,S01009021
Kilmuir and Paible Church of Scotland,SC030955,Na h-Eileanan Siar,HS6 5BS,57.65011479,-7.34448918,S02001688,S01009021
Taigh Sgire Sholais,SC035893,Na h-Eileanan Siar,HS6 5BP,57.65283349,-7.32531672,S02001688,S01009021
Urras nan Craobh Uibhist A Tuath,SC037270,Na h-Eileanan Siar,HS6 5EP,57.56532932,-7.38454205,S02001688,S01009021
North Uist Development Company,SC041709,Na h-Eileanan Siar,HS6 5EP,57.56532932,-7.38454205,S02001688,S01009021
Laxdale Community Association,SC017250,Na h-Eileanan Siar,HS2 0DZ,58.23326791,-6.40019296,S02001692,S01009037
Enable Stornoway & District Branch,SC020816,Na h-Eileanan Siar,HS2 0EA,58.23608056,-6.39373814,S02001692,S01009037
Newmarket Gateway Trust,SC034821,Na h-Eileanan Siar,HS2 0EN,58.24785336,-6.39685167,S02001692,S01009037
Crossroads (Lewis) Care Attendant Scheme Ltd,SC017522,Na h-Eileanan Siar,HS1 2SD,58.20557399,-6.37076214,S02001694,S01009042
Newton And Sandwick Community Partnership (Nscp),SC032465,Na h-Eileanan Siar,HS1 2SH,58.20756315,-6.36887723,S02001694,S01009042
Dannsa Eileanach,SC032638,Na h-Eileanan Siar,HS1 2UL,58.21328656,-6.36036253,S02001694,S01009042
Stornoway Free Church of Scotland (Continuing),SC050328,Na h-Eileanan Siar,HS1 2SS,58.20806043,-6.36565004,S02001694,S01009042
Western Isles Women's Aid,SC019639,Na h-Eileanan Siar,HS1 2DZ,58.21442082,-6.38575709,S02001693,S01009040
Western Isles Association For Mental Health,SC027469,Na h-Eileanan Siar,HS1 2DU,58.21228756,-6.38764065,S02001693,S01009040
1st Stornoway Guide Unit,SC031658,Na h-Eileanan Siar,HS1 2HF,58.21748999,-6.38150064,S02001693,S01009040
2nd Stornoway Rainbow Unit,SC031659,Na h-Eileanan Siar,HS1 2HF,58.21748999,-6.38150064,S02001693,S01009040
Bridge Community Centre,SC033125,Na h-Eileanan Siar,HS1 2DU,58.21228756,-6.38764065,S02001693,S01009040
The Bayhead Bridge Centre,SC038317,Na h-Eileanan Siar,HS1 2EB,58.21309449,-6.38745069,S02001693,S01009040
Stornoway Community Mosque Trust,SC048436,Na h-Eileanan Siar,HS1 2EG,58.21731682,-6.38444471,S02001693,S01009040
Western Isles Women's Aid SCIO,SC048724,Na h-Eileanan Siar,HS1 2DZ,58.21442082,-6.38575709,S02001693,S01009040
Murdo Macaulay Memorial Hall Management Committee,SC020903,Na h-Eileanan Siar,HS2 0TJ,58.4850572,-6.24085829,S02001691,S01009033
Ness Sports & Recreation Association,SC024876,Na h-Eileanan Siar,HS2 0XB,58.48878553,-6.24367832,S02001691,S01009033
Guth Airson Iarrtasan Nis,SC029574,Na h-Eileanan Siar,HS2 0XH,58.50237283,-6.26399519,S02001691,S01009033
Taigh Dhonnchaidh,SC033376,Na h-Eileanan Siar,HS2 0TG,58.48496064,-6.25569978,S02001691,S01009033
Guth Airson Iarrtasan Nis (GAIN),SC047399,Na h-Eileanan Siar,HS2 0XH,58.50237283,-6.26399519,S02001691,S01009033
Back Junior Gaelic Choirs,SC020964,Na h-Eileanan Siar,HS2 0JS,58.27393053,-6.29502445,S02001692,S01009035
Donald Stewart Memorial Trust,SC022736,Na h-Eileanan Siar,HS2 0JR,58.27109969,-6.30510969,S02001692,S01009035
Back War Memorial Committee,SC030937,Na h-Eileanan Siar,HS2 0LH,58.28849222,-6.30456079,S02001692,S01009035
1st Stornoway Brownie Unit,SC038538,Na h-Eileanan Siar,HS2 0LA,58.27688898,-6.30117018,S02001692,S01009035
Western Isles Pregnancy Crisis Support,SC042212,Na h-Eileanan Siar,HS2 0LH,58.28849222,-6.30456079,S02001692,S01009035
1st Laxdale Scout Group,SC043983,Na h-Eileanan Siar,HS2 0LR,58.2750031,-6.32663136,S02001692,S01009035
COMANN EACHDRAIDH SGÌRE A’ BHAC SCIO,SC049033,Na h-Eileanan Siar,HS2 0LQ,58.2825249,-6.2924303,S02001692,S01009035
PACT (Pairc aig Clann Tholstaidh),SC022131,Na h-Eileanan Siar,HS2 0NW,58.34359573,-6.20558033,S02001692,S01009034
Western Isles Guides Association,SC022678,Na h-Eileanan Siar,HS2 0BQ,58.20500377,-6.31172871,S02001695,S01009046
Lewis Christian Education Association,SC028950,Na h-Eileanan Siar,HS2 0BB,58.20982873,-6.31636975,S02001695,S01009046
Royal Air Forces Association Stornoway Branch,SC037996,Na h-Eileanan Siar,HS2 0BB,58.20982873,-6.31636975,S02001695,S01009046
Hebridean Men's Cancer Support Group,SC038829,Na h-Eileanan Siar,HS2 0AD,58.20812706,-6.35265812,S02001695,S01009046
Autism Eileanan Siar SCIO,SC045632,Na h-Eileanan Siar,HS2 0AY,58.2016665,-6.33772738,S02001695,S01009046
Goathill Park Amenity and Recreation Club ,SC047279,Na h-Eileanan Siar,HS2 0AY,58.2016665,-6.33772738,S02001695,S01009046
Stornoway Thespians Drama Club,SC024203,Na h-Eileanan Siar,HS1 2TX,58.22123042,-6.38910415,S02001693,S01009039
Falmadair - North Lewis Maritime Trust (SCIO),SC050109,Na h-Eileanan Siar,HS1 2TU,58.220762,-6.39017116,S02001693,S01009039
Share,SC036608,Na h-Eileanan Siar,HS8 5TS,57.10352385,-7.33336156,S02001687,S01009016
Eriskay Communal Committee,SC039653,Na h-Eileanan Siar,HS8 5JJ,57.08596659,-7.30693401,S02001687,S01009016
Comann Eachdraidh Eirisgeidh (Eriskay Historical Society) ,SC048837,Na h-Eileanan Siar,HS8 5JJ,57.08596659,-7.30693401,S02001687,S01009016
Horshader Community Development,SC041092,Na h-Eileanan Siar,HS2 9BD,58.33048869,-6.66860766,S02001691,S01009030
Urras Coimhearsnachd Bhradhagair agus Arnoil (Bragar & Arnol Community Trust),SC044094,Na h-Eileanan Siar,HS2 9DA,58.33575162,-6.62184306,S02001691,S01009030
