Name,Charity Number,Local authority,Postcode,Latitude,Longitude,IntermediateZone2011Code,DataZone2011Code
Stirling Baptist Church,SC000117,Stirling,FK8 1AU,56.11926454,-3.93742862,S02002449,S01013067
Stirling and District Women's Aid,SC010937,Stirling,FK8 1AX,56.11872603,-3.93738546,S02002449,S01013067
Society Of Friends Of Dunblane Cathedral,SC000283,Stirling,FK15 9JS,56.2100931,-3.96682441,S02002455,S01013097
Ashfield Village Association,SC009591,Stirling,FK15 0JR,56.21105109,-3.96139098,S02002455,S01013097
Kinbuck Community Group,SC029086,Stirling,FK15 0NQ,56.2227705,-3.95052145,S02002455,S01013097
Callander Kirk Church of Scotland,SC000396,Stirling,FK17 8BN,56.24253717,-4.21389352,S02002458,S01013115
Folklórny súbor Lipa (SCIO) SC049435,SC049435,Stirling,FK17 8BL,56.24341242,-4.21520294,S02002458,S01013115
John McLintock Hall Trust,SC000654,Stirling,G63 0RH,56.06519944,-4.33986675,S02002437,S01013012
John Mclintock Trust,SC002856,Stirling,G63 0TW,56.06955343,-4.33585677,S02002437,S01013012
25th Forth Valley Balfron Scouts Group,SC005418,Stirling,G63 0TX,56.06767125,-4.33463428,S02002437,S01013012
Strathblane & Strathendrick District Welfare Fund,SC011208,Stirling,G63 0TR,56.06834578,-4.33555875,S02002437,S01013012
Lodge Strathendrick No 780 Benevolent Fund,SC024475,Stirling,G63 0TJ,56.06987931,-4.3347839,S02002437,S01013012
Drymen Village Hall Improvements Comm,SC000799,Stirling,G63 0BX,56.06664478,-4.45555198,S02002437,S01013010
DCDT Enterprise Company,SC041565,Stirling,G63 0BX,56.06664478,-4.45555198,S02002437,S01013010
ARCADIA SCULPTURE CENTRE,SC050893,Stirling,G63 0DW,56.06418649,-4.43902479,S02002437,S01013010
"Kincardine in Menteith Church of Scotland, Blair Drummond",SC000802,Stirling,FK9 4UZ,56.16070488,-4.08778528,S02002457,S01013109
Blairdrummond Community Hall Association,SC012129,Stirling,FK9 4AN,56.1545807,-4.061819,S02002457,S01013109
Stirling City Choir,SC014953,Stirling,FK8 3PJ,56.17384643,-4.14945897,S02002457,S01013109
Scottish Community Drama Association Stirling District,SC021379,Stirling,FK8 3PR,56.17418403,-4.15329598,S02002457,S01013109
Thornhill Community Hall Management Committee,SC021671,Stirling,FK8 3PJ,56.17384643,-4.14945897,S02002457,S01013109
Thornhill Community Trust,SC035940,Stirling,FK8 3QA,56.17272929,-4.1521996,S02002457,S01013109
Thornhill Playgroup & Toddlers,SC038031,Stirling,FK8 3PW,56.17373018,-4.14735816,S02002457,S01013109
Buchlyvie Church Of Scotland,SC000833,Stirling,FK8 3NH,56.11388743,-4.29322992,S02002437,S01013014
Friends Of Aberfoyle And Buchlyvie Medical Centres SCIO,SC034962,Stirling,FK8 3NB,56.11629078,-4.29786113,S02002437,S01013014
Balfron 1st Guide Unit,SC035450,Stirling,FK8 3NH,56.11388743,-4.29322992,S02002437,S01013014
Buchlyvie Community Association,SC043330,Stirling,FK8 3LY,56.11668768,-4.29198094,S02002437,S01013014
Buchlyvie Village Hall,SC049631,Stirling,FK8 3LR,56.11479866,-4.29400802,S02002437,S01013014
Dunblane Christian Fellowship,SC000967,Stirling,FK15 9EX,56.18546266,-3.96504821,S02002455,S01013099
Leighton Library Trust,SC003010,Stirling,FK15 0AQ,56.18892704,-3.96475799,S02002455,S01013099
Dunblane Cathedral Church Of Scotland,SC004454,Stirling,FK15 0AQ,56.18892704,-3.96475799,S02002455,S01013099
2nd Dunblane Brownie Unit,SC032066,Stirling,FK15 0AD,56.18704473,-3.96388825,S02002455,S01013099
Dunblane Development Trust,SC034511,Stirling,FK15 0AT,56.19094835,-3.96423279,S02002455,S01013099
1st Dunblane Brownie Unit,SC036214,Stirling,FK15 0AU,56.1919674,-3.96570317,S02002455,S01013099
Victoria Hall Dunblane (SCIO),SC044567,Stirling,FK15 9EX,56.18546266,-3.96504821,S02002455,S01013099
5th Dunblane Brownie Unit,SC031507,Stirling,FK15 0AD,56.18704473,-3.96388825,S02002455,S01013099
Logie Kirk Stirling (Church of Scotland),SC001298,Stirling,FK15 9JL,56.19272937,-3.9804573,S02002456,S01013105
Enable Stirling & District Branch,SC021056,Stirling,FK15 9AP,56.18976782,-3.96895893,S02002456,S01013105
Logie Community Hub,SC044223,Stirling,FK15 9JL,56.19272937,-3.9804573,S02002456,S01013105
Aberfoyle Parish Church Of Scotland,SC001308,Stirling,FK8 3UN,56.17787866,-4.37773761,S02002459,S01013117
Aberfoyle Toddlers,SC001608,Stirling,FK8 3UX,56.17633096,-4.37549897,S02002459,S01013117
1st Aberfoyle Brownies,SC032290,Stirling,FK8 3SW,56.17902348,-4.38315803,S02002459,S01013117
Trossachs Area Community Transport,SC041003,Stirling,FK8 3UJ,56.17854971,-4.37976102,S02002459,S01013117
Stirling: Park Church of Scotland,SC001414,Stirling,FK8 2NA,56.11426088,-3.94074782,S02002447,S01013062
Stirling Street Pastors,SC042163,Stirling,FK8 2NA,56.11426088,-3.94074782,S02002447,S01013062
Stirling and Union Bridge Club,SC044735,Stirling,FK8 2JT,56.11373226,-3.94350376,S02002447,S01013062
Malcolm Ferguson Charitable Bequest,SC001841,Stirling,FK21 8UT,56.46546384,-4.31862595,S02002459,S01013120
George Hogg Trust,SC001890,Stirling,FK21 8UT,56.46546384,-4.31862595,S02002459,S01013120
Maclaren Town Hall,SC008642,Stirling,FK21 8UH,56.46815929,-4.31721549,S02002459,S01013120
Killin & Ardeonaig Parish Church of Scotland,SC010198,Stirling,FK21 8TF,56.46753224,-4.31662528,S02002459,S01013120
Killin Heritage Association Also K/A Killin Heritage Society,SC018763,Stirling,FK21 8UY,56.46324799,-4.32370173,S02002459,S01013120
Killin Dramatic Club,SC024163,Stirling,FK21 8UH,56.46815929,-4.31721549,S02002459,S01013120
Killin Community Bus Company,SC029128,Stirling,FK21 8ST,56.46521203,-4.29737646,S02002459,S01013120
Killin Primary School Parent-Teacher Association,SC032739,Stirling,FK21 8SY,56.489216,-4.16846983,S02002459,S01013120
Killin Care Trust,SC033119,Stirling,FK21 8UW,56.46710062,-4.31856341,S02002459,S01013120
Killin and Ardeonaig Community Development Trust Limited,SC038852,Stirling,FK21 8XE,56.46329516,-4.32070145,S02002459,S01013120
Killin & District Volunteer Car Scheme,SC048451,Stirling,FK21 8UY,56.46324799,-4.32370173,S02002459,S01013120
Killin Music Festival,SC049439,Stirling,FK21 8UR,56.46627125,-4.31822062,S02002459,S01013120
Port Of Menteith Church Of Scotland,SC001864,Stirling,FK8 3RD,56.18002059,-4.31319041,S02002457,S01013110
Port Of Menteith Village Hall,SC014871,Stirling,FK8 3RD,56.18002059,-4.31319041,S02002457,S01013110
Aberfoyle Memorial Hall,SC024460,Stirling,FK8 3SP,56.17980052,-4.38107921,S02002457,S01013110
Norrieston Parish Church Of Scotland,SC028719,Stirling,FK8 3QT,56.15070487,-4.16389642,S02002457,S01013110
Braeval Trust,SC031766,Stirling,FK8 3UY,56.17296145,-4.36280502,S02002457,S01013110
Cambusbarron Parish Church Of Scotland Bruce Memorial,SC001913,Stirling,FK7 9LZ,56.11189119,-3.96782562,S02002439,S01013019
Stirling Civic Trust,SC008054,Stirling,FK8 3AG,56.1143876,-4.00591279,S02002439,S01013019
"Allan Church Of Scotland, Bannockburn",SC002953,Stirling,FK7 7UQ,56.10351309,-3.91947983,S02002445,S01013048
18th Stirling Brownie Pack,SC034390,Stirling,FK7 7XG,56.10039969,-3.91974289,S02002445,S01013048
Calvary Fellowship Stirling,SC047916,Stirling,FK7 7XF,56.10040671,-3.91813538,S02002445,S01013048
The Killearn Trust,SC003347,Stirling,G63 9PB,56.04112935,-4.38081186,S02002436,S01013003
1st Killearn Guide Unit,SC030756,Stirling,G63 9QF,56.04267924,-4.37920539,S02002436,S01013003
1st Killearn Brownie Pack,SC031085,Stirling,G63 9QF,56.04267924,-4.37920539,S02002436,S01013003
1st Strathblane Rainbow Guides,SC037099,Stirling,G63 9QF,56.04267924,-4.37920539,S02002436,S01013003
2nd Killearn Rainbows,SC037121,Stirling,G63 9PB,56.04112935,-4.38081186,S02002436,S01013003
Killearn Cottagers Horticultural Society ,SC046701,Stirling,G63 9NT,56.04651823,-4.37820535,S02002436,S01013003
Forth Housing Association Limited,SC003550,Stirling,FK8 1RW,56.13129226,-3.95542855,S02002450,S01013073
Home-Start Stirling,SC023619,Stirling,FK8 1RW,56.13129226,-3.95542855,S02002450,S01013073
Raploch Urban Regeneration Company Ltd,SC037372,Stirling,FK8 1RW,56.13129226,-3.95542855,S02002450,S01013073
7th Stirlingshire Cub/Scout Group,SC003653,Stirling,FK8 2AE,56.10777463,-3.94119318,S02002447,S01013059
Stirling Field And Archaeological Society,SC026822,Stirling,FK7 9AQ,56.10430204,-3.94257812,S02002447,S01013059
St Ninians Out of School Care,SC035603,Stirling,FK7 9HN,56.10395615,-3.94457071,S02002447,S01013059
Kippen Parish Church Of Scotland,SC004286,Stirling,FK8 3HJ,56.12185171,-4.18206435,S02002438,S01013017
Kippen Playgroup & Toddlers,SC008211,Stirling,FK8 3DN,56.12622687,-4.17246493,S02002438,S01013017
Fintry Amateur Dramatic Society,SC030251,Stirling,FK8 3EQ,56.12413481,-4.16928996,S02002438,S01013017
Kippen Rainbow Unit,SC035907,Stirling,FK8 3EH,56.1261555,-4.16885669,S02002438,S01013017
Kippen Primary School Parent Council,SC043545,Stirling,FK8 3DN,56.12622687,-4.17246493,S02002438,S01013017
Drymen Church of Scotland,SC004824,Stirling,G63 9RF,56.03653698,-4.36351198,S02002436,S01013005
23rd Forth Valley Scout Group,SC032170,Stirling,G63 9RF,56.03653698,-4.36351198,S02002436,S01013005
Get Reel,SC035011,Stirling,G63 9RJ,56.04366011,-4.37027402,S02002436,S01013005
Strathendrick Baptist Church,SC048949,Stirling,G63 9RF,56.03653698,-4.36351198,S02002436,S01013005
Donaldson Recreation Park Trust,SC004971,Stirling,G63 0PL,56.0710001,-4.33207195,S02002437,S01013013
Balfron Church of Scotland,SC005335,Stirling,G63 0PU,56.07013168,-4.33332095,S02002437,S01013013
Balfron Pathways,SC031149,Stirling,G63 0PT,56.07053419,-4.32961757,S02002437,S01013013
Dunblane: St Blane's Church of Scotland,SC005185,Stirling,FK15 0PD,56.19455145,-3.95007191,S02002455,S01013095
2nd Dunblane Rainbows Unit,SC033582,Stirling,FK15 0DQ,56.1929926,-3.95318404,S02002455,S01013095
2nd Dunblane Guides,SC033588,Stirling,FK15 0PD,56.19455145,-3.95007191,S02002455,S01013095
Forth Valley University of the Third Age,SC037928,Stirling,FK15 0NR,56.19496175,-3.94741711,S02002455,S01013095
St Marks Parish Church Of Scotland: Stirling,SC005432,Stirling,FK8 2QZ,56.11762939,-3.9454054,S02002447,S01013063
Stirling Smith Art Gallery & Museum Trust,SC016162,Stirling,FK8 2RQ,56.119138,-3.94718673,S02002447,S01013063
Friends of The Smith Art Gallery and Museum,SC016450,Stirling,FK8 2RQ,56.119138,-3.94718673,S02002447,S01013063
"Friends of Kings Park, Stirling Limited",SC038449,Stirling,FK8 2QW,56.1159872,-3.94411612,S02002447,S01013063
Bridge of Allan Civic Trust,SC040542,Stirling,FK8 2QL,56.11770795,-3.94212785,S02002447,S01013063
Access for All Martial Arts and Community Sports SCIO,SC050878,Stirling,FK8 2QW,56.1159872,-3.94411612,S02002447,S01013063
Bridge of Allan Victory Fund,SC005607,Stirling,FK9 4HA,56.1540004,-3.9446514,S02002453,S01013086
Bridge Of Allan Parish Church of Scotland,SC015171,Stirling,FK9 4NW,56.15379589,-3.94850529,S02002453,S01013086
Bridge of Allan Parent and Toddler Group,SC021628,Stirling,FK9 4NU,56.15489088,-3.95029969,S02002453,S01013086
Dunblane Fling,SC042559,Stirling,FK9 4AX,56.15227889,-3.94554653,S02002453,S01013086
11th Bridge of Allan Scout Group,SC050457,Stirling,FK9 4AY,56.15330925,-3.94460038,S02002453,S01013086
Westerlands Association,SC005702,Stirling,FK8 2AQ,56.10890911,-3.9381947,S02002447,S01013060
Cornton Baptist Church,SC019740,Stirling,FK8 2AW,56.1063285,-3.93829009,S02002447,S01013060
Callander & District Pipe Band,SC005879,Stirling,FK17 8HT,56.23149744,-4.36647352,S02002458,S01013114
Trossachs District Welfare Assoc,SC016088,Stirling,FK17 8HT,56.23149744,-4.36647352,S02002458,S01013114
Trossachs Community Trust,SC031641,Stirling,FK17 8HT,56.23149744,-4.36647352,S02002458,S01013114
Trossachs Mobility SCIO,SC046827,Stirling,FK17 8EP,56.24224605,-4.2025148,S02002458,S01013114
Blane Valley Playgroup Assoc,SC005888,Stirling,G63 9DL,55.98458863,-4.30950272,S02002436,S01013008
Lochearnhead Public Hall Fund,SC006009,Stirling,FK19 8PT,56.38640725,-4.27882472,S02002459,S01013119
Balquhidder Village Hall,SC007120,Stirling,FK19 8PB,56.35154768,-4.37636765,S02002459,S01013119
Balquhidder Parish Church of Scotland,SC012316,Stirling,FK19 8NY,56.35676205,-4.35130916,S02002459,S01013119
"Balquhidder, Lochearnhead and Strathyre Community Trust",SC037831,Stirling,FK18 8NA,56.3249406,-4.3279041,S02002459,S01013119
BLS Highland Games SCIO,SC050812,Stirling,FK19 8PT,56.38640725,-4.27882472,S02002459,S01013119
Strathblane Parish Church of Scotland,SC007261,Stirling,G63 9EU,55.97740315,-4.3083049,S02002436,S01013006
Mugdock Trust,SC017845,Stirling,G62 8EL,55.97221424,-4.32900692,S02002436,S01013006
1st Strathblane Guides,SC031416,Stirling,G63 9AT,55.98600879,-4.36259129,S02002436,S01013006
Stirling District Citizens Advice Bureau Ltd,SC007270,Stirling,FK8 2DX,56.11617198,-3.93521424,S02002454,S01013091
Council on Disability Stirling,SC014879,Stirling,FK8 2DX,56.11617198,-3.93521424,S02002454,S01013091
Carers Forum Stirling Area,SC020213,Stirling,FK8 1QZ,56.11955292,-3.93221498,S02002454,S01013091
Heart To Heart Limited,SC036813,Stirling,FK8 1UF,56.1247107,-3.93511221,S02002454,S01013091
Active Stirling Limited,SC037632,Stirling,FK8 1QZ,56.11955292,-3.93221498,S02002454,S01013091
Stirling City Heritage Trust,SC037888,Stirling,FK8 1QZ,56.11955292,-3.93221498,S02002454,S01013091
Stirling Area Access Panel ,SC039837,Stirling,FK8 2DX,56.11617198,-3.93521424,S02002454,S01013091
Stirlingshire Voluntary Enterprise Ltd,SC041875,Stirling,FK8 1QZ,56.11955292,-3.93221498,S02002454,S01013091
Let's Make it Better SCIO,SC049036,Stirling,FK8 1QZ,56.11955292,-3.93221498,S02002454,S01013091
Forth Valley Hearing Access Forum,SC050095,Stirling,FK8 2DX,56.11617198,-3.93521424,S02002454,S01013091
The Howietoun Heritage and Nature Sanctuary Charitable Trust,SC050605,Stirling,FK8 2BX,56.11934646,-3.93678928,S02002454,S01013091
Bannockburn Miners Charitable Society,SC007476,Stirling,FK7 0HZ,56.09403076,-3.92477915,S02002444,S01013045
Stirling Free Church of Scotland,SC044664,Stirling,FK7 0HJ,56.09523087,-3.92676821,S02002444,S01013045
"Viewfield Erskine Church of Scotland, Stirling",SC007533,Stirling,FK7 0LL,56.09203947,-3.93488746,S02002446,S01013054
Abbeyfield Stirling Society Ltd,SC010551,Stirling,FK7 0PP,56.09686483,-3.9372035,S02002446,S01013054
St Ninians United Free Church Of Scotland: Stirling,SC011099,Stirling,FK7 0PP,56.09686483,-3.9372035,S02002446,S01013054
Alsorts,SC024911,Stirling,FK7 0QA,56.09636176,-3.94233892,S02002446,S01013054
2nd St Ninians Brownie Unit,SC034849,Stirling,FK7 0PP,56.09686483,-3.9372035,S02002446,S01013054
1st St Ninians Rainbow Unit,SC036447,Stirling,FK7 0PP,56.09686483,-3.9372035,S02002446,S01013054
Lomond Mountain Rescue Team,SC008624,Stirling,G63 0DY,56.06840829,-4.45184013,S02002437,S01013009
1st Drymen Brownies,SC034206,Stirling,G63 0DX,56.06835528,-4.45405406,S02002437,S01013009
1st Stirlingshire Scout Group,SC008853,Stirling,FK8 2PR,56.10690555,-3.9490132,S02002447,S01013061
Stirling Scout & Guide Gang Show,SC021315,Stirling,FK8 2PR,56.10690555,-3.9490132,S02002447,S01013061
1st Cambusbarron Rainbow Unit,SC036774,Stirling,FK8 2PN,56.10604934,-3.95315097,S02002447,S01013061
Stirling & Trossachs Scout Council,SC010613,Stirling,FK15 0FS,56.19686954,-3.96145676,S02002455,S01013098
3rd Dunblane Guides,SC031453,Stirling,FK15 0FR,56.19716386,-3.96272908,S02002455,S01013098
Stirling And Trossachs Explorer Scouts,SC036365,Stirling,FK15 0FS,56.19686954,-3.96145676,S02002455,S01013098
1st Dunblane Guide Unit,SC048844,Stirling,FK15 0FQ,56.19685121,-3.95977945,S02002455,S01013098
Bannockburn Ladywell Church Of Scotland,SC011345,Stirling,FK7 0EL,56.09501472,-3.9204555,S02002444,S01013046
10th Stirling Guide Unit,SC032222,Stirling,FK7 0EL,56.09501472,-3.9204555,S02002444,S01013046
Bannockburn & Eastern Villages Community Hub,SC048572,Stirling,FK7 0EN,56.09495714,-3.91895754,S02002444,S01013046
St Modocs Episcopal Church,SC011617,Stirling,FK16 6EF,56.1939868,-4.05319837,S02002457,S01013107
Lecropt Kirk Parish Church of Scotland,SC014031,Stirling,FK15 9NZ,56.17395503,-4.02656248,S02002457,S01013107
Red Kite Community Nursery,SC016050,Stirling,FK16 6AA,56.18681389,-4.0586972,S02002457,S01013107
Rural Stirling Housing Association Limited,SC037849,Stirling,FK16 6AA,56.18681389,-4.0586972,S02002457,S01013107
3rd Bridge of Allan Brownie Unit,SC048718,Stirling,FK16 6DT,56.19331069,-4.05224352,S02002457,S01013107
Stirling North Parish Church of Scotland,SC011795,Stirling,FK7 7QW,56.10627843,-3.92886409,S02002448,S01013064
Braehead Toddlers Group,SC013540,Stirling,FK7 7QW,56.10627843,-3.92886409,S02002448,S01013064
Braehead Community Project,SC015632,Stirling,FK7 7QZ,56.10694362,-3.9265495,S02002448,S01013064
2nd Stirling Rainbow Unit,SC036221,Stirling,FK7 7QW,56.10627843,-3.92886409,S02002448,S01013064
"Kilmadock Parish Church of Scotland, Doune",SC012031,Stirling,FK16 6DJ,56.19033107,-4.05092399,S02002457,S01013106
Dunblane Senior Citizens Members Social Club,SC028800,Stirling,FK16 6BJ,56.18933797,-4.05174127,S02002457,S01013106
Kilmadock Development Trust Limited,SC030459,Stirling,FK16 6DF,56.19009088,-4.05294186,S02002457,S01013106
Doune And Deanston Youth Project,SC035606,Stirling,FK16 6DF,56.19009088,-4.05294186,S02002457,S01013106
The Carse of Stirling Partnership,SC045398,Stirling,FK16 6DN,56.1894208,-4.04945718,S02002457,S01013106
Gargunnock Parish Church of Scotland,SC012154,Stirling,FK8 3DB,56.12558107,-4.08214847,S02002438,S01013018
Gargunnock Playgroup,SC013990,Stirling,FK8 3BZ,56.12434881,-4.08965986,S02002438,S01013018
Rosenethe Singers,SC021151,Stirling,FK8 3BB,56.12303469,-4.08978164,S02002438,S01013018
1st Gargunnock Guides,SC035196,Stirling,FK8 3BZ,56.12434881,-4.08965986,S02002438,S01013018
Gargunnock Community Trust Ltd,SC036793,Stirling,FK8 3BA,56.12189189,-4.07120224,S02002438,S01013018
Gargunnock After School Club,SC044199,Stirling,FK8 3BJ,56.12562092,-4.08458016,S02002438,S01013018
Fintry Church Of Scotland,SC012537,Stirling,G63 0XE,56.05368514,-4.22583025,S02002438,S01013015
Menzies Hall Management Committee,SC030984,Stirling,G63 0XE,56.05368514,-4.22583025,S02002438,S01013015
Fintry Development Trust,SC037820,Stirling,G63 0YA,56.05476536,-4.22473613,S02002438,S01013015
Forth Valley Pride (SCIO),SC049986,Stirling,G63 0LP,56.06946132,-4.24397958,S02002438,S01013015
Buchanan Parish Church of Scotland,SC012927,Stirling,G63 0AQ,56.08313208,-4.51470755,S02002436,S01013001
1st Drymen Guides,SC036848,Stirling,G63 0JA,56.08065242,-4.49784638,S02002436,S01013001
1st Buchanan Rainbows,SC043072,Stirling,G63 0JA,56.08065242,-4.49784638,S02002436,S01013001
East Loch Lomond Community Trust (SCIO),SC046891,Stirling,G63 0JQ,56.08376645,-4.53771879,S02002436,S01013001
Edmonstone Public Hall,SC013637,Stirling,G63 9JF,55.98644468,-4.31213056,S02002436,S01013007
2nd Strathblane Brownie Guides,SC037101,Stirling,G63 9DP,55.98726855,-4.30557414,S02002436,S01013007
Strathblane Community Development Trust,SC039328,Stirling,G63 9BP,55.987495,-4.31267427,S02002436,S01013007
Guildry Of Stirling Charitable Trust,SC014263,Stirling,FK9 5NF,56.12590942,-3.91876143,S02002454,S01013093
Blairlogie Community and Heritage Trust,SC033729,Stirling,FK9 5PX,56.15018404,-3.89004285,S02002454,S01013093
Reanimate,SC046370,Stirling,FK9 4LS,56.15394677,-3.9158763,S02002454,S01013093
Dr William Halliday Welsh Educational And Historical Trust,SC014702,Stirling,FK9 4TJ,56.14585227,-3.94048902,S02002453,S01013084
Action In Mind,SC016267,Stirling,FK8 1UR,56.1260467,-3.93300727,S02002454,S01013090
Riverside Naturally ,SC049269,Stirling,FK8 1LG,56.12383656,-3.93067618,S02002454,S01013090
TreeLink Stirling,SC050794,Stirling,FK8 1LG,56.12383656,-3.93067618,S02002454,S01013090
Cowie And Plean Church Of Scotland,SC016296,Stirling,FK7 8DR,56.0639351,-3.8728079,S02002440,S01013027
St Marys Episcopal Church: Dunblane,SC016932,Stirling,FK15 0DW,56.18943967,-3.95509853,S02002455,S01013100
4th/85th Dunblane Scout Group,SC031040,Stirling,FK15 0HQ,56.18969233,-3.96013958,S02002455,S01013100
Cowie Miners Charitable Society,SC017107,Stirling,FK7 7BS,56.08035691,-3.86841416,S02002441,S01013029
Cowie Community Enterprises Ltd,SC018254,Stirling,FK7 7BN,56.08019175,-3.87160409,S02002441,S01013029
Fallin Miners Charitable Society,SC017189,Stirling,FK7 7HT,56.10155773,-3.86471414,S02002442,S01013033
Stirling Spiritualist Church,SC023830,Stirling,FK7 7GZ,56.10423826,-3.86810801,S02002442,S01013033
Cambusbarron Playgroup,SC017459,Stirling,FK7 9NU,56.10859938,-3.96686955,S02002439,S01013022
Cambusbarron Community Centre Management Committee,SC032117,Stirling,FK7 9NU,56.10859938,-3.96686955,S02002439,S01013022
88th Stirling (Braehead) Scout Group,SC035668,Stirling,FK7 9NU,56.10859938,-3.96686955,S02002439,S01013022
Cambusbarron Community Out of School Club,SC044035,Stirling,FK7 9NU,56.10859938,-3.96686955,S02002439,S01013022
Callander Kids,SC018092,Stirling,FK17 8DS,56.23986148,-4.1961163,S02002458,S01013113
2nd Callander Brownie Unit,SC031004,Stirling,FK17 8DW,56.2393392,-4.19414986,S02002458,S01013113
Patrons of Spittals' Hospital Trust,SC019362,Stirling,FK8 1ED,56.12046623,-3.94501776,S02002449,S01013068
Patrons Of Cowane Hospital,SC019364,Stirling,FK8 1ED,56.12046623,-3.94501776,S02002449,S01013068
Support for Families,SC047770,Stirling,FK8 1EA,56.12044386,-3.94358488,S02002449,S01013068
Town Break SCIO,SC020526,Stirling,FK7 7SN,56.1140793,-3.92306204,S02002448,S01013066
Start-Up Stirling,SC035477,Stirling,FK7 7SP,56.11506098,-3.91830171,S02002448,S01013066
"Braehead, Broomridge & District Community Development Trust ",SC046408,Stirling,FK7 7GU,56.10808493,-3.92424252,S02002448,S01013066
Braehead Community Project (SCIO),SC049159,Stirling,FK7 7PX,56.11082804,-3.92870576,S02002448,S01013066
Stirling & District Men's Shed,SC049475,Stirling,FK7 7LD,56.1054636,-3.9206061,S02002448,S01013066
Forth Valley Fencing Club,SC050615,Stirling,FK7 7UU,56.11388292,-3.91372342,S02002448,S01013066
The Stirling Albion Foundation,SC050870,Stirling,FK7 7UJ,56.11910796,-3.91288904,S02002448,S01013066
Community Support Stirling (SCIO),SC051062,Stirling,FK7 7RP,56.11647239,-3.92865044,S02002448,S01013066
St Ninians Baby & Toddler Group,SC021777,Stirling,FK7 9AY,56.10255388,-3.93830937,S02002446,S01013055
Doune Baby & Toddler Group,SC022248,Stirling,FK16 6AJ,56.19109323,-4.075253,S02002457,S01013108
Community Action for Deanston,SC043911,Stirling,FK16 6AP,56.19113093,-4.07675392,S02002457,S01013108
1st Gargunnock Brownie Unit,SC045400,Stirling,FK16 6AD,56.18465997,-4.0655271,S02002457,S01013108
Hillview Community Centre Association,SC024241,Stirling,FK7 9DU,56.09937121,-3.94639751,S02002446,S01013057
Cultenhove Opportunities SCIO,SC040874,Stirling,FK7 9DU,56.09937121,-3.94639751,S02002446,S01013057
Murrayfield United Free Church,SC024521,Stirling,FK7 8LQ,56.09399803,-3.90778533,S02002443,S01013037
Playhaven,SC024576,Stirling,FK8 1SD,56.12967188,-3.94992366,S02002450,S01013074
Ochil Explorers Adventure Club,SC032798,Stirling,FK8 1QD,56.13083807,-3.9466357,S02002450,S01013074
Kinlochard Village Hall (SCIO),SC024887,Stirling,FK8 3TL,56.18841998,-4.4900354,S02002459,S01013118
Strathard Community Trust Limited,SC036450,Stirling,FK8 3TN,56.17466688,-4.49459037,S02002459,S01013118
Royal Scottish Country Dance Society Stirling Branch,SC024993,Stirling,FK15 9JP,56.18707294,-3.97902165,S02002456,S01013104
25th Stirling (Dunblane) Boys' Brigade Company,SC040043,Stirling,FK15 9JR,56.18660876,-3.97658053,S02002456,S01013104
The Bridge of Allan and Dunblane Rotary Charity Trust,SC050998,Stirling,FK15 9AZ,56.19016982,-3.97080066,S02002456,S01013104
Ace Cornton,SC025482,Stirling,FK9 5DD,56.13584906,-3.94000101,S02002451,S01013078
Mclaren Community Leisure Centre Holdings,SC025706,Stirling,FK17 8JP,56.238134,-4.21236451,S02002458,S01013116
Craigard Club,SC029441,Stirling,FK17 8BA,56.24465495,-4.21958413,S02002458,S01013116
Callander Community Development Trust Ltd,SC034462,Stirling,FK17 8BA,56.24465495,-4.21958413,S02002458,S01013116
Callander Kirk Youth Project Charitable Trust,SC036576,Stirling,FK17 8EL,56.24520028,-4.21322411,S02002458,S01013116
Ben Ledi View Community Newspaper SCIO,SC043744,Stirling,FK17 8JP,56.238134,-4.21236451,S02002458,S01013116
St.Ninians Primary Parent Teacher Association,SC026584,Stirling,FK7 9JN,56.11008993,-3.9590329,S02002439,S01013023
Strathfillan Community Development Trust,SC026601,Stirling,FK20 8QN,56.39188432,-4.61673478,S02002459,S01013121
2nd Killin & District Scout Group,SC044994,Stirling,FK20 8RJ,56.38832736,-4.61875907,S02002459,S01013121
Dunblane Youth and Sports Centre Trust,SC027397,Stirling,FK15 9EY,56.18214216,-3.96420173,S02002456,S01013102
4th Dunblane Guide Unit,SC030977,Stirling,FK15 9HB,56.18369637,-3.96592473,S02002456,S01013102
Stirling Methodist Church,SC037707,Stirling,FK15 9DJ,56.18315356,-3.97010255,S02002456,S01013102
Dunblane First Responders,SC042292,Stirling,FK15 9EY,56.18214216,-3.96420173,S02002456,S01013102
Alpha Centre Council,SC027706,Stirling,FK7 7EJ,56.10670526,-3.87313225,S02002442,S01013034
Ochil Community Hall Management Committee (SCIO),SC028132,Stirling,FK8 1QJ,56.13046121,-3.93974572,S02002450,S01013075
Raploch Community Partnership SCIO,SC037761,Stirling,FK8 1RD,56.12956101,-3.94555744,S02002450,S01013075
Fallin Parish Church Of Scotland,SC028465,Stirling,FK7 7TZ,56.0982643,-3.92529592,S02002445,S01013050
2nd Bridge Of Allan Brownie Unit,SC030864,Stirling,FK9 4JR,56.15446841,-3.95655777,S02002453,S01013089
1st Logie Guide Unit,SC031552,Stirling,FK9 4QH,56.15809748,-3.95039781,S02002453,S01013088
3rd Bridge Of Allan Guide Unit,SC031972,Stirling,FK9 4QH,56.15809748,-3.95039781,S02002453,S01013088
So Precious,SC042125,Stirling,FK9 4QA,56.15926275,-3.95229265,S02002453,S01013088
Gartmore Heritage Society,SC032725,Stirling,FK8 3RY,56.12888064,-4.38699005,S02002457,S01013111
Gartmore Community Trust,SC033887,Stirling,FK8 3RW,56.14517435,-4.37956453,S02002457,S01013111
3rd Dunblane Brownie Pack,SC034407,Stirling,FK15 9FD,56.18134615,-3.9780501,S02002456,S01013103
1st Kippen Brownie Pack,SC034414,Stirling,FK8 3DT,56.12789356,-4.1752944,S02002438,S01013016
Friends Of Kippen Kirk Trust,SC034541,Stirling,FK8 3JB,56.12376044,-4.18186677,S02002438,S01013016
Kippen Sports Development Limited,SC040727,Stirling,FK8 3EZ,56.11944149,-4.21296073,S02002438,S01013016
Kippen Village Hall,SC040993,Stirling,FK8 3DT,56.12789356,-4.1752944,S02002438,S01013016
Kippen Initiative Ltd,SC041951,Stirling,FK8 3HT,56.1239493,-4.15370509,S02002438,S01013016
Forth Driving Group RDA SCIO,SC045427,Stirling,FK8 3HS,56.11501596,-4.18593997,S02002438,S01013016
Croftamie Community Trust Limited,SC034918,Stirling,G63 0EU,56.04544422,-4.4459827,S02002436,S01013002
1st Dunblane Ranger Unit,SC035074,Stirling,FK7 7QE,56.11316526,-3.93038285,S02002448,S01013065
Haldane Trust Limited,SC035570,Stirling,FK9 4DX,56.15532617,-3.93977522,S02002453,S01013087
15th Stirling Guide Company,SC035620,Stirling,FK7 0BQ,56.10360514,-3.9302901,S02002445,S01013049
1st Dunblane Rainbows,SC035900,Stirling,FK15 9AJ,56.18796969,-3.97070396,S02002456,S01013101
1st Logie Brownie Unit,SC035951,Stirling,FK9 5LU,56.14009568,-3.9195488,S02002452,S01013080
Broad Street Community Partners,SC036048,Stirling,FK8 1PB,56.12563386,-3.9392774,S02002449,S01013071
15th Stirling Brownies,SC036220,Stirling,FK7 7XS,56.09805581,-3.91385436,S02002445,S01013047
"Friends of the Church of the Holy Rude, Stirling",SC042326,Stirling,FK7 7XB,56.1001296,-3.91572591,S02002445,S01013047
Strathendrick Singers,SC037092,Stirling,G63 0SY,56.07324914,-4.33955131,S02002437,S01013011
Strathendrick Agricultural Society,SC042565,Stirling,G63 0LG,56.06753901,-4.35389004,S02002437,S01013011
1st Logie Rainbow Unit,SC037163,Stirling,FK8 1XJ,56.12700169,-3.927102,S02002454,S01013092
Save Gillies Hill,SC038687,Stirling,FK7 9LE,56.11013769,-3.96845983,S02002439,S01013020
Cornton Action Planning Partnership,SC039158,Stirling,FK9 5BW,56.13323182,-3.93727831,S02002451,S01013077
The Newton Primary School Charitable Trust,SC040122,Stirling,FK15 0DZ,56.19040745,-3.94844338,S02002455,S01013094
1st St Ninians Guides,SC040553,Stirling,FK9 5NT,56.14404581,-3.95020095,S02002453,S01013083
Cambusbarron Community Development Trust,SC041449,Stirling,FK7 9PQ,56.10554566,-3.96619917,S02002439,S01013021
1st Cambusbarron Brownies,SC042298,Stirling,FK7 9PA,56.10713956,-3.96542814,S02002439,S01013021
St Mary's School Bannockburn Parent Council,SC041493,Stirling,FK7 8LW,56.09160602,-3.91369509,S02002443,S01013038
Bannockburn Community Trust,SC045558,Stirling,FK7 8JY,56.09108522,-3.908445,S02002443,S01013038
Monument Performing Arts School,SC041759,Stirling,FK9 5PB,56.13919302,-3.93936475,S02002452,S01013082
Logie Old Graveyard Group SCIO,SC049006,Stirling,FK9 5ER,56.13830134,-3.92686276,S02002452,S01013082
Friends of Plean Country Park (SCIO),SC042176,Stirling,FK7 8AN,56.07201421,-3.88282371,S02002440,S01013025
Help A Hound,SC045405,Stirling,FK7 8HE,56.06844036,-3.93090922,S02002440,S01013025
2nd Bannockburn Brownie Unit,SC042270,Stirling,FK7 8NQ,56.08776058,-3.91654218,S02002443,S01013041
3rd Stirling Rainbows,SC045188,Stirling,FK7 0DG,56.09946894,-3.9315944,S02002445,S01013053
Cowie Rural Action Group,SC045898,Stirling,FK7 7AX,56.08473596,-3.87238702,S02002441,S01013032
Stirling Triathlon Club,SC047501,Stirling,FK7 9JS,56.11081417,-3.96209332,S02002439,S01013024
2nd Bridge of Allan Rainbow Unit,SC048311,Stirling,FK9 5GF,56.13723071,-3.94927639,S02002451,S01013079
Cornton Out of School Care,SC048989,Stirling,FK9 5DZ,56.13850911,-3.94399772,S02002451,S01013079
