Name,Charity Number,Local authority,Postcode,Latitude,Longitude,IntermediateZone2011Code,DataZone2011Code
"St Ayle Parish Church of Scotland, Anstruther and Cellardyke",SC000181,Fife,KY10 2LR,56.21560816,-2.72423051,S02001831,S01009703
Anstruther Harbour Festival Trust,SC046562,Fife,KY10 2NG,56.21271278,-2.72615898,S02001831,S01009703
Pittenweem Community Library and Information Centre,SC047013,Fife,KY10 2LE,56.21334143,-2.72773479,S02001831,S01009703
Kirkcaldy and District Men's Shed,SC048357,Fife,KY10 2LT,56.21501418,-2.72286493,S02001831,S01009703
Victoria Radio Network.,SC000302,Fife,KY2 5QL,56.11166592,-3.18155679,S02001787,S01009493
"Abbotshall Parish Church of Scotland, Kirkcaldy",SC002586,Fife,KY2 5NW,56.10940834,-3.17237014,S02001787,S01009493
Kirkcaldy Music Society,SC002806,Fife,KY2 5NB,56.10658654,-3.18090268,S02001787,S01009493
Friends Of Kirkcaldy Galleries,SC017811,Fife,KY2 5LT,56.10228906,-3.17268425,S02001787,S01009493
Kirkcaldy Choral Union,SC020568,Fife,KY2 5NB,56.10658654,-3.18090268,S02001787,S01009493
Capshard Rainbow Guides Kirkcaldy - District 3,SC035285,Fife,KY2 5NN,56.11136848,-3.17411826,S02001787,S01009493
5th Fife (Khs) Scout Group,SC035501,Fife,KY2 5LX,56.10251519,-3.16968467,S02001787,S01009493
Decimal Club,SC000303,Fife,KY7 6HG,56.18468389,-3.1242516,S02001812,S01009612
East Neuk Baptist Fellowship,SC000433,Fife,KY10 2QL,56.21486311,-2.73174613,S02001831,S01009704
East Neuk Fife Round Table No 1120 - Charitable Fund,SC001047,Fife,KY10 2PZ,56.21443036,-2.73502704,S02001831,S01009704
Anstruther & District Amateur Operatic Society,SC037015,Fife,KY10 2QJ,56.21598024,-2.73426664,S02001831,S01009704
St. Monans Community Trust,SC039444,Fife,KY10 2NL,56.21209917,-2.72966205,S02001831,S01009704
The West Braes Project,SC047249,Fife,KY10 2PH,56.2129511,-2.7299362,S02001831,S01009704
Pittenweem New Town Hall ,SC047861,Fife,KY10 2QS,56.21463087,-2.73151598,S02001831,S01009704
Pittenweem Tennis Club Ltd,SC049465,Fife,KY10 2PZ,56.21443036,-2.73502704,S02001831,S01009704
Dunfermline South Congregation Of Jehovahs Witnesses,SC000596,Fife,KY11 4JJ,56.07437626,-3.42186907,S02001752,S01009336
Touch Trust (Dunfermline),SC048217,Fife,KY11 4JJ,56.07437626,-3.42186907,S02001752,S01009336
St Lukes Episcopal Church: Glenrothes,SC000749,Fife,KY7 4HP,56.19472374,-3.17413357,S02001803,S01009571
Thornton Under 5's,SC000798,Fife,KY7 4UP,56.17422114,-3.16638816,S02001804,S01009577
St Margaret's Parish Church Of Scotland: Glenrothes,SC009845,Fife,KY7 4TR,56.17437843,-3.1687607,S02001804,S01009577
Fife Chinese Older Peoples Association,SC029704,Fife,KY7 4TR,56.17437843,-3.1687607,S02001804,S01009577
Glenrothes Men's Shed,SC047101,Fife,KY7 4TR,56.17437843,-3.1687607,S02001804,S01009577
Cupar & North Fife Preservation Society,SC000813,Fife,KY14 7AH,56.29087101,-3.22892596,S02001824,S01009673
Auchtermuchty Community Centre,SC007951,Fife,KY14 7BY,56.29364865,-3.23421786,S02001824,S01009673
Muchty Monkeys Pre-Nursery Club,SC013292,Fife,KY14 7BY,56.29364865,-3.23421786,S02001824,S01009673
Air Training Corps No 2163 Auchtermuchty Squadron Non - Public Sports & Welfare,SC024609,Fife,KY14 7AB,56.29328672,-3.2308616,S02001824,S01009673
Kingdom Of Fife Group Of Advanced Motorists,SC025300,Fife,KY14 7AJ,56.29249549,-3.23091695,S02001824,S01009673
Auchtermuchty Community Trust,SC043583,Fife,KY14 7BY,56.29364865,-3.23421786,S02001824,S01009673
Auchtermuchty Heritage,SC048894,Fife,KY14 7AB,56.29328672,-3.2308616,S02001824,S01009673
Auchtermuchty Bellvue Colts Football Club,SC049824,Fife,KY14 7BX,56.29450402,-3.23494022,S02001824,S01009673
Inverkeithing Parish Church Of Scotland,SC000968,Fife,KY11 9FF,56.03162167,-3.36873318,S02001765,S01009390
North Queensferry Church Of Scotland,SC007414,Fife,KY11 9FF,56.03162167,-3.36873318,S02001765,S01009390
Kismet Leisure Group,SC037610,Fife,KY11 9GR,56.03032467,-3.37305225,S02001765,S01009390
Cupar YMCA-YWCA,SC001072,Fife,KY15 4LG,56.31937288,-3.01667994,S02001827,S01009689
Cupar Baptist Church,SC003102,Fife,KY15 4BY,56.31950808,-3.01443618,S02001827,S01009689
Christian Outreach Trust ( Cupar ),SC004123,Fife,KY15 4BY,56.31950808,-3.01443618,S02001827,S01009689
Cupar After School Club,SC018266,Fife,KY15 4LG,56.31937288,-3.01667994,S02001827,S01009689
Link,SC027493,Fife,KY15 4BY,56.31950808,-3.01443618,S02001827,S01009689
Triangle Under Fives Group,SC035145,Fife,KY15 4LG,56.31937288,-3.01667994,S02001827,S01009689
Sustainable Cupar (SCIO),SC042695,Fife,KY15 4DZ,56.32181663,-3.01887922,S02001827,S01009689
Ceres & District Community Trust,SC047353,Fife,KY15 4BY,56.31950808,-3.01443618,S02001827,S01009689
Three Estates Cupar ,SC048967,Fife,KY15 4BY,56.31950808,-3.01443618,S02001827,S01009689
Cupar YMCA – YWCA (SCIO) ,SC050208,Fife,KY15 4LG,56.31937288,-3.01667994,S02001827,S01009689
Cupar Kids Club,SC050293,Fife,KY15 4LG,56.31937288,-3.01667994,S02001827,S01009689
LINK- Fife Mental Health Befriending Projects SCIO,SC051094,Fife,KY15 4BY,56.31950808,-3.01443618,S02001827,S01009689
Boarhills And Dunino Parish Church Of Scotland,SC001108,Fife,KY16 8PP,56.31742981,-2.70404136,S02001833,S01009715
Kingsbarns Parish Church of Scotland,SC012192,Fife,KY16 8SU,56.29904367,-2.6573595,S02001833,S01009715
Kingsbarns Village Hall,SC021339,Fife,KY16 8QF,56.29247363,-2.68918725,S02001833,S01009715
Ladislav Holy Memorial Trust,SC027934,Fife,KY16 8SU,56.29904367,-2.6573595,S02001833,S01009715
Cambo Heritage Trust,SC028131,Fife,KY16 8QD,56.29300104,-2.65152025,S02001833,S01009715
Kingsbarns Community Development Trust,SC044166,Fife,KY16 8TL,56.29865977,-2.65690046,S02001833,S01009715
Boarhills Village Hall SCIO,SC047840,Fife,KY16 8PP,56.31742981,-2.70404136,S02001833,S01009715
Boarhills and Dunino Community Trust,SC049130,Fife,KY16 8PP,56.31742981,-2.70404136,S02001833,S01009715
St. Andrews Sailing Club,SC051162,Fife,KY16 8PP,56.31742981,-2.70404136,S02001833,S01009715
Murray Library,SC001142,Fife,KY10 3AR,56.22421667,-2.68781601,S02001832,S01009707
Balmullo Playgroup,SC001280,Fife,KY16 0JF,56.37900022,-2.88862585,S02001838,S01009737
Enable St Andrews & District Branch,SC021055,Fife,KY16 0HT,56.38179615,-2.88838327,S02001838,S01009737
Fife Society For The Blind,SC001354,Fife,KY2 5EF,56.1228729,-3.16332134,S02001793,S01009525
Friends of Rymonth,SC001393,Fife,KY16 9NS,56.34033568,-2.79254383,S02001835,S01009723
University Of St Andrews After Many Days Club,SC004021,Fife,KY16 9QS,56.33986309,-2.7905767,S02001835,S01009723
STAPT Limited,SC011782,Fife,KY16 9PW,56.3407006,-2.79027049,S02001835,S01009723
"The Parish Church of the Holy Trinity, St Andrews (Church of Scotland)",SC017173,Fife,KY16 9QW,56.33968761,-2.79413183,S02001835,S01009723
All Saints Trust,SC022297,Fife,KY16 9AQ,56.34064804,-2.79146647,S02001835,S01009723
8th Fife (St Andrews) Scout Group,SC036238,Fife,KY16 9BE,56.34147739,-2.7896233,S02001835,S01009723
Blind Activities Support Events,SC037538,Fife,KY16 9AQ,56.34064804,-2.79146647,S02001835,S01009723
Blebo Craigs Village Hall Comm,SC001396,Fife,KY15 5UG,56.32562923,-2.92937977,S02001829,S01009695
Kemback Hall,SC048449,Fife,KY15 5UN,56.30930859,-2.94422557,S02001829,S01009695
1st St Andrews Boys Brigade Company,SC001418,Fife,KY16 8XJ,56.32839286,-2.82321603,S02001836,S01009728
St Andrews Play Club,SC034517,Fife,KY16 8QR,56.32879335,-2.82783357,S02001836,S01009728
St Andrews Environmental Protection Association Limited,SC046115,Fife,KY16 8QX,56.32869375,-2.82660238,S02001836,S01009728
Kirkcaldy Amateur Dramatic Society,SC001549,Fife,KY8 1JW,56.17264638,-3.03446093,S02001813,S01009621
Rotary Club Of Leven Charitable Trust Fund,SC016338,Fife,KY8 1JN,56.17280991,-3.03531896,S02001813,S01009621
CLEAR Buckhaven & Methil,SC043573,Fife,KY8 1JY,56.17227614,-3.03253434,S02001813,S01009621
Crail Parish Church Of Scotland,SC001601,Fife,KY10 3TW,56.26200368,-2.62379195,S02001833,S01009714
Crail Town Hall Management Committee,SC021939,Fife,KY10 3TZ,56.25928415,-2.62502291,S02001833,S01009714
Crail Museum and Heritage Centre,SC023505,Fife,KY10 3TL,56.26135009,-2.62512117,S02001833,S01009714
Anstruther Philharmonic Society,SC030614,Fife,KY10 3TT,56.26226798,-2.61946985,S02001833,S01009714
Crail Community Trust,SC040436,Fife,KY10 3TZ,56.25928415,-2.62502291,S02001833,S01009714
1st Fife Virtual Guide Unit,SC051233,Fife,KY10 3SW,56.26302251,-2.61770625,S02001833,S01009714
Strathmiglo Community Association,SC001731,Fife,KY14 7QL,56.27496967,-3.27140647,S02001824,S01009675
Dunshalt Community Association,SC003253,Fife,KY14 7EZ,56.27979836,-3.21283893,S02001824,S01009675
Edenshead Parish Church of Scotland,SC005402,Fife,KY14 7EU,56.28097384,-3.21483056,S02001824,S01009675
Strathmiglo Public Hall,SC034196,Fife,KY14 7QT,56.27653082,-3.26461049,S02001824,S01009675
Kirkcaldy Congregation Of Jehovahs Witnesses,SC001800,Fife,KY1 1QE,56.10574113,-3.16013536,S02001784,S01009479
Kirkcaldy & Dysart Queen Victoria Benevolent Fund,SC003394,Fife,KY1 1RF,56.10639603,-3.15928681,S02001784,S01009479
Youth 1st SCIO,SC006872,Fife,KY1 1XT,56.11005258,-3.16410832,S02001784,S01009479
Fife Shopmobility Limited,SC007215,Fife,KY1 1RQ,56.10925462,-3.15723412,S02001784,S01009479
Fife Alcohol Support Service,SC010422,Fife,KY1 1RW,56.11080175,-3.15705543,S02001784,S01009479
Mrs Catherine Livingstone Charitable Trust,SC010683,Fife,KY1 1RF,56.10639603,-3.15928681,S02001784,S01009479
Express Group (Fife) Limited,SC015338,Fife,KY1 1XT,56.11005258,-3.16410832,S02001784,S01009479
Relationships Scotland - Couple Counselling Fife,SC018273,Fife,KY1 1RW,56.11080175,-3.15705543,S02001784,S01009479
Kirkcaldy People's Club & Institute,SC022015,Fife,KY1 1RL,56.10785825,-3.15953981,S02001784,S01009479
Day Centres Service Limited,SC022522,Fife,KY1 1ET,56.11172482,-3.16304922,S02001784,S01009479
Kingdom Abuse Survivors Project,SC023079,Fife,KY1 1LU,56.10748996,-3.15952873,S02001784,S01009479
"St Bryce Kirk, Church of Scotland, Kirkcaldy",SC031064,Fife,KY1 1ET,56.11172482,-3.16304922,S02001784,S01009479
Kirkcaldy 2 Ranger Guide Unit,SC031200,Fife,KY1 1DB,56.11446272,-3.16332482,S02001784,S01009479
Fife Rape And Sexual Assault Centre,SC033050,Fife,KY1 1LU,56.10748996,-3.15952873,S02001784,S01009479
Greener Kirkcaldy Ltd,SC041412,Fife,KY1 1XT,56.11005258,-3.16410832,S02001784,S01009479
The Adam Smith Global Foundation,SC042981,Fife,KY1 1HL,56.11132937,-3.1563637,S02001784,S01009479
Fife Migrants Forum,SC043053,Fife,KY1 1XT,56.11005258,-3.16410832,S02001784,S01009479
Kings Theatre Kirkcaldy Limited,SC045793,Fife,KY1 1HR,56.11248266,-3.15506354,S02001784,S01009479
Fife Federation of Tenants & Residents Associations,SC046388,Fife,KY1 1ED,56.1108928,-3.16075673,S02001784,S01009479
Fife Centre for Equalities,SC046683,Fife,KY1 1XT,56.11005258,-3.16410832,S02001784,S01009479
Cat and Chat SCIO,SC046991,Fife,KY1 1NH,56.10813775,-3.15752219,S02001784,S01009479
KRFC Blues Limited,SC047751,Fife,KY1 1UR,56.1090685,-3.16555797,S02001784,S01009479
Glenrothes North Congregation Of Jehovahs Witnesses,SC001804,Fife,KY8 4FE,56.19757004,-3.02915251,S02001818,S01009643
3rd Cupar Brownies,SC031285,Fife,KY8 4FT,56.1959538,-3.03655484,S02001818,S01009643
Leven Amateur Musical Association,SC040996,Fife,KY8 4FJ,56.19654787,-3.03428235,S02001818,S01009643
"Creich, Flisk and Kilmany Church of Scotland",SC001907,Fife,KY15 5AL,56.31726909,-3.015751,S02001827,S01009686
Age Concern Cupar (SCIO),SC009599,Fife,KY15 5HE,56.31818086,-3.01522552,S02001827,S01009686
Miss Agnes Walker Trust,SC012336,Fife,KY15 5AS,56.31824179,-3.01217148,S02001827,S01009686
Include Me (SCIO),SC050528,Fife,KY15 5AS,56.31824179,-3.01217148,S02001827,S01009686
Fife Family History Society (SCIO),SC051133,Fife,KY15 5AS,56.31824179,-3.01217148,S02001827,S01009686
Age Concern Newburgh & District,SC001980,Fife,KY14 6AU,56.35236203,-3.23187441,S02001825,S01009678
St Katherines Newburgh Trust,SC011633,Fife,KY14 6AU,56.35236203,-3.23187441,S02001825,S01009678
St Peters and St Mary Capital Fund,SC030625,Fife,KY14 6HH,56.35352814,-3.22208901,S02001825,S01009678
League Of Friends Of Queen Margaret Hospital Dunfermline,SC002069,Fife,KY11 4RZ,56.06340574,-3.42646029,S02001754,S01009342
West Fife Leisure Club,SC020661,Fife,KY11 4QU,56.06216426,-3.43279069,S02001754,S01009342
Ferryfield Playgroup,SC002153,Fife,KY15 4HA,56.31986107,-3.01082387,S02001828,S01009692
St Marys Episcopal Church: Ladybank,SC002166,Fife,KY15 4UE,56.32273252,-2.99686474,S02001828,S01009692
Castlehill Community Assoc,SC007751,Fife,KY15 4HA,56.31986107,-3.01082387,S02001828,S01009692
Cupar Pre School Playgroup,SC014204,Fife,KY15 4LS,56.31934931,-3.01077801,S02001828,S01009692
St James The Great Scottish Episcopal Church: Cupar,SC019080,Fife,KY15 4UE,56.32273252,-2.99686474,S02001828,S01009692
St James Endowment,SC022482,Fife,KY15 4UE,56.32273252,-2.99686474,S02001828,S01009692
St Andrews Free Church of Scotland ,SC045054,Fife,KY15 4HQ,56.321008,-3.00458074,S02001828,S01009692
Castlehill Community Association (SCIO),SC049655,Fife,KY15 4HA,56.31986107,-3.01082387,S02001828,S01009692
County Of Fife Guides Association,SC002196,Fife,KY11 8BH,56.05612602,-3.43741642,S02001758,S01009361
2nd Cowdenbeath Rainbows,SC040895,Fife,KY11 8BH,56.05612602,-3.43741642,S02001758,S01009361
Heart Start,SC002319,Fife,KY16 8LL,56.32364229,-2.77982822,S02001836,S01009727
Heart Start St Andrews And East Neuk Of Fife,SC026527,Fife,KY16 8LL,56.32364229,-2.77982822,S02001836,S01009727
Rhet Fife Countryside Initiative Limited,SC033223,Fife,KY16 8NR,56.31162048,-2.83101811,S02001836,S01009727
2nd St Andrews Rainbow Unit,SC045249,Fife,KY16 8NN,56.31776958,-2.8059959,S02001836,S01009727
Kirkcaldy Congregational Church,SC002321,Fife,KY1 2PN,56.12026938,-3.14675598,S02001794,S01009528
Limekilns Church Of Scotland,SC002435,Fife,KY11 3HT,56.03421499,-3.48104293,S02001743,S01009288
Limekilns Church Toddlers & Playgroup,SC003093,Fife,KY11 3HT,56.03421499,-3.48104293,S02001743,S01009288
Aberdour Shinty Club,SC049022,Fife,KY11 3HL,56.03447744,-3.48387774,S02001743,S01009288
St Andrews Music Club,SC002436,Fife,KY16 8XG,56.32937131,-2.80971742,S02001836,S01009730
St Ninians Parish Church Of Scotland: Glenrothes,SC002472,Fife,KY6 2JL,56.19489351,-3.20596775,S02001800,S01009560
Balmerino Parish Church Of Scotland,SC002542,Fife,DD6 8RZ,56.40323715,-3.00773476,S02001839,S01009743
Forth And Tay Disabled Ramblers,SC033022,Fife,DD6 8RP,56.40193672,-3.01625555,S02001839,S01009743
Morison Duncan Hall Management Committee,SC035014,Fife,DD6 8RS,56.40253483,-3.01013047,S02001839,S01009743
The Admiral Duncan Camperdown Trust,SC042640,Fife,DD6 8RN,56.40987855,-3.01961132,S02001839,S01009743
Morison Duncan Hall Management Committee SCIO,SC051141,Fife,DD6 8RP,56.40193672,-3.01625555,S02001839,S01009743
Kilrenny Parish Church Of Scotland,SC002653,Fife,KY10 3JL,56.23402991,-2.68744344,S02001832,S01009712
North East Fife District Scout Council,SC039363,Fife,KY10 3GZ,56.23493593,-2.68931484,S02001832,S01009712
James and Mary Walker Lifeboat Community Restoration Project,SC045022,Fife,KY10 3JL,56.23402991,-2.68744344,S02001832,S01009712
North East Fife Christian Worker SCIO,SC047364,Fife,KY10 3GZ,56.23493593,-2.68931484,S02001832,S01009712
Friends Of The Buckhaven Theatre,SC002796,Fife,KY8 5TW,56.20587457,-2.99816631,S02001819,S01009650
Buckhaven Baptist Church,SC006862,Fife,KY8 5NG,56.20616889,-3.00176878,S02001819,S01009650
Buckhaven and Wemyss Parish Church of Scotland,SC009495,Fife,KY8 5TW,56.20587457,-2.99816631,S02001819,S01009650
"Drugs, Alcohol and Psychotherapies Limited",SC023317,Fife,KY8 5AQ,56.20241471,-3.00379856,S02001819,S01009650
Kingdom Off Road Motorcycle Club,SC042797,Fife,KY8 5TB,56.20445431,-2.99601774,S02001819,S01009650
East Fife Community Sports Academy SCIO,SC043031,Fife,KY8 5TW,56.20587457,-2.99816631,S02001819,S01009650
Pathhead Parish Church of Scotland,SC002858,Fife,KY1 2AG,56.12226519,-3.14081549,S02001794,S01009527
Fife Forum SCIO,SC022596,Fife,KY1 2NL,56.12287262,-3.14411496,S02001794,S01009527
The Fife Carers Centre,SC029466,Fife,KY1 2NS,56.12206433,-3.14407488,S02001794,S01009527
Kirkcaldy Methodist Church,SC038083,Fife,KY1 2BS,56.12493699,-3.14144154,S02001794,S01009527
80th Fife Scout Group,SC043698,Fife,KY1 2PD,56.12149037,-3.14492643,S02001794,S01009527
Isaac S Mackie Trust Ltd,SC002868,Fife,KY9 1BW,56.19045403,-2.82283724,S02001830,S01009701
East Neuk Trinity Church of Scotland,SC003163,Fife,KY9 1DG,56.19118396,-2.81980738,S02001830,S01009701
The Glasgow Trust for East Neuk Trinity Church of Scotland,SC009491,Fife,KY9 1AQ,56.18795521,-2.83638257,S02001830,S01009701
Elie Harbour Trust Ltd,SC014576,Fife,KY9 1AX,56.1906383,-2.82619278,S02001830,S01009701
Elie Primary School Parent Teacher Association,SC027285,Fife,KY9 1DH,56.19147495,-2.82198895,S02001830,S01009701
Lanchen Greig Trust,SC029333,Fife,KY9 1DH,56.19147495,-2.82198895,S02001830,S01009701
Elie And Earlsferry History Society,SC035015,Fife,KY9 1AZ,56.18947323,-2.83111443,S02001830,S01009701
1st Saline Brownie Guide Unit,SC035035,Fife,KY9 1AX,56.1906383,-2.82619278,S02001830,S01009701
1st A Aberdour Guide Unit,SC035280,Fife,KY9 1AX,56.1906383,-2.82619278,S02001830,S01009701
1st Pittenweem Guide Unit,SC036738,Fife,KY9 1AX,56.1906383,-2.82619278,S02001830,S01009701
East Neuk Literary Festival Limited,SC050266,Fife,KY9 1AP,56.18792755,-2.83515743,S02001830,S01009701
Earlsferry Town Hall Limited,SC050546,Fife,KY9 1AF,56.18888513,-2.83438871,S02001830,S01009701
Tulliallan & Kincardine Parish Church Of Scotland,SC002951,Fife,FK10 4NN,56.06754791,-3.71518229,S02001738,S01009266
Kincardine Old Peoples Welfare Association,SC009782,Fife,FK10 4RZ,56.07054228,-3.71115438,S02001738,S01009266
Tulliallan Family Council,SC014510,Fife,FK10 4PB,56.06672346,-3.71048716,S02001738,S01009266
Kirkcaldy District Scout Council Of The Scout Assoc,SC003204,Fife,KY1 1PN,56.10494826,-3.16798987,S02001783,S01009472
Respite Fife,SC003376,Fife,KY2 5EB,56.1251988,-3.16345591,S02001793,S01009523
St Mary's Episcopal Church: Newport,SC003380,Fife,DD6 8DG,56.4402216,-2.93970087,S02001841,S01009753
Newport On Tay Church Of Scotland,SC006758,Fife,DD6 8DB,56.43989491,-2.9413147,S02001841,S01009753
Harris Academy Former Pupils' Hockey Club,SC050379,Fife,DD6 8HN,56.43364856,-2.9521874,S02001841,S01009753
Markinch & Thornton Parish Church of Scotland,SC003417,Fife,KY7 6YJ,56.21696104,-3.15897858,S02001810,S01009605
Largo Parish Church of Scotland,SC003465,Fife,KY8 6HN,56.21585369,-2.94008801,S02001820,S01009653
St Michael's Episcopal Church: Elie,SC005954,Fife,KY8 6HN,56.21585369,-2.94008801,S02001820,S01009653
Chapel Neighbourhood Centre Management Committee,SC006450,Fife,KY8 6DG,56.21506324,-2.9494689,S02001820,S01009653
Largo Brownies,SC034696,Fife,KY8 6HH,56.21527708,-2.94147668,S02001820,S01009653
1st Largo Rainbow Guide Unit,SC034699,Fife,KY8 6HH,56.21527708,-2.94147668,S02001820,S01009653
Brag Enterprises Ltd,SC003517,Fife,KY5 8BJ,56.15232965,-3.32200645,S02001774,S01009430
Lochore Miners Charitable Society,SC009834,Fife,KY5 8DA,56.15614114,-3.32184758,S02001774,S01009430
Re-Employ,SC046738,Fife,KY5 8BJ,56.15232965,-3.32200645,S02001774,S01009430
Formula 24 Fife (SCIO),SC047394,Fife,KY5 8BJ,56.15232965,-3.32200645,S02001774,S01009430
St Andrews Episcopal Church: St Andrews,SC003632,Fife,KY16 9QF,56.33684006,-2.79544754,S02001835,S01009722
St Andrews Baptist Church: St Andrews,SC008794,Fife,KY16 9EQ,56.33869332,-2.79925507,S02001835,S01009722
St Andrews Congregation Of Jehovahs Witnesses,SC009974,Fife,KY16 9EG,56.33856004,-2.80041693,S02001835,S01009722
Home-Start East Fife,SC010242,Fife,KY16 9EQ,56.33869332,-2.79925507,S02001835,S01009722
Cosmos Centre,SC010828,Fife,KY16 9LB,56.33685343,-2.78773234,S02001835,S01009722
St Andrews: St Leonard's Parish Church of Scotland Congregation,SC013586,Fife,KY16 9JY,56.33633542,-2.79006701,S02001835,S01009722
Pilgrim Care,SC023571,Fife,KY16 9EQ,56.33869332,-2.79925507,S02001835,S01009722
Families First - St Andrews,SC032506,Fife,KY16 9EW,56.33837211,-2.79890866,S02001835,S01009722
The St Andrews Partnership,SC041684,Fife,KY16 9JT,56.33935339,-2.79300874,S02001835,S01009722
St Andrews Voices,SC042900,Fife,KY16 9QF,56.33684006,-2.79544754,S02001835,S01009722
Cowdenbeath Trinity Church of Scotland,SC003799,Fife,KY12 0WQ,56.08713777,-3.4067982,S02001750,S01009325
Ladybank Ladybirds Playgroup,SC003978,Fife,KY15 7LE,56.2760676,-3.12751327,S02001822,S01009665
Ladybank Youth Club,SC009364,Fife,KY15 7LT,56.27534145,-3.12536015,S02001822,S01009665
Cupar Choral Society,SC034678,Fife,KY15 7NX,56.27912953,-3.1336278,S02001822,S01009665
Ladybank Development Trust,SC039436,Fife,KY15 7NX,56.27912953,-3.1336278,S02001822,S01009665
Fife Horn Union Junior Division,SC042192,Fife,KY15 7NA,56.27753131,-3.1276048,S02001822,S01009665
Dunfermline Sound,SC004137,Fife,KY11 4HA,56.06628559,-3.42529771,S02001753,S01009339
Abbeyview Kids Club,SC028224,Fife,KY11 4HA,56.06628559,-3.42529771,S02001753,S01009339
Abbeyview Bowling Club,SC048008,Fife,KY11 4HA,56.06628559,-3.42529771,S02001753,S01009339
Kinglassie Miners Charitable Society,SC004167,Fife,KY5 0XA,56.1741464,-3.2413975,S02001798,S01009545
Mitchell Hall Resource Centre Group,SC022848,Fife,KY5 0XA,56.1741464,-3.2413975,S02001798,S01009545
Abbeyfield Dunfermline Society Ltd,SC004178,Fife,KY12 7QN,56.07201608,-3.44711698,S02001749,S01009316
Dunfermline: St. Margaret’s Community Church of Scotland,SC007080,Fife,KY12 7TU,56.07141378,-3.44330307,S02001749,S01009316
St Peter's Episcopal Church: Inverkeithing,SC017966,Fife,KY11 4YR,56.06853703,-3.44264936,S02001749,S01009316
26th Fife (Viewfield) Scout Group,SC031534,Fife,KY12 7TZ,56.07350855,-3.44397582,S02001749,S01009316
Dunfermline Regeneration Trust,SC049322,Fife,KY12 7QJ,56.07279491,-3.44889732,S02001749,S01009316
Glenrothes Community House,SC004302,Fife,KY6 1JQ,56.19657114,-3.20162055,S02001800,S01009559
Home-Start Glenrothes,SC023590,Fife,KY6 1JQ,56.19657114,-3.20162055,S02001800,S01009559
Cupar Amateur Musical Society,SC004601,Fife,KY15 5BN,56.31606515,-3.00362643,S02001828,S01009693
10th Fife (1st Cupar) Scout Group,SC031406,Fife,KY15 5BN,56.31606515,-3.00362643,S02001828,S01009693
The Dairsie Tots Group,SC040170,Fife,KY15 5BN,56.31606515,-3.00362643,S02001828,S01009693
Glenrothes Central Congregation Of Jehovahs Witnesses,SC004805,Fife,KY15 5RP,56.30750683,-3.05184245,S02001826,S01009681
Lindores Parish Church of Scotland,SC004848,Fife,KY14 6HZ,56.32973181,-3.20138722,S02001824,S01009674
Falkland Parish Church of Scotland,SC012247,Fife,KY14 7ED,56.29763496,-3.25507876,S02001824,S01009674
Cupar St John's and Dairsie United Parish Church of Scotland,SC015721,Fife,KY14 7DQ,56.29281928,-3.22545006,S02001824,S01009674
Friends Of Collessie Church,SC036504,Fife,KY15 7RQ,56.30606793,-3.15580886,S02001824,S01009674
78th Fife (Auchtermuchty) Scout Group,SC040024,Fife,KY14 7EF,56.30242371,-3.23994718,S02001824,S01009674
Collessie Victory Hall,SC047973,Fife,KY15 7RQ,56.30606793,-3.15580886,S02001824,S01009674
Dunfermline United Reformed Church,SC004868,Fife,KY11 9SS,56.03425359,-3.35579429,S02001766,S01009399
United Reformed Church Coaltown,SC014822,Fife,KY11 9SS,56.03425359,-3.35579429,S02001766,S01009399
The Royal Burgh of Inverkeithing Pipe Band,SC028307,Fife,KY11 9XF,56.03264075,-3.35946103,S02001766,S01009399
Exit Community Centre,SC004997,Fife,KY7 4RH,56.18269112,-3.1628913,S02001805,S01009586
91st Fife Scout Group (Glenrothes) Stenton,SC021858,Fife,KY7 4RE,56.18265257,-3.16698226,S02001805,S01009586
Fife Boomerang,SC047698,Fife,KY7 4RH,56.18269112,-3.1628913,S02001805,S01009586
Kincardine Community Association,SC005054,Fife,FK10 4SF,56.06925248,-3.71602913,S02001738,S01009267
Collydean Community Centre,SC005127,Fife,KY7 6UL,56.21280343,-3.1890039,S02001808,S01009596
Fife Shopping And Support Services,SC042624,Fife,KY7 6UG,56.21270555,-3.18796897,S02001808,S01009596
Howe of Fife Parish Church (Church of Scotland),SC005381,Fife,KY15 7QP,56.25682367,-3.12137832,S02001822,S01009662
1st Kettle Guide Unit,SC030839,Fife,KY15 7QR,56.25881942,-3.11927359,S02001822,S01009662
1st Kingskettle Rainbow Unit,SC038070,Fife,KY15 7QR,56.25881942,-3.11927359,S02001822,S01009662
Tayside Institute Community Centre,SC005452,Fife,KY14 6DZ,56.35059191,-3.2444714,S02001825,S01009679
Newburgh Nippers 0-5 Yrs,SC011881,Fife,KY14 6DA,56.3508952,-3.24020928,S02001825,S01009679
Fife Survivors And Users Forum Today,SC023766,Fife,KY14 6AJ,56.35027067,-3.23976829,S02001825,S01009679
Dino Club,SC041322,Fife,KY14 6DA,56.3508952,-3.24020928,S02001825,S01009679
1st North East Fife (Newburgh) Scout Group,SC045336,Fife,KY14 6AH,56.35081459,-3.23748813,S02001825,S01009679
The Dino Club SCIO,SC050080,Fife,KY14 6DA,56.3508952,-3.24020928,S02001825,S01009679
Auchtertool Village Hall,SC005458,Fife,KY2 5XW,56.10254817,-3.25949398,S02001779,S01009457
Auchtertool Playgroup,SC013723,Fife,KY2 5XJ,56.10219336,-3.25197428,S02001779,S01009457
Auchtertool Community Trust,SC049106,Fife,KY2 5XG,56.1085578,-3.24547559,S02001779,S01009457
Cameron Parish Church (Church of Scotland),SC005565,Fife,KY15 5LH,56.2771165,-2.88461377,S02001829,S01009698
Largoward Church of Scotland,SC009474,Fife,KY15 5LH,56.2771165,-2.88461377,S02001829,S01009698
The Callange Trust,SC050424,Fife,KY15 5LD,56.29177325,-2.92480956,S02001829,S01009698
"Bennochy Parish Church of Scotland, Kirkcaldy",SC005628,Fife,KY2 5DE,56.12485042,-3.17084522,S02001790,S01009509
Kirkcaldy YMCA,SC020528,Fife,KY2 5UA,56.12410638,-3.17161084,S02001790,S01009509
Air Training Corps No 1192 (Kirkaldy) Squadron Non-Public Sports & Welfare Funds,SC024596,Fife,KY2 6BB,56.12500068,-3.17583665,S02001790,S01009509
New St Andrews Japan Golf Trust,SC005668,Fife,KY16 9JG,56.34242187,-2.80342592,S02001837,S01009736
The Royal & Ancient Golf Club Of St Andrews Trust,SC007857,Fife,KY16 9JA,56.34294377,-2.8019162,S02001837,S01009736
St Andrews Art Club,SC027622,Fife,KY16 9BP,56.33846267,-2.80157954,S02001837,S01009736
St Andrews Heritage Trust,SC042437,Fife,KY16 9DW,56.33812346,-2.80815588,S02001837,S01009736
St Andrews Community Trust,SC043010,Fife,KY16 9DS,56.33911098,-2.80413277,S02001837,S01009736
New Gilston & Woodside Hall Fund,SC005685,Fife,KY8 5TF,56.262385,-2.91867606,S02001820,S01009651
East Neuk Of Fife Preservation Society,SC010616,Fife,KY8 6JD,56.2172349,-2.90180933,S02001820,S01009651
Kingdom Of Fife Railway Preservation Society,SC020254,Fife,KY8 5NL,56.22097737,-2.99380164,S02001820,S01009651
Fife Employment Access Trust,SC022263,Fife,KY8 5PU,56.20645126,-2.97885296,S02001820,S01009651
Simpson Institute,SC036961,Fife,KY8 6ES,56.22158911,-2.92777869,S02001820,S01009651
St Andrews Angling Club,SC049534,Fife,KY8 5PH,56.25458079,-2.91698799,S02001820,S01009651
Stenton Jubilee Assoc,SC005786,Fife,KY7 4SW,56.17739668,-3.15738314,S02001804,S01009578
Collydean Baptist Church,SC020062,Fife,KY7 4SR,56.17691221,-3.16113792,S02001804,S01009578
Wemyss Charitable Trust,SC005789,Fife,KY12 8HH,56.06293007,-3.58264202,S02001741,S01009279
Dynamic Woods,SC030663,Fife,KY12 8HB,56.07424297,-3.56363317,S02001741,S01009279
1st Cairneyhill Brownie Unit,SC031510,Fife,KY12 8HD,56.06718996,-3.55859273,S02001741,S01009279
Toddlers Fun Club,SC035478,Fife,KY12 8SR,56.06055158,-3.58802131,S02001741,S01009279
St Fillans Church Of Scotland: Aberdour,SC005851,Fife,KY3 0SY,56.0527765,-3.30631444,S02001779,S01009455
Rotary Club Of Burntisland And Kinghorn Trust Fund,SC026105,Fife,KY3 0SS,56.05188158,-3.30851604,S02001779,S01009455
Carnegie Swimming Club,SC030974,Fife,KY3 0TL,56.0510679,-3.30898622,S02001779,S01009455
What's Happening Community Projects (SCIO),SC045475,Fife,KY11 9GZ,56.04619864,-3.34317728,S02001779,S01009455
Aberdour Primary School Parents Association,SC049678,Fife,KY3 0SW,56.05342243,-3.30301245,S02001779,S01009455
Whytes Causeway Baptist Church,SC005860,Fife,KY1 3JD,56.1351344,-3.13469595,S02001795,S01009531
Fife Health Board Endowment Funds,SC011988,Fife,KY1 3NB,56.13715138,-3.14202881,S02001795,S01009531
Nourish,SC043228,Fife,KY1 3WE,56.13618148,-3.14875838,S02001795,S01009531
Nourish Support Centre,SC050063,Fife,KY1 3WE,56.13618148,-3.14875838,S02001795,S01009531
Kingdom Kids Charity SCIO,SC050151,Fife,KY1 3WE,56.13618148,-3.14875838,S02001795,S01009531
Heids and Herts Scotland SCIO,SC051039,Fife,KY1 3WE,56.13618148,-3.14875838,S02001795,S01009531
Benachie Playgroup,SC005943,Fife,KY12 7JA,56.07190145,-3.45381187,S02001747,S01009307
Home-Start Dunfermline,SC006806,Fife,KY12 7AG,56.07195365,-3.46383856,S02001747,S01009307
Dunfermline Gillespie Memorial Church of Scotland,SC011659,Fife,KY12 7AW,56.07243501,-3.46340698,S02001747,S01009307
Norrie McCathie Benevolent Fund,SC028186,Fife,KY12 7JE,56.07162638,-3.45656471,S02001747,S01009307
9th Dunfermline Guide Unit,SC036179,Fife,KY12 0LS,56.07674409,-3.45767366,S02001747,S01009307
Fife Sports And Leisure Trust Limited,SC039464,Fife,KY12 7JA,56.07190145,-3.45381187,S02001747,S01009307
Abbot House (SCIO),SC047777,Fife,KY12 7NE,56.07057387,-3.46274204,S02001747,S01009307
Samaritans of Dunfermline SCIO,SC048206,Fife,KY12 0QX,56.0753436,-3.45146725,S02001747,S01009307
Newcastle Early Learning Nursery,SC005983,Fife,KY6 2PU,56.19299809,-3.2160125,S02001799,S01009550
St Andrews Links Trust,SC006161,Fife,KY16 9SF,56.34482192,-2.8264659,S02001837,S01009734
Strathkinness Parish Church Of Scotland,SC014710,Fife,KY16 9XT,56.33645393,-2.86769272,S02001837,S01009734
Royal Scottish Country Dance Society St Andrews Branch,SC024765,Fife,KY16 9XS,56.33610409,-2.8701757,S02001837,S01009734
4th St Andrews Brownie Unit,SC038069,Fife,KY16 9XS,56.33610409,-2.8701757,S02001837,S01009734
Strathkinness Village Hall,SC039716,Fife,KY16 9XP,56.33514605,-2.87353434,S02001837,S01009734
Strathkinness Community Trust,SC043866,Fife,KY16 9XS,56.33610409,-2.8701757,S02001837,S01009734
Continuing Care Service North East Fife,SC006167,Fife,KY8 6BL,56.21339187,-2.94244623,S02001820,S01009652
Largo Pre-School Playgroup,SC016254,Fife,KY8 6AJ,56.21281216,-2.96057036,S02001820,S01009652
Montrave Hall,SC018989,Fife,KY8 6AH,56.21377439,-2.9558219,S02001820,S01009652
Largo Library and Community Hub,SC047174,Fife,KY8 6BH,56.21287328,-2.95033377,S02001820,S01009652
Largo Communities Together,SC048447,Fife,KY8 6BH,56.21287328,-2.95033377,S02001820,S01009652
Fife Olympiad SCIO,SC006234,Fife,KY6 2RD,56.18400377,-3.18456854,S02001804,S01009576
Crossroads Fife ,SC007781,Fife,KY6 2SS,56.17930272,-3.18194286,S02001804,S01009576
Disability Sport Fife (SCIO),SC048722,Fife,KY6 2RD,56.18400377,-3.18456854,S02001804,S01009576
Abbeyview Day Centre,SC006259,Fife,KY11 4BZ,56.06545733,-3.42465677,S02001753,S01009340
Moonzie Kirk Preservation Trust,SC006365,Fife,KY15 4NE,56.32955479,-3.04555952,S02001826,S01009684
Friends of Craigtoun,SC044249,Fife,KY15 5SX,56.31749509,-2.98442504,S02001826,S01009684
Wormit Parish Church of Scotland,SC006447,Fife,DD6 9LZ,56.44257903,-2.87534919,S02001840,S01009751
1st Tayport Brownie Unit,SC033017,Fife,DD6 9EE,56.44044518,-2.86960722,S02001840,S01009751
37th Fife (1st Tayport) Scout Group,SC039519,Fife,DD6 9NA,56.44287849,-2.87365296,S02001840,S01009751
Viewfield Baptist Church,SC006526,Fife,KY12 7HZ,56.07048214,-3.45530063,S02001747,S01009308
39th Fife Scout Group,SC007504,Fife,KY12 7HY,56.07109781,-3.45490616,S02001747,S01009308
Dunfermline National Spiritualist Church,SC023817,Fife,KY12 7EF,56.07087054,-3.45817481,S02001747,S01009308
Carnock Rainbows,SC037148,Fife,KY12 7HY,56.07109781,-3.45490616,S02001747,S01009308
1st Crossford Rainbow Unit,SC038603,Fife,KY12 7HY,56.07109781,-3.45490616,S02001747,S01009308
Alhambra Theatre Trust,SC039817,Fife,KY12 7NX,56.07008432,-3.4577917,S02001747,S01009308
Viewfield Baptist Church SCIO,SC050750,Fife,KY12 7HZ,56.07048214,-3.45530063,S02001747,S01009308
Tayport Old Peoples Welfare Committee,SC006753,Fife,DD6 9EY,56.44878555,-2.87813622,S02001840,S01009747
Tayport Parish Church of Scotland,SC008659,Fife,DD6 9EY,56.44878555,-2.87813622,S02001840,S01009747
Tayport Old People's Club,SC033127,Fife,DD6 9EY,56.44878555,-2.87813622,S02001840,S01009747
Tayport Community Trust,SC042558,Fife,DD6 9AJ,56.45024428,-2.88147943,S02001840,S01009747
Markinch After School Kids Club (Mask) Ltd,SC006768,Fife,KY7 6AA,56.2025249,-3.13542831,S02001811,S01009608
Star Village Social Committee ,SC048230,Fife,KY7 6EG,56.20450927,-3.13655088,S02001811,S01009608
East Neuk Pre School Playgroup,SC007074,Fife,KY10 3EX,56.22413544,-2.69750708,S02001832,S01009711
Waid Academy Trust,SC017828,Fife,KY10 3EJ,56.22352609,-2.69402869,S02001832,S01009711
The Kilrenny and Anstruther Burgh Collection,SC024532,Fife,KY10 3EX,56.22413544,-2.69750708,S02001832,S01009711
East Neuk Frail Elderly Project,SC028325,Fife,KY10 3EX,56.22413544,-2.69750708,S02001832,S01009711
East Neuk First Responders,SC040477,Fife,KY10 3EX,56.22413544,-2.69750708,S02001832,S01009711
East Neuk Centre Trust,SC041717,Fife,KY10 3EX,56.22413544,-2.69750708,S02001832,S01009711
Anstruther Community Kist,SC043817,Fife,KY10 3EA,56.22286205,-2.70025776,S02001832,S01009711
East Neuk Community Emergency Planning Team,SC050748,Fife,KY10 3EX,56.22413544,-2.69750708,S02001832,S01009711
St Andrew's Erskine Church of Scotland Dunfermline,SC007302,Fife,KY12 0BF,56.0807028,-3.43346279,S02001750,S01009326
5th Dunfermline Rainbow Unit,SC036425,Fife,KY12 0XY,56.07958701,-3.42739571,S02001750,S01009326
Glenrothes Christ's Kirk (Church of Scotland),SC007397,Fife,KY6 3NG,56.20331735,-3.22104603,S02001799,S01009554
Help Fife Animals,SC023126,Fife,KY6 3DA,56.20371099,-3.20381047,S02001799,S01009554
Glenrothes & District Pipe Band 2010,SC049990,Fife,KY6 3DA,56.20371099,-3.20381047,S02001799,S01009554
St Ninians Church Of Scotland: Dunfermline,SC007453,Fife,KY11 4ES,56.06866121,-3.42888731,S02001752,S01009335
Dunfermline Islamic Centre Limited,SC047755,Fife,KY11 4AE,56.06988642,-3.43635437,S02001752,S01009335
Dalgety Bay Youth Association (The Kabin),SC007507,Fife,KY11 9UX,56.02934287,-3.36029187,S02001766,S01009397
Dunfermline Gilbert & Sullivan Society,SC030518,Fife,KY11 9XZ,56.02817776,-3.36408608,S02001766,S01009397
Dalgety Bay Community Woodland Group,SC045205,Fife,KY11 9YU,56.02728052,-3.3598984,S02001766,S01009397
Dalgety Bay Art Club,SC047241,Fife,KY11 9YU,56.02728052,-3.3598984,S02001766,S01009397
Leslie & District Nursing Association,SC007677,Fife,KY6 3DJ,56.20305932,-3.21073751,S02001799,S01009555
Leslie Baptist Church,SC021266,Fife,KY6 3DJ,56.20305932,-3.21073751,S02001799,S01009555
Leslie Baptist Church SCIO,SC050033,Fife,KY6 3DJ,56.20305932,-3.21073751,S02001799,S01009555
Dunfermline St Leonard's Parish Church of Scotland,SC007799,Fife,KY12 0JT,56.08081694,-3.45366563,S02001746,S01009305
Headwell Gospel Hall Assembly of Christians,SC012679,Fife,KY12 0JY,56.07987732,-3.4495167,S02001746,S01009305
Diamond,SC024979,Fife,KY12 0JJ,56.07877243,-3.4525442,S02001746,S01009305
St Margarets Scottish Episcopal Church Rosyth,SC028426,Fife,KY12 0JE,56.07738581,-3.44972841,S02001746,S01009305
Heart and Sound,SC045572,Fife,KY12 0HZ,56.08027718,-3.45448087,S02001746,S01009305
Kinghorn Parish Church of Scotland,SC007848,Fife,KY3 9XP,56.07395193,-3.17903668,S02001782,S01009470
Tayport Sick Comforts Benevolent Association,SC008040,Fife,DD6 9NP,56.44477686,-2.87836816,S02001840,S01009750
Dunfermline Townhill & Kingseat Parish Church of Scotland,SC008085,Fife,KY11 8JW,56.06578429,-3.41498309,S02001751,S01009330
Craw Trust,SC008118,Fife,KY16 9PF,56.34057761,-2.798243,S02001835,S01009726
May Wong Smith Trust,SC008666,Fife,KY16 9AR,56.34289569,-2.79403672,S02001835,S01009726
Hope Park and Martyrs' Parish Church St Andrews,SC014934,Fife,KY16 9UY,56.34005576,-2.79975268,S02001835,S01009726
The Woodcock Bequest,SC014963,Fife,KY16 9PF,56.34057761,-2.798243,S02001835,S01009726
St Andrews Harbour Trust,SC023557,Fife,KY16 9PF,56.34057761,-2.798243,S02001835,S01009726
Kate Kennedy Trust,SC026695,Fife,KY16 9HJ,56.34097257,-2.80108218,S02001835,S01009726
The Lumsden Club,SC040365,Fife,KY16 9XB,56.34041676,-2.80089259,S02001835,S01009726
The Hamish McHamish Foundation,SC045383,Fife,KY16 9PF,56.34057761,-2.798243,S02001835,S01009726
Lady Margaret Skiffington Trust SCIO ,SC048388,Fife,KY16 9PF,56.34057761,-2.798243,S02001835,S01009726
The Pitcairn Trust,SC008142,Fife,KY15 4RP,56.34140948,-2.93730206,S02001829,S01009697
Dairsie War Memorial Hall Society,SC012638,Fife,KY15 4SU,56.34368247,-2.94911931,S02001829,S01009697
St Andrews Chorus,SC025432,Fife,KY15 4RP,56.34140948,-2.93730206,S02001829,S01009697
2nd Cupar Rainbow Unit,SC035850,Fife,KY15 4SU,56.34368247,-2.94911931,S02001829,S01009697
Methil Congregation Of Jehovahs Witnesses,SC008160,Fife,KY8 5JT,56.20589335,-3.05225013,S02001821,S01009657
Kennoway Carnival Committee,SC013494,Fife,KY8 5LY,56.20367678,-3.0519315,S02001821,S01009657
Dunnikier Park Pre School Playgroup,SC008386,Fife,KY2 6JD,56.13951863,-3.17700408,S02001791,S01009512
Rosyth District Scout Council,SC008476,Fife,KY11 9SW,56.03364238,-3.34596689,S02001766,S01009395
Dalgety Parish Church Of Scotland,SC020926,Fife,KY11 9UY,56.03687158,-3.35713804,S02001766,S01009395
Auchtermuchty Theatre Group,SC008546,Fife,KY14 7DZ,56.29431588,-3.23758405,S02001824,S01009672
Auchtermuchty Seniors’ Club,SC041319,Fife,KY14 7LA,56.29095643,-3.24107835,S02001824,S01009672
James Scott Charitable Trust,SC041648,Fife,KY14 7EB,56.29198339,-3.24170945,S02001824,S01009672
"Dolphin Centre Organisation,Tayport",SC008688,Fife,DD6 9EW,56.44599208,-2.87803933,S02001840,S01009749
St Margarets Episcopal Church: Tayport,SC008963,Fife,DD6 9HW,56.44893458,-2.88372028,S02001840,S01009749
Tayport Playgroup,SC010712,Fife,DD6 9JY,56.44605454,-2.88063621,S02001840,S01009749
King Street United Free Church,SC016463,Fife,DD6 9JE,56.4470347,-2.88304351,S02001840,S01009749
Tayport Tennis Club,SC047926,Fife,DD6 9DL,56.44571478,-2.87913599,S02001840,S01009749
Safe Space Ltd,SC008695,Fife,KY11 3BZ,56.06062388,-3.4469792,S02001758,S01009360
Bayside Football Club,SC041746,Fife,KY11 8DR,56.05936468,-3.44017078,S02001758,S01009360
Pitreavie PTC,SC047464,Fife,KY11 8FD,56.06054366,-3.43383874,S02001758,S01009360
Thornton Pensioners Welfare Comm,SC008697,Fife,KY1 4EB,56.16381359,-3.14748993,S02001798,S01009548
"Kirkcaldy Squash, Racketball & Table Tennis Club",SC042576,Fife,KY1 4DU,56.16486246,-3.14774666,S02001798,S01009548
Friends Of The Byre Theatre,SC008955,Fife,KY15 4DJ,56.32116358,-3.01305724,S02001828,S01009690
Dysart St Clair Church of Scotland ,SC008991,Fife,KY1 2TD,56.12602611,-3.12458245,S02001796,S01009538
Later Life Choices Glenrothes LTD,SC009113,Fife,KY6 1AE,56.1960569,-3.18695462,S02001801,S01009562
58th Fife Scout Group,SC031006,Fife,KY6 1ET,56.19691101,-3.18783519,S02001801,S01009562
Aberdour Day Care Association,SC009281,Fife,KY3 0XF,56.05813892,-3.29883558,S02001779,S01009454
Aberdour Players,SC034270,Fife,KY3 0XG,56.05808415,-3.29806291,S02001779,S01009454
Aberdour Amenities Group,SC036862,Fife,KY3 0XP,56.05834009,-3.2950845,S02001779,S01009454
66th Fife (St Fillans) Aberdour Scout Group,SC036952,Fife,KY3 0XF,56.05813892,-3.29883558,S02001779,S01009454
1st Aberdour Rainbow Unit,SC050541,Fife,KY3 0XF,56.05813892,-3.29883558,S02001779,S01009454
Seal Dunfermline,SC009294,Fife,KY12 7QX,56.07458335,-3.44427308,S02001746,S01009303
Dunfermline Advocacy (SCIO),SC021638,Fife,KY12 7QX,56.07458335,-3.44427308,S02001746,S01009303
Dunfermline Athletic Girls Football Club,SC037823,Fife,KY12 0AQ,56.07681965,-3.44896806,S02001746,S01009303
Jenny Lee Foundation (SCIO),SC049957,Fife,KY12 0AD,56.07567615,-3.44916613,S02001746,S01009303
Friends Of Victoria and Whyteman's Brae Hospitals,SC009369,Fife,KY1 1HB,56.11345603,-3.15858246,S02001784,S01009477
Abdie Holiday Cottage Trust,SC013118,Fife,KY1 1DL,56.11411788,-3.16082169,S02001784,S01009477
Auchtertool  Kirk (Church of Scotland),SC025310,Fife,KY1 1DN,56.1151672,-3.15911637,S02001784,S01009477
16th Kirkcaldy Guide Unit,SC046985,Fife,KY1 1DN,56.1151672,-3.15911637,S02001784,S01009477
Bat's Wood Growing Space & Bike Track (SCIO),SC049338,Fife,KY1 1DP,56.11597269,-3.16041114,S02001784,S01009477
Fife Writes,SC049857,Fife,KY1 1EH,56.11185085,-3.15824476,S02001784,S01009477
Fife Steel Basketball Club,SC050337,Fife,KY1 1HG,56.11508709,-3.15711973,S02001784,S01009477
3rd Fife Scout Group,SC009554,Fife,KY11 8FY,56.0717418,-3.4079079,S02001751,S01009328
Air Training Corps No 0859 Dalgety Marconi Squadron Non - Public Sports & Welfare Funds,SC024612,Fife,KY11 8JL,56.06912438,-3.40577234,S02001751,S01009328
19th Dunfermline Guide Unit,SC033678,Fife,KY11 8FY,56.0717418,-3.4079079,S02001751,S01009328
"Wellesley Parish Church of Scotland, Methil",SC009581,Fife,KY8 3DG,56.1818006,-3.02167413,S02001815,S01009634
Levenmouth Community Safety Panel,SC027275,Fife,KY8 3DF,56.18230335,-3.0238946,S02001815,S01009634
Dunfermline North Congregation Of Jehovahs Witnesses,SC010104,Fife,KY12 7SQ,56.07132183,-3.43886571,S02001749,S01009317
10th Dunfermline Brownies,SC034933,Fife,KY12 7TS,56.07130945,-3.43529883,S02001749,S01009317
Dunfermline Reactive Rugby Charity,SC040744,Fife,KY12 7SY,56.07255728,-3.43308,S02001749,S01009317
St Peters Episcopal Church: Kirkcaldy,SC010443,Fife,KY2 6HT,56.13573865,-3.17671156,S02001791,S01009510
Kirkcaldy 3 Glenbervie Rainbow Unit,SC035276,Fife,KY2 6SX,56.13382052,-3.17243728,S02001791,S01009510
St Serfs Episcopal Church: Burntisland,SC010577,Fife,KY12 0XH,56.08086622,-3.43949469,S02001750,S01009327
Rio Centre Organisation,SC010648,Fife,DD6 8AH,56.44026185,-2.94031819,S02001841,S01009754
1st Newport Brownie Unit,SC031666,Fife,DD6 8DW,56.44149108,-2.93459057,S02001841,S01009754
The Sunrise Charitable Trust for Newport Wormit and Forgan,SC050902,Fife,DD6 8DL,56.43886979,-2.93668329,S02001841,S01009754
Carnock And Oakley Church Of Scotland,SC010676,Fife,KY12 8NJ,56.06429147,-3.49435525,S02001743,S01009289
Crossford Playgroup,SC017226,Fife,KY12 8NL,56.06378023,-3.49724268,S02001743,S01009289
Crossford Village Hall,SC025358,Fife,KY12 8PX,56.06435643,-3.49789144,S02001743,S01009289
Dunfermline District Scout Council,SC031054,Fife,KY12 8YB,56.06419127,-3.49075346,S02001743,S01009289
St Johns Episcopal Church: Pittenweem,SC010982,Fife,KY10 3FP,56.21974169,-2.70861835,S02001832,S01009709
Anstruther Improvements Association,SC016109,Fife,KY10 3DJ,56.22198286,-2.70477325,S02001832,S01009709
Ovenstone Artists,SC032672,Fife,KY10 3BU,56.22105795,-2.7109648,S02001832,S01009709
Kelty Church Of Scotland,SC011004,Fife,KY4 0BN,56.13311717,-3.37645682,S02001773,S01009425
The Fife Agricultural Association,SC011016,Fife,KY15 5PQ,56.27661884,-3.02592945,S02001821,S01009661
Pitcorthie Playgroup,SC011344,Fife,KY11 8QG,56.04960584,-3.41927156,S02001757,S01009358
40th Fife (Touch) Scout Group,SC013446,Fife,KY11 8QG,56.04960584,-3.41927156,S02001757,S01009358
West Fife Enterprise Ltd,SC017704,Fife,KY11 8SX,56.05052302,-3.41452049,S02001757,S01009358
Children with Support Needs In Pre-school (CSNIPs),SC027670,Fife,KY11 8QG,56.04960584,-3.41927156,S02001757,S01009358
Fife Bird Club,SC029686,Fife,KY11 8TD,56.05022269,-3.41876436,S02001757,S01009358
West Fife Islamic Education and Welfare Centre Ltd ,SC049204,Fife,KY11 8SZ,56.05059678,-3.41278911,S02001757,S01009358
Kirkcaldy Gilbert & Sullivan Society,SC011461,Fife,KY1 1UD,56.0925311,-3.16509041,S02001783,S01009474
Disabilities Fife,SC026112,Fife,KY1 1TE,56.09827407,-3.16494238,S02001783,S01009474
Kirkcaldy Civic Society,SC011554,Fife,KY1 3BW,56.12973269,-3.1348747,S02001796,S01009540
Frontline Fife Homelessness Services,SC021832,Fife,KY1 3DJ,56.128568,-3.13548391,S02001796,S01009540
Dysart Trust,SC033137,Fife,KY1 3BN,56.12892853,-3.13438445,S02001796,S01009540
Kirkcaldy Foodbank,SC044446,Fife,KY1 3BW,56.12973269,-3.1348747,S02001796,S01009540
Kinghorn Community Centre Management Committee,SC011592,Fife,KY3 9SS,56.06850039,-3.17594672,S02001782,S01009468
Kinghorn Community Library,SC046860,Fife,KY3 9SS,56.06850039,-3.17594672,S02001782,S01009468
Kirkcaldy Canoe Club,SC050692,Fife,KY3 9UY,56.07076676,-3.17855387,S02001782,S01009468
Kinghorn Childrens Gala Comm,SC011609,Fife,KY3 9RG,56.0652987,-3.17907765,S02001782,S01009467
6th Fife Scout Group,SC045648,Fife,KY3 9SE,56.06405732,-3.17828486,S02001782,S01009467
Kinghorn Coastal Rowing Club,SC047106,Fife,KY3 9SP,56.06533113,-3.17662118,S02001782,S01009467
Roots & Resilience (SCIO),SC051229,Fife,KY3 9RG,56.0652987,-3.17907765,S02001782,S01009467
Ferry-Port-On-Craig Commonty Fund,SC011665,Fife,DD6 9PQ,56.44015362,-2.8841652,S02001839,S01009742
Fife Women's Aid,SC011689,Fife,KY6 2AL,56.18887108,-3.1820276,S02001802,S01009565
Glenrothes Art Club,SC024072,Fife,KY6 2AL,56.18887108,-3.1820276,S02001802,S01009565
Donaldson Leadership Academy,SC039710,Fife,KY6 2AG,56.19029795,-3.18033117,S02001802,S01009565
Glenrothes Art Club (SCIO),SC049835,Fife,KY6 2AL,56.18887108,-3.1820276,S02001802,S01009565
Fife Voluntary Action,SC028457,Fife,KY6 2AL,56.18887108,-3.1820276,S02001802,S01009565
Disabled Persons Housing Service (Fife) Limited,SC032589,Fife,KY6 2AL,56.18887108,-3.1820276,S02001802,S01009565
Glenrothes & District Foodbank Community Project,SC045445,Fife,KY6 2AL,56.18887108,-3.1820276,S02001802,S01009565
"Linktown Church of Scotland, Kirkcaldy",SC012039,Fife,KY1 1NY,56.10662609,-3.164439,S02001784,S01009480
Linktown Playgroup,SC013405,Fife,KY1 1NY,56.10662609,-3.164439,S02001784,S01009480
Home-Start Kirkcaldy,SC020659,Fife,KY1 1YA,56.1089623,-3.16348044,S02001784,S01009480
FIFE INTENSIVE REHABILITATION AND SUBSTANCE USE TEAM (FIRST) LIMITED,SC034720,Fife,KY1 1YA,56.1089623,-3.16348044,S02001784,S01009480
Fife Day Care Services Ltd,SC012298,Fife,KY4 9FE,56.1200899,-3.33870633,S02001771,S01009417
Alexander Mitchell Trust,SC012614,Fife,KY12 9US,56.11742082,-3.5804879,S02001740,S01009273
Saline & Blairingone Parish Church Of Scotland,SC013688,Fife,KY12 9UJ,56.11697525,-3.57808915,S02001740,S01009273
Kirkcaldy: Templehall and Torbain United Parish (Church of Scotland),SC012756,Fife,KY2 6PS,56.13310934,-3.1932201,S02001792,S01009515
West Baptist Church,SC012839,Fife,KY12 9AZ,56.08131704,-3.49083643,S02001744,S01009294
Cairneyhill Parish Church Of Scotland,SC012892,Fife,KY12 9JH,56.08422198,-3.54182791,S02001740,S01009276
Dunfermline Reign Basketball Club,SC048798,Fife,KY12 9JE,56.08532442,-3.54707898,S02001740,S01009276
Cupar Old & St Michael of Tarvit Parish Church (of Scotland),SC013123,Fife,KY15 5DB,56.318179,-3.00554116,S02001828,S01009691
League Of Friends Of Adamson Hospital,SC014565,Fife,KY15 5JF,56.31340454,-3.01039462,S02001828,S01009691
3rd Cupar Guide Unit,SC033585,Fife,KY15 5JF,56.31340454,-3.01039462,S02001828,S01009691
Drop-In At St John's Group,SC034934,Fife,KY15 5US,56.31761047,-3.01026321,S02001828,S01009691
Cupar Heritage,SC043605,Fife,KY15 5HX,56.31728707,-3.0091553,S02001828,S01009691
Dunfermline North Parish Church of Scotland,SC013226,Fife,KY12 0LJ,56.07531101,-3.45956361,S02001745,S01009301
Arthritis Support Against Pain ( A.S.A.P.) West Fife,SC028605,Fife,KY12 0LJ,56.07531101,-3.45956361,S02001745,S01009301
Fairway Fife,SC040558,Fife,KY12 0LW,56.07626792,-3.46070842,S02001745,S01009301
Abbeyfield Kirkcaldy Society Ltd,SC013525,Fife,KY2 5HY,56.1192052,-3.16636313,S02001785,S01009481
Care and Share Companionship (SCIO),SC048873,Fife,KY2 5HR,56.12028846,-3.16678195,S02001785,S01009481
Rosyth Parish Church of Scotland,SC013620,Fife,KY11 2PH,56.03934428,-3.42160748,S02001761,S01009373
"Trinity Church of Scotland, Leslie",SC014025,Fife,KY6 3BP,56.19979691,-3.21904833,S02001799,S01009553
Cowdenbeath Congregation Of Jehovahs Witnesses,SC014086,Fife,KY4 9NA,56.11377173,-3.34545056,S02001771,S01009415
Home Start Cowdenbeath Area Ltd,SC017718,Fife,KY4 9NH,56.11145869,-3.34414765,S02001771,S01009415
Lochgelly and District Amateur Musical Association (LADAMA),SC049371,Fife,KY4 9BD,56.11555467,-3.3442744,S02001771,S01009415
Newcraigs Evangelical Church,SC014189,Fife,KY2 6TY,56.12361183,-3.20249723,S02001788,S01009498
Beveridge Park Bowling Club,SC048513,Fife,KY2 6TZ,56.12390146,-3.20228106,S02001788,S01009498
Kirkcaldy Community Football Partnership SCIO,SC051303,Fife,KY2 6UA,56.12381237,-3.19943102,S02001788,S01009498
St Finnians Scottish Episcopal Church Lochgelly: Lochgelly,SC014224,Fife,KY4 9EZ,56.12202432,-3.34673602,S02001771,S01009418
Cottage Family Centre,SC014271,Fife,KY2 6LH,56.12470186,-3.18641249,S02001789,S01009501
Templehall Gala Committee,SC047853,Fife,KY2 6LH,56.12470186,-3.18641249,S02001789,S01009501
13th Fife (Rosyth Methodist) Scout Group,SC014318,Fife,KY11 8LU,56.05668719,-3.39637498,S02001756,S01009353
Dunfermline Junior Chorus,SC036854,Fife,KY11 8LG,56.05416555,-3.39369854,S02001756,S01009353
19th A Dunfermline Unit,SC039213,Fife,KY11 8LR,56.05541176,-3.39314935,S02001756,S01009353
Aberdour and Dalgety Bay District,SC040304,Fife,KY11 8LR,56.05541176,-3.39314935,S02001756,S01009353
"The Redeemed Christian Church of God, Covenant Restoration Assembly, Dunfermline. Fife",SC050792,Fife,KY11 8ZW,56.05283898,-3.39101732,S02001756,S01009353
Fife Street Pastors,SC050954,Fife,KY11 8LG,56.05416555,-3.39369854,S02001756,S01009353
Burntisland Playgroup,SC014372,Fife,KY3 9HA,56.06570723,-3.227485,S02001781,S01009464
Burntisland Parish Church of Scotland,SC016418,Fife,KY3 9HN,56.06604226,-3.23353505,S02001781,S01009464
"Toll Community Centre, Burntisland",SC016430,Fife,KY3 9HA,56.06570723,-3.227485,S02001781,S01009464
Burntisland Out of School Service,SC043503,Fife,KY3 9HA,56.06570723,-3.227485,S02001781,S01009464
Culross & Torryburn Church Of Scotland,SC015149,Fife,KY4 8AX,56.08530033,-3.36801709,S02001768,S01009407
Support Culross Abbey Regeneration Trust,SC039273,Fife,KY4 8AX,56.08530033,-3.36801709,S02001768,S01009407
Fife Children's Clothing Bank ,SC045469,Fife,KY4 8BQ,56.0840263,-3.37189301,S02001768,S01009407
Monimail Parish (Church of Scotland),SC015182,Fife,KY15 7RR,56.31679647,-3.12253768,S02001822,S01009664
Letham Village Hall,SC027010,Fife,KY15 7RW,56.31719034,-3.12170854,S02001822,S01009664
Queen Margaret Hospice Garden Group,SC049491,Fife,KY15 7TG,56.25540569,-3.06108191,S02001822,S01009664
Monimail Tower Project Ltd,SC049887,Fife,KY15 7RJ,56.3147525,-3.13583103,S02001822,S01009664
Pittenweem Church Of Scotland,SC015271,Fife,KY10 3AH,56.22602438,-2.68425183,S02001832,S01009708
Carnbee Church Of Scotland,SC016744,Fife,KY10 3AH,56.22602438,-2.68425183,S02001832,S01009708
Burgesses And Trades Poor Box Of Anstruther Easter Friendly Society,SC031937,Fife,KY10 3BD,56.2257587,-2.68355359,S02001832,S01009708
East Neuk Lighthouse,SC039466,Fife,KY10 3AN,56.22574767,-2.68392434,S02001832,S01009708
Anstruther Tennis Club,SC044813,Fife,KY10 3YL,56.2292568,-2.6894709,S02001832,S01009708
Pittenweem Fishermen's Memorial Association,SC047228,Fife,KY10 3AL,56.22714094,-2.68380401,S02001832,S01009708
The Cellardyke Trust [SCIO],SC049941,Fife,KY10 3BD,56.2257587,-2.68355359,S02001832,S01009708
Linton Lane Centre SCIO,SC015342,Fife,KY2 6LF,56.12353477,-3.1872452,S02001788,S01009499
Leuchars: St Athernase Church of Scotland,SC015677,Fife,KY16 0BP,56.38636196,-2.90922066,S02001839,S01009744
Balmullo Village Hall Organisation,SC022749,Fife,KY16 0DA,56.38075653,-2.93088395,S02001839,S01009744
1st Wormit Guides,SC033030,Fife,KY16 0BX,56.41451005,-2.91781789,S02001839,S01009744
Carnegie Dunfermline Trust,SC015710,Fife,KY12 8AW,56.07069595,-3.47513259,S02001745,S01009299
Smeaton Community Association,SC015823,Fife,KY1 2LT,56.12876697,-3.15376595,S02001793,S01009521
Carnegie Youth Theatre,SC015973,Fife,KY11 8HX,56.05719419,-3.41418664,S02001757,S01009359
Duloch Juniors FC,SC046244,Fife,KY11 8HG,56.05904794,-3.41394938,S02001757,S01009359
St Andrews League Of Hospital Friends,SC016084,Fife,KY16 8SQ,56.32863299,-2.8168011,S02001836,S01009729
Crail Preservation Society,SC016960,Fife,KY16 8XS,56.3278274,-2.82042241,S02001836,S01009729
Friends Of Holy Trinity,SC034812,Fife,KY16 8RE,56.32899338,-2.82208077,S02001836,S01009729
Dalgety Bay Day-Care Association,SC016093,Fife,KY11 9LY,56.04215779,-3.34375921,S02001767,S01009402
4th Dalgety Bay Brownies Unit,SC039281,Fife,KY11 9LR,56.04037971,-3.34201196,S02001767,S01009402
Wormit Playgroup,SC016310,Fife,DD6 8NQ,56.42990985,-2.96858435,S02001841,S01009756
Maude Pilkington Trust For The Benefit Of The Community Of Newport-On-Tay,SC020900,Fife,DD6 8NL,56.42853105,-2.96681437,S02001841,S01009756
Wormit Toddlers Group,SC031267,Fife,DD6 8NQ,56.42990985,-2.96858435,S02001841,S01009756
"St Columba's Parish Church of Scotland, Glenrothes",SC016386,Fife,KY6 1BN,56.19718032,-3.17941438,S02001801,S01009563
North Queensferry Community Centre,SC016469,Fife,KY11 1JD,56.01287343,-3.39873937,S02001763,S01009385
North Queensferry Heritage Trust,SC019966,Fife,KY11 1HE,56.01433381,-3.39356275,S02001763,S01009385
68th Fife Scouts (Inverkeithing),SC033406,Fife,KY11 1EW,56.01530281,-3.39130371,S02001763,S01009385
North Queensferry Gala Committee,SC043097,Fife,KY11 1EW,56.01530281,-3.39130371,S02001763,S01009385
North Queensferry Community Complex,SC050448,Fife,KY11 1JD,56.01287343,-3.39873937,S02001763,S01009385
Freuchie Parish Church of Scotland,SC016622,Fife,KY15 7EY,56.248328,-3.15895803,S02001823,S01009668
Lumsden Memorial Hall,SC031733,Fife,KY15 7EY,56.248328,-3.15895803,S02001823,S01009668
Freuchie in Flower (SCIO),SC051196,Fife,KY15 7ES,56.24793203,-3.16189934,S02001823,S01009668
"Kennoway, Windygates and Balgonie: St Kenneth's Church of Scotland",SC016733,Fife,KY7 6AQ,56.20030188,-3.13191335,S02001811,S01009609
Markinch Amateur Operatic Society,SC025712,Fife,KY7 6AL,56.19999306,-3.13325816,S02001811,S01009609
Ladybank Forest Users Group,SC034652,Fife,KY7 6EX,56.20346717,-3.13065258,S02001811,S01009609
Markinch District Community Choir,SC042719,Fife,KY7 6DY,56.20610613,-3.13192317,S02001811,S01009609
The Abbey Church of Dunfermline (Church of Scotland),SC016883,Fife,KY11 8BA,56.05764074,-3.42846356,S02001757,S01009355
Falkland Society,SC017201,Fife,KY15 7BG,56.25224237,-3.20720588,S02001823,S01009671
Falkland Community Development Trust,SC046949,Fife,KY15 7BX,56.25264168,-3.2067988,S02001823,S01009671
Falkland Gardening Group,SC047476,Fife,KY15 7BX,56.25264168,-3.2067988,S02001823,S01009671
Falkland Tennis Club SCIO,SC050989,Fife,KY15 7DB,56.2542085,-3.20460453,S02001823,S01009671
Pathhead Feuars Trust,SC017256,Fife,KY1 3DA,56.12428556,-3.1390093,S02001794,S01009529
35th Fife (Dysart) Scout Group,SC035216,Fife,KY1 3DD,56.12596854,-3.13088686,S02001794,S01009529
"Ceres, Kemback & Springfield Church of Scotland",SC017442,Fife,KY15 5NP,56.29049439,-2.97211478,S02001829,S01009696
Fife Folk Museum Trust,SC020920,Fife,KY15 5NF,56.29209085,-2.97018423,S02001829,S01009696
Craigrothie Village Hall,SC033525,Fife,KY15 5PZ,56.28754223,-3.00316954,S02001829,S01009696
Royal British Legion Scotland Ceres Branch,SC034736,Fife,KY15 5LX,56.29546783,-2.98061082,S02001829,S01009696
70th Fife (Ceres) Scout Group,SC035466,Fife,KY15 5LT,56.29610334,-2.98204901,S02001829,S01009696
Cupar Youth Musical Theatre,SC041534,Fife,KY15 5NL,56.29125683,-2.9688383,S02001829,S01009696
Ceres Highland Games Limited,SC042893,Fife,KY15 5PT,56.28449382,-2.96044525,S02001829,S01009696
BREABADAIR SCIO,SC048941,Fife,KY15 5NF,56.29209085,-2.97018423,S02001829,S01009696
The Village Cafe - Ceres Community Cafe,SC049661,Fife,KY15 5NP,56.29049439,-2.97211478,S02001829,S01009696
Inverkeithing Baptist Church,SC017725,Fife,KY11 1DF,56.03444718,-3.39404691,S02001764,S01009389
Hyperclub,SC046916,Fife,KY11 1ES,56.03299309,-3.39311179,S02001764,S01009389
Lochgelly Band,SC017800,Fife,KY5 9DD,56.12927514,-3.30662267,S02001777,S01009446
Glenrothes Church Of Christ,SC017922,Fife,KY7 6BH,56.20085908,-3.14069813,S02001811,S01009610
Markinch Town Hall Management Committee,SC022571,Fife,KY7 6BA,56.1999315,-3.14092848,S02001811,S01009610
Royal Scottish Country Dance Society Kirkcaldy Branch,SC024942,Fife,KY7 6BA,56.1999315,-3.14092848,S02001811,S01009610
Royal British Legion Scotland Glenrothes Branch,SC017940,Fife,KY7 5JB,56.19320176,-3.16022801,S02001803,S01009574
Fife Gingerbread,SC024254,Fife,KY7 5QF,56.19793496,-3.1604354,S02001803,S01009574
YMCA Glenrothes ,SC025599,Fife,KY7 5PP,56.19735767,-3.17210273,S02001803,S01009574
Citizens Advice And Rights Fife Limited,SC027015,Fife,KY7 5QF,56.19793496,-3.1604354,S02001803,S01009574
Bikeworks Fife Ltd,SC039769,Fife,KY7 5QR,56.19891501,-3.17179565,S02001803,S01009574
Glenrothes & Area Heritage Centre,SC042520,Fife,KY7 5NB,56.1955934,-3.17622302,S02001803,S01009574
CAREA Community Hub,SC049926,Fife,KY7 5NE,56.19690625,-3.16377273,S02001803,S01009574
Glenrothes Area Residents Federation,SC051102,Fife,KY7 5NB,56.1955934,-3.17622302,S02001803,S01009574
Glenrothes Baptist Church Limited,SC051131,Fife,KY7 5NS,56.19647357,-3.17247868,S02001803,S01009574
Home-Start Levenmouth,SC017976,Fife,KY8 3HS,56.18317188,-3.03397081,S02001814,S01009628
Fifers for the Community ,SC046794,Fife,KY8 3JP,56.18382921,-3.03057296,S02001814,S01009628
Rosyth Baptist Church,SC018391,Fife,KY11 2LL,56.04309639,-3.42272473,S02001760,S01009370
41st Fife Scout Group,SC021766,Fife,KY11 2NW,56.0432257,-3.41460657,S02001760,S01009370
Rosyth Gothenburg Trust,SC023652,Fife,KY11 2JU,56.04377068,-3.42347196,S02001760,S01009370
Rosyth Methodist Church,SC028559,Fife,KY11 2JH,56.04224173,-3.42359223,S02001760,S01009370
Royal British Legion Scotland Kennoway Branch,SC018439,Fife,KY8 5LD,56.21111028,-3.04841082,S02001821,S01009659
Leven Baptist Church,SC018472,Fife,KY8 4JD,56.19764686,-2.99227949,S02001817,S01009639
Breathe Easy Fife,SC049497,Fife,KY8 4RG,56.20047186,-2.99293269,S02001817,S01009639
Rainbow House Playgroup & Mothers & Toddlers Group,SC019833,Fife,KY12 8JS,56.05596769,-3.63217184,S02001741,S01009282
Culross Development Trust,SC036538,Fife,KY12 8HZ,56.05646448,-3.63061902,S02001741,S01009282
West Fife Woodlands Group,SC048093,Fife,KY12 8JA,56.05734926,-3.62826348,S02001741,S01009282
Grow West Fife (SCIO),SC051026,Fife,KY12 8HN,56.05481904,-3.62865465,S02001741,S01009282
48th Fife (Dalgety Bay) Scouts Group,SC020064,Fife,KY11 9YA,56.0368414,-3.35906303,S02001765,S01009393
1st Dalgety Bay Boys Brigade Company,SC020849,Fife,KY11 9HJ,56.03986462,-3.3757186,S02001765,S01009393
1st  Dalgety Bay Guides,SC032497,Fife,KY11 9FJ,56.03910463,-3.36729668,S02001765,S01009393
Aberdour Festival Ltd,SC046672,Fife,KY11 9PF,56.04014224,-3.36447617,S02001765,S01009393
Linktown Community Action Centre,SC020295,Fife,KY1 1SG,56.09927903,-3.16413679,S02001783,S01009473
Raith Rovers Community Foundation,SC045468,Fife,KY1 1SA,56.10108785,-3.1685964,S02001783,S01009473
Kirkcaldy Vineyard Church,SC049713,Fife,KY1 1AB,56.09885463,-3.16626205,S02001783,S01009473
Stark's Park Foundation,SC050807,Fife,KY1 1SA,56.10108785,-3.1685964,S02001783,S01009473
Happy Days Group,SC020480,Fife,KY4 8JA,56.10611715,-3.34618036,S02001770,S01009490
Kirkcaldy Central Mosque and Community Centre,SC020589,Fife,KY2 6SF,56.12988399,-3.17632356,S02001790,S01009507
Royal British Legion Scotland Kirkcaldy Branch,SC020863,Fife,KY2 6DF,56.12815937,-3.18003549,S02001790,S01009506
The Royal Burgh of Crail Festival Society Trust,SC020929,Fife,KY10 3SJ,56.25886918,-2.62713073,S02001833,S01009713
East Fife and Scooniehill Riding for the Disabled SCIO,SC042433,Fife,KY10 3SY,56.25596735,-2.63239353,S02001833,S01009713
Crail Community Partnership,SC049189,Fife,KY10 3SJ,56.25886918,-2.62713073,S02001833,S01009713
I.M.P.A.C.T. FIFE ( inspiring more parents and carers together),SC049209,Fife,KY10 3SG,56.26075098,-2.62987348,S02001833,S01009713
252 Memorial Hall Association,SC020939,Fife,KY7 6NY,56.20128939,-3.12115917,S02001812,S01009614
Oakley Community Charitable Society,SC021061,Fife,KY12 9QJ,56.08546745,-3.5642487,S02001739,S01009269
1st Blairhall Brownie Unit,SC043845,Fife,KY12 9QP,56.08620385,-3.56286427,S02001739,S01009269
Abdie Hall Management Committee,SC021565,Fife,KY14 6JR,56.33513827,-3.20903001,S02001825,S01009677
Luthrie Village Hall,SC028458,Fife,KY15 4NU,56.36422388,-3.08459684,S02001825,S01009677
Dunbog Community Hall,SC037704,Fife,KY14 6JF,56.35189138,-3.16439594,S02001825,S01009677
Silo Projects,SC046786,Fife,KY15 4NL,56.34360172,-3.05992189,S02001825,S01009677
Tayport Amateur Dramatic and Musical Society,SC021723,Fife,DD6 9HD,56.44932326,-2.8934306,S02001840,S01009748
Tayport Day Centre For The Elderly,SC031805,Fife,DD6 9AP,56.45086108,-2.88696105,S02001840,S01009748
Trust In Fife,SC021786,Fife,KY2 6FB,56.12861357,-3.2083325,S02001788,S01009497
Colinsburgh Town Hall,SC022455,Fife,KY9 1LS,56.22040302,-2.84768413,S02001830,S01009700
East Neuk Emergency Trust,SC044210,Fife,KY9 1LS,56.22040302,-2.84768413,S02001830,S01009700
Colinsburgh Settlement Trust,SC047417,Fife,KY9 1LW,56.22010594,-2.85038672,S02001830,S01009700
Colinsburgh Community Trust Ltd,SC047627,Fife,KY9 1LJ,56.21984403,-2.84402737,S02001830,S01009700
Pitreavie Playgroup,SC022912,Fife,KY11 8PP,56.05341694,-3.42928689,S02001757,S01009357
Fife Housing Association Ltd,SC025647,Fife,KY11 8UU,56.04970504,-3.4324571,S02001757,S01009357
Central & West Fife Agricultural Society,SC035462,Fife,KY11 8PB,56.04720872,-3.41752986,S02001757,S01009357
Pitreavie Amateur Athletic Club ,SC045575,Fife,KY11 8PP,56.05341694,-3.42928689,S02001757,S01009357
The Cameron Railway Trust SCIO,SC045863,Fife,KY11 8PB,56.04720872,-3.41752986,S02001757,S01009357
Children's Clothing Bank Dunfermline SCIO,SC050347,Fife,KY11 8QF,56.04628968,-3.41304906,S02001757,S01009357
St Columba Episcopal Church: Aberdour,SC023298,Fife,KY11 1EZ,56.0129271,-3.39081727,S02001763,S01009384
Rosyth Unit (No 114) of the Sea Cadet Corps,SC023797,Fife,KY11 2GA,56.03348065,-3.42826092,S02001762,S01009378
19th Dunfermline Brownie Unit,SC032135,Fife,KY11 2HJ,56.03152388,-3.42574928,S02001762,S01009378
1st Townhill Rainbows,SC035279,Fife,KY11 2HL,56.03279347,-3.42552327,S02001762,S01009378
Kids Come First SCIO,SC024003,Fife,KY5 8DU,56.15627439,-3.32534587,S02001774,S01009429
East Neuk Recovery Group Initiative (ENeRGI),SC024221,Fife,KY10 2AT,56.20551945,-2.76435539,S02001831,S01009705
Jim Matthew Camera Collection Trust,SC050024,Fife,KY10 2BU,56.20547504,-2.76572467,S02001831,S01009705
East Neuk Recovery Group Initiative (ENeRGI) (SCIO) ,SC051294,Fife,KY10 2AT,56.20551945,-2.76435539,S02001831,S01009705
Methil Unit (No 240) of the Sea CadetCorps,SC024335,Fife,KY8 4HJ,56.19551854,-2.99549604,S02001817,S01009642
Leven Parish Church of Scotland,SC031969,Fife,KY8 4HA,56.19690413,-2.99525795,S02001817,S01009642
Levenmouth Foodbank Community Support Project,SC044087,Fife,KY8 4PH,56.19343982,-2.99589341,S02001817,S01009642
Urban Target Detached Youth and Community Project ,SC047865,Fife,KY8 4EZ,56.19587422,-2.9959565,S02001817,S01009642
St Andrews Committee For The Blind,SC024463,Fife,KY16 8RZ,56.33276064,-2.80801015,S02001836,S01009731
Air Training Corps No 2435 St Andrews Squadron Non - Public Sports & Welfare Funds,SC024605,Fife,KY16 8SB,56.33079001,-2.80709519,S02001836,S01009731
St Andrews Musical Society (SAMS),SC043141,Fife,KY16 8XF,56.32984541,-2.80866011,S02001836,S01009731
Glenrothes Model Railway Club,SC046477,Fife,KY16 8XF,56.32984541,-2.80866011,S02001836,S01009731
Air Training Corps No 1370 (Leven) Squadron Non-Public Sports & Welfare Funds,SC024599,Fife,KY16 0JX,56.37975009,-2.8855342,S02001838,S01009741
Bright Horizons Day Care Centre,SC039794,Fife,KY16 0JX,56.37975009,-2.8855342,S02001838,S01009741
Friends Of Gordon Cottage Child Development Centre,SC024661,Fife,KY4 0DH,56.13104019,-3.38701788,S02001772,S01009421
The East Fife Members' Centre Of The National Trust For Scotland,SC024846,Fife,KY10 3HA,56.22359599,-2.70391588,S02001832,S01009710
East Neuk Kids After School Club,SC047383,Fife,KY10 3EL,56.22437618,-2.70101111,S02001832,S01009710
East Neuk Mens Shed,SC049469,Fife,KY10 3DF,56.22358608,-2.70091605,S02001832,S01009710
Air Training Corps No 0775 Burntisland Squadron Non-Public Sports & Welfare Funds,SC024852,Fife,KY3 9DY,56.05910983,-3.23040691,S02001780,S01009459
Burntisland Heritage,SC028539,Fife,KY3 9DB,56.05897993,-3.23351828,S02001780,S01009459
Burntisland Young Islanders Parent and Toddler group,SC032922,Fife,KY3 9DL,56.0585154,-3.2332465,S02001780,S01009459
1st Burntisland Rainbows,SC035266,Fife,KY3 0BQ,56.06014427,-3.23479206,S02001780,S01009459
1st Kinghorn Guides,SC035290,Fife,KY3 9BS,56.05820912,-3.22520724,S02001780,S01009459
1st Kinghorn Brownies,SC035291,Fife,KY3 9BS,56.05820912,-3.22520724,S02001780,S01009459
Fife Headway Group,SC025047,Fife,KY5 9AF,56.125693,-3.31142389,S02001778,S01009452
Lochgelly Community Development Forum,SC031878,Fife,KY5 9AF,56.125693,-3.31142389,S02001778,S01009452
Fife Law Centre,SC039780,Fife,KY5 9AF,56.125693,-3.31142389,S02001778,S01009452
Fife Young Carers SCIO ,SC047519,Fife,KY5 9AF,56.125693,-3.31142389,S02001778,S01009452
Restoration Fife Ltd,SC050698,Fife,KY5 9AF,56.125693,-3.31142389,S02001778,S01009452
Fife Family History Society,SC025246,Fife,KY15 5RF,56.29561331,-3.10116939,S02001826,S01009685
Diamond Allstars Cheer and Dance,SC050405,Fife,KY15 5GY,56.29690326,-3.06984259,S02001826,S01009685
Arden House Projects,SC025307,Fife,KY8 4QX,56.1965649,-3.00055142,S02001817,S01009641
West Fife Members Group of the National Trust For Scotland ,SC025426,Fife,KY12 9YL,56.08086025,-3.46898099,S02001744,S01009297
Dunfermline Dramatic Society,SC025526,Fife,KY11 8DJ,56.05825036,-3.41767809,S02001757,S01009356
1st Crossford Guide Company,SC031543,Fife,KY11 8RA,56.05752381,-3.41678423,S02001757,S01009356
Dunfermline Free Church of Scotland,SC044551,Fife,KY11 8QY,56.05774726,-3.41923343,S02001757,S01009356
Canine Welfare & Training [SCIO],SC050516,Fife,KY11 8RS,56.05963596,-3.41752017,S02001757,S01009356
Fife Families Forum,SC026040,Fife,KY6 1JP,56.1998271,-3.20312464,S02001800,S01009557
Fife Historic Buildings Trust,SC026043,Fife,KY3 9TL,56.07160771,-3.17422608,S02001782,S01009469
Kirkcaldy Area Reachout Trust,SC037866,Fife,KY3 9UB,56.07405715,-3.17176225,S02001782,S01009469
33rd Fife (Lochgelly) Scout Group,SC046423,Fife,KY3 9XT,56.0727263,-3.17376209,S02001782,S01009469
Fife Mining Heritage Preservation Society,SC027184,Fife,KY2 6QX,56.14661498,-3.21799155,S02001776,S01009443
Thrift Shop Kirkcaldy,SC039329,Fife,KY5 0HB,56.14912031,-3.2496368,S02001776,S01009443
The 4th Fife Cardenden Scout Group,SC044791,Fife,KY5 0HB,56.14912031,-3.2496368,S02001776,S01009443
Cardenden Community Development Forum,SC045024,Fife,KY5 0HB,56.14912031,-3.2496368,S02001776,S01009443
Royal Scottish Country Dance Society Dunfermline Local Association,SC027501,Fife,KY12 9BH,56.08203071,-3.48530394,S02001744,S01009296
Fife Disabled Sports Trust,SC027856,Fife,KY6 3NN,56.21115314,-3.19428945,S02001807,S01009593
Enigma Gymnastics Club,SC047831,Fife,KY6 3NN,56.21115314,-3.19428945,S02001807,S01009593
"Greig Institute, Windygates",SC027975,Fife,KY8 5HS,56.2152818,-3.04280062,S02001821,S01009660
Cowdenbeath After School Club (CASC),SC028121,Fife,KY5 9AP,56.1234017,-3.31649353,S02001778,S01009451
Fife Deaf Club,SC028433,Fife,KY1 3BS,56.13179258,-3.13266678,S02001796,S01009539
Kingdom Fm Charity Trust (Also K/A Kingdom Kids),SC030087,Fife,KY1 3AQ,56.13148129,-3.13035686,S02001796,S01009539
Kirkcaldy Community Radio SCIO,SC043935,Fife,KY1 3AQ,56.13148129,-3.13035686,S02001796,S01009539
Rotaract Club of Kirkcaldy Charitable Trust ,SC044135,Fife,KY1 3AH,56.1292661,-3.12498271,S02001796,S01009539
83rd Fife (Cairneyhill) Scout Group,SC029771,Fife,KY12 8QT,56.06041493,-3.52767554,S02001742,S01009284
1st Cairneyhill Rainbow Group,SC034726,Fife,KY12 8FQ,56.05830712,-3.52809002,S02001742,S01009284
Dunfermline Art Club,SC041320,Fife,KY12 8RE,56.06165098,-3.52799747,S02001742,S01009284
Fife Festival Of Music,SC030793,Fife,KY8 6BN,56.21242466,-2.93848852,S02001820,S01009654
9th Dunfermline Rainbow Unit,SC030834,Fife,KY12 9PF,56.077484,-3.48156196,S02001744,S01009293
9th A Rainbow Unit Dunfermline,SC031629,Fife,KY12 9PF,56.077484,-3.48156196,S02001744,S01009293
44th Fife Scout Group,SC030990,Fife,KY11 4QE,56.06327343,-3.44784943,S02001748,S01009313
1st Cairneyhill Guide Unit,SC031002,Fife,KY12 8XQ,56.06198417,-3.53806503,S02001742,S01009285
Cairneyhill Children's Gala Committee,SC044858,Fife,KY12 8XG,56.06230727,-3.53881672,S02001742,S01009285
Cairneyhill Athletic Football Club,SC047114,Fife,KY12 8XL,56.06300851,-3.53518259,S02001742,S01009285
24th Fife Scouts,SC031093,Fife,KY3 9EU,56.06522325,-3.22645772,S02001781,S01009466
Burntisland & District Pipe Band,SC031528,Fife,KY3 9HH,56.06627437,-3.22647504,S02001781,S01009466
3rd Burntisland Brownies,SC032814,Fife,KY3 9JQ,56.06555257,-3.22405888,S02001781,S01009466
1st Burntisland Guides,SC035287,Fife,KY3 9EU,56.06522325,-3.22645772,S02001781,S01009466
116th Fife Scout Group,SC031132,Fife,KY12 9TR,56.11174518,-3.56682659,S02001740,S01009274
Saline Community Week Group,SC039589,Fife,KY12 9TR,56.11174518,-3.56682659,S02001740,S01009274
"Auchterderran Kinglassie Parish Church, Church of Scotland",SC031143,Fife,KY5 0PQ,56.14205055,-3.24591496,S02001776,S01009438
62nd Fife (Crossford) Scout Group,SC031155,Fife,KY12 8NY,56.06066323,-3.49641517,S02001743,S01009291
39th A Kirkcaldy Brownie Guide Unit,SC031205,Fife,KY2 6JZ,56.14029007,-3.1790232,S02001791,S01009514
Fife Coast And Countryside Trust,SC031247,Fife,KY1 2TQ,56.12350869,-3.12376902,S02001794,S01009530
Kirkcaldy Art Club,SC037822,Fife,KY1 2TQ,56.12350869,-3.12376902,S02001794,S01009530
The 4th Kirkcaldy Company of the Boys' Brigade,SC044601,Fife,KY1 2AU,56.12687116,-3.12650542,S02001794,S01009530
86th Fife Scout Group,SC031332,Fife,KY2 5LH,56.1165094,-3.16353134,S02001785,S01009482
Hayfield Community Centre Management ,SC041255,Fife,KY2 5JJ,56.1198194,-3.16887482,S02001785,S01009482
Kirkcaldy Old Kirk Trust,SC042128,Fife,KY2 5JJ,56.1198194,-3.16887482,S02001785,S01009482
81st Fife (1st Broomhall) Sea Scout Group,SC031335,Fife,KY11 3JH,56.03325849,-3.47237181,S02001743,S01009287
1st Limekilns Brownies,SC032212,Fife,KY11 3JG,56.03358152,-3.47841867,S02001743,S01009287
Rainbow Lives,SC035220,Fife,KY11 3LB,56.03440518,-3.47491924,S02001743,S01009287
1st Limekilns Rainbows,SC043859,Fife,KY11 3JA,56.0328052,-3.47946427,S02001743,S01009287
Limekilns Heritage Trust SCIO,SC047075,Fife,KY11 3JJ,56.03274115,-3.47731125,S02001743,S01009287
14th Fife Scout Group,SC031351,Fife,KY2 6ZJ,56.13595481,-3.19258415,S02001792,S01009517
Drumatik Drum Group,SC039768,Fife,KY2 6ZJ,56.13595481,-3.19258415,S02001792,S01009517
Kirkcaldy 6 Rainbow Unit,SC044675,Fife,KY2 6PD,56.13468197,-3.18853814,S02001792,S01009517
Kirkcaldy Ice Hockey Club Junior Development,SC051247,Fife,KY2 6RD,56.13654461,-3.1882577,S02001792,S01009517
11th Fife (1st Burntisland) Scout Group,SC031394,Fife,KY3 0ES,56.06364002,-3.23654208,S02001781,S01009465
Kirkcaldy & District Pipe Band,SC046230,Fife,KY3 0JY,56.06500279,-3.2368427,S02001781,S01009465
7th Dunfermline (Abbey) Brownies,SC031686,Fife,KY11 8PX,56.05454965,-3.39787138,S02001756,S01009354
Dunfermline Men's Shed,SC051302,Fife,KY11 8QE,56.05296746,-3.40584274,S02001756,S01009354
7th Dunfermline (Abbey) Guides,SC031688,Fife,KY12 0BX,56.08135791,-3.44586034,S02001746,S01009302
15th Dunfermline Brownies,SC035277,Fife,KY12 0BX,56.08135791,-3.44586034,S02001746,S01009302
Beath And Cowdenbeath North Church of Scotland,SC031695,Fife,KY4 9EX,56.11662449,-3.34998922,S02001771,S01009414
46th Fife Scout Group,SC036641,Fife,KY4 9ET,56.11718098,-3.34840033,S02001771,S01009414
Curly Star Dream Foundation,SC040623,Fife,KY4 9EU,56.11667044,-3.34907406,S02001771,S01009414
Ore Valley Housing Association Limited,SC031773,Fife,KY5 0BW,56.14559972,-3.26185164,S02001776,S01009437
Ore Valley Community Initiatives Ltd,SC034062,Fife,KY5 0BW,56.14559972,-3.26185164,S02001776,S01009437
Dancehaven,SC031869,Fife,KY1 2RA,56.11429716,-3.15511792,S02001784,S01009478
St Andreas Church Brownie Unit Kirkaldy: Kirkaldy,SC034723,Fife,KY1 1BG,56.11307497,-3.15705933,S02001784,S01009478
Clued Up Project,SC035036,Fife,KY1 2SN,56.11606834,-3.15211525,S02001784,S01009478
Kirkcaldy Islamic Centre,SC040547,Fife,KY1 2RQ,56.11657733,-3.15341711,S02001784,S01009478
Glen Housing Association,SC031874,Fife,KY7 6TZ,56.21603551,-3.18458904,S02001808,S01009598
Glenrothes And District Across Group,SC033036,Fife,KY7 6SZ,56.2152849,-3.18696843,S02001808,S01009598
1st Crossford Brownie Unit,SC031885,Fife,KY12 8PJ,56.06398079,-3.49996494,S02001743,S01009290
1st Methil Guide Unit,SC032085,Fife,KY8 4SG,56.20080255,-2.99761546,S02001817,S01009640
1st Largo Guide Unit,SC034698,Fife,KY8 4SG,56.20080255,-2.99761546,S02001817,S01009640
2nd Leven Brownie Unit,SC035114,Fife,KY8 4SG,56.20080255,-2.99761546,S02001817,S01009640
1st Kennoway Rainbow Unit,SC039381,Fife,KY8 4SG,56.20080255,-2.99761546,S02001817,S01009640
2nd Kennoway Brownie Unit,SC042467,Fife,KY8 4SG,56.20080255,-2.99761546,S02001817,S01009640
Girlguiding Fife South East Division,SC044237,Fife,KY8 4SG,56.20080255,-2.99761546,S02001817,S01009640
Second Chance Association,SC032202,Fife,KY1 3NS,56.15179734,-3.15841625,S02001798,S01009547
Calvary Community Church West Fife,SC032464,Fife,KY12 7TP,56.07314731,-3.43024221,S02001749,S01009319
Carnegie Trefoil Guild,SC037207,Fife,KY12 7RG,56.07674867,-3.43117901,S02001749,S01009319
114th Fife (Linburn) Scout Group,SC032681,Fife,KY11 4DA,56.06534177,-3.42221102,S02001753,S01009338
34th Fife Scout Group,SC032710,Fife,DD6 8HX,56.43214472,-2.9538038,S02001841,S01009752
Cupar Arts,SC043402,Fife,DD6 8NP,56.43148659,-2.95643044,S02001841,S01009752
Furniture Plus Limited,SC032833,Fife,KY1 2XX,56.12953723,-3.12283477,S02001796,S01009537
2nd A Dunfermline Guides,SC033042,Fife,KY11 2ZJ,56.04514209,-3.42920559,S02001759,S01009364
Acrobay Gymnastics Trust,SC045182,Fife,KY11 2SF,56.04452786,-3.43412744,S02001759,S01009364
2nd Dunfermline Brownie Guides,SC033043,Fife,KY12 9DL,56.07780311,-3.47442407,S02001745,S01009298
1st Cowdenbeath Guide Unit,SC039298,Fife,KY12 9DL,56.07780311,-3.47442407,S02001745,S01009298
25th Fife Scouts (Markinch),SC033149,Fife,KY7 6HZ,56.18348442,-3.13359314,S02001812,S01009613
Victoria Hall Management Committee,SC048017,Fife,KY7 6HZ,56.18348442,-3.13359314,S02001812,S01009613
15th Fife (Freuchie) Scout Group,SC033336,Fife,KY15 7QX,56.25109841,-3.18237949,S02001823,S01009670
Falkland Bowling Club,SC049487,Fife,KY15 7AJ,56.25336383,-3.20091409,S02001823,S01009670
1st Saline Rainbow Guides,SC033429,Fife,KY12 9PH,56.08601717,-3.6033407,S02001739,S01009268
1st Carnock Brownies,SC034413,Fife,KY12 9PH,56.08601717,-3.6033407,S02001739,S01009268
1st Carnock Guides,SC034897,Fife,KY12 9PH,56.08601717,-3.6033407,S02001739,S01009268
1st Blairhall Rainbows,SC040163,Fife,KY12 9PP,56.0888944,-3.60112973,S02001739,S01009268
1st Saline and Steelend Guides,SC042942,Fife,KY12 9PH,56.08601717,-3.6033407,S02001739,S01009268
Blairhall Comrie Castle Residents Association,SC045953,Fife,KY12 9JY,56.09101899,-3.60497913,S02001739,S01009268
1st Blairhall Guide Unit,SC047158,Fife,KY12 9PH,56.08601717,-3.6033407,S02001739,S01009268
2nd Dalgety Bay Rainbows,SC033645,Fife,KY11 9FN,56.03677148,-3.3645819,S02001765,S01009392
5th Dalgety Bay Brownies,SC037994,Fife,KY11 9FN,56.03677148,-3.3645819,S02001765,S01009392
Dalgety Bay Gala Committee,SC038998,Fife,KY11 9GF,56.03477901,-3.36680666,S02001765,S01009392
1st Dalgety Bay Brownie Unit,SC039190,Fife,KY11 9FN,56.03677148,-3.3645819,S02001765,S01009392
2nd Dalgety Bay Brownie Unit,SC039554,Fife,KY11 9GF,56.03477901,-3.36680666,S02001765,S01009392
1st Dalgety Bay Rainbow Unit,SC040126,Fife,KY11 9FN,56.03677148,-3.3645819,S02001765,S01009392
3rd Dalgety Bay Rainbows,SC043230,Fife,KY11 9FN,56.03677148,-3.3645819,S02001765,S01009392
4th Dalgety Bay Rainbow Unit,SC045302,Fife,KY11 9FN,56.03677148,-3.3645819,S02001765,S01009392
2nd Dalgety Bay Guide Unit,SC046339,Fife,KY11 9FN,56.03677148,-3.3645819,S02001765,S01009392
Templehall Spiritualist & Healing Centre,SC033695,Fife,KY2 6BE,56.12446775,-3.18083936,S02001790,S01009504
Cadham Neighbourhood Centre,SC033855,Fife,KY7 6RU,56.2079548,-3.16981443,S02001809,S01009600
Fife Muslim Educational & Cultural Centre,SC043435,Fife,KY7 6RU,56.2079548,-3.16981443,S02001809,S01009600
Glenrothes Trefoil Guild,SC034027,Fife,KY7 5TE,56.20564082,-3.17883588,S02001807,S01009590
19th Glenrothes Brownies,SC034688,Fife,KY7 5TE,56.20564082,-3.17883588,S02001807,S01009590
North Glenrothes Community Council,SC038193,Fife,KY7 5GH,56.20512029,-3.18441362,S02001807,S01009590
Rothes Juniors Football Club,SC040532,Fife,KY7 5TH,56.20759085,-3.17975015,S02001807,S01009590
Methilhill Old Peoples Recreational Centre Management Committee,SC034404,Fife,KY8 2EF,56.18645291,-3.03700757,S02001814,S01009629
Glenrothes Area Christian Youth Trust,SC034830,Fife,KY7 4ES,56.19004404,-3.1635166,S02001805,S01009584
1st St. Andrews Brownie Pack,SC034966,Fife,KY16 8EF,56.33184937,-2.79751086,S02001834,S01009718
7th St. Andrews Guide Company,SC034967,Fife,KY16 8EF,56.33184937,-2.79751086,S02001834,S01009718
3rd St Andrews Rainbow Unit,SC038404,Fife,KY16 8EF,56.33184937,-2.79751086,S02001834,S01009718
6th St Andrews Brownie Unit,SC039295,Fife,KY16 8EF,56.33184937,-2.79751086,S02001834,S01009718
15th Dunfermline Guide Unit,SC035057,Fife,KY11 8FS,56.06104342,-3.41310698,S02001755,S01009350
19th Dunfermline Rainbow Unit,SC035380,Fife,KY11 8FS,56.06104342,-3.41310698,S02001755,S01009350
Dunfermline Children's Gala Committee,SC035116,Fife,KY11 8FP,56.07457014,-3.41124036,S02001751,S01009331
17th Dunfermline Brownies,SC038032,Fife,KY11 8FF,56.07382336,-3.41132553,S02001751,S01009331
Dunfermline Athletic Ladies Football Club Senior Section,SC042735,Fife,KY11 8QB,56.07310019,-3.40066367,S02001751,S01009331
St Leonard's Toddler Group,SC035188,Fife,KY11 4SR,56.06778249,-3.44952847,S02001747,S01009309
Terrifically Adventurous Youth Theatre Association,SC038994,Fife,KY11 4SS,56.06830104,-3.4466886,S02001747,S01009309
1st Dunfermline Rainbows,SC035261,Fife,KY11 3BD,56.06093499,-3.45185723,S02001748,S01009312
The Karate Initiative (SCIO),SC039618,Fife,KY11 4TF,56.06615374,-3.45202132,S02001748,S01009312
Girlguiding Fife - South Division,SC035275,Fife,KY2 6ZU,56.14003166,-3.19190575,S02001792,S01009518
Girlguiding Fife - Kirkcaldy 2 District,SC035282,Fife,KY2 6ZU,56.14003166,-3.19190575,S02001792,S01009518
1st Burntisland Brownies,SC035286,Fife,KY3 9JL,56.06503239,-3.22033212,S02001781,S01009463
23rd Fife 1st Leven Scout Group,SC035344,Fife,KY7 6FA,56.21418061,-3.1765343,S02001810,S01009603
Fife Deaf Children's Society,SC035366,Fife,KY7 4QW,56.18572302,-3.16438476,S02001805,S01009585
2nd Markinch Guide Unit,SC036444,Fife,KY7 4QT,56.18485893,-3.1674037,S02001805,S01009585
1st Markinch Rainbow Unit,SC036632,Fife,KY7 4QT,56.18485893,-3.1674037,S02001805,S01009585
Glenrothes & District Pipe Band,SC041439,Fife,KY7 4QY,56.18492038,-3.16469879,S02001805,S01009585
Giffordtown Village Hall Committee,SC035526,Fife,KY15 7UW,56.28735554,-3.14967063,S02001822,S01009667
Falkland War Memorial Trust,SC039975,Fife,KY15 7HH,56.24861697,-3.15399612,S02001822,S01009667
Dunfermline East Church Of Scotland,SC035690,Fife,KY11 8FG,56.06012202,-3.40881731,S02001755,S01009349
16th Kirkcaldy Brownies,SC036072,Fife,KY2 5SH,56.11799235,-3.1926877,S02001787,S01009494
1st Dunfermline Brownies,SC036233,Fife,KY12 9YG,56.07964228,-3.47692067,S02001744,S01009295
115th Fife Scout Group,SC036298,Fife,KY2 6NY,56.12774224,-3.19723671,S02001789,S01009503
Newburgh Community Trust,SC036332,Fife,KY14 6DP,56.3490311,-3.24689625,S02001825,S01009680
Bellyeoman Parent & Toddler Group,SC036386,Fife,KY12 0XE,56.07865293,-3.43433466,S02001750,S01009320
9th Glenrothes Rainbow Unit,SC036456,Fife,KY6 2NY,56.19221029,-3.19358793,S02001802,S01009568
2nd A Glenrothes Guide Unit,SC040164,Fife,KY6 2NY,56.19221029,-3.19358793,S02001802,S01009568
Glenrothes & Levenmouth District Scouts,SC036490,Fife,KY6 2TG,56.1859651,-3.17204536,S02001805,S01009580
Fife University Of The Third Age (u3a),SC036555,Fife,KY11 4LE,56.07739869,-3.41846164,S02001751,S01009332
Circle Of Comfort,SC038004,Fife,KY11 4LF,56.07859324,-3.42085145,S02001751,S01009332
Crossgates Community Woodland,SC036958,Fife,KY4 8EY,56.08211653,-3.3585198,S02001779,S01009456
Kingdom Vineyard (East Fife),SC037042,Fife,KY16 8BP,56.33415906,-2.78047946,S02001834,S01009717
North East Fife Community Hub,SC048315,Fife,KY16 8BP,56.33415906,-2.78047946,S02001834,S01009717
Limelight Productions,SC037167,Fife,KY11 2GB,56.03394987,-3.42964245,S02001762,S01009379
Rosyth Community and Heritage Development Project,SC042404,Fife,KY11 2BD,56.03296908,-3.43517518,S02001762,S01009379
Fife Kidney Support Group,SC037210,Fife,KY1 2HT,56.13024827,-3.14811487,S02001795,S01009532
Glenrothes Amateur Musical Association,SC037569,Fife,KY7 6GE,56.20326583,-3.17347583,S02001807,S01009595
9th Glenrothes Guide Unit,SC040147,Fife,KY7 6GD,56.2037835,-3.17573227,S02001807,S01009595
9th Glenrothes Brownie Unit,SC040153,Fife,KY7 6GD,56.2037835,-3.17573227,S02001807,S01009595
GLENROTHES MARTIAL ARTS CENTRE,SC037630,Fife,KY7 5RF,56.19901851,-3.14928251,S02001811,S01009607
Friends of Pittencrieff Park,SC037721,Fife,KY12 7XJ,56.07258674,-3.43981252,S02001749,S01009318
Presbytery of Fife Church of Scotland,SC050563,Fife,KY12 7UU,56.07344395,-3.43873594,S02001749,S01009318
Fife Arabic Society (FAS),SC037751,Fife,KY1 2DB,56.1286339,-3.13711075,S02001795,S01009534
2nd Cowdenbeath Brownies,SC037815,Fife,KY11 2TE,56.04154537,-3.43483546,S02001759,S01009363
Royal Air Forces Association - Leuchars Branch,SC038026,Fife,KY16 0DZ,56.37569084,-2.93305961,S02001839,S01009745
Up & Down,SC050966,Fife,KY16 0DN,56.37826459,-2.93250721,S02001839,S01009745
Equal Voice ,SC038052,Fife,KY1 2XZ,56.13322219,-3.11179183,S02001796,S01009536
9th A Dunfermline Brownie Unit,SC038427,Fife,KY12 8DG,56.07318402,-3.46692164,S02001745,S01009300
Fire Station Creative Limited,SC044226,Fife,KY12 7AN,56.07285844,-3.46255548,S02001745,S01009300
12th Fife (East Neuk) Scout Group,SC038654,Fife,KY10 2DJ,56.20624301,-2.76357991,S02001831,S01009706
St Monans Charitable Fund,SC048605,Fife,KY10 2AY,56.20605237,-2.76389852,S02001831,S01009706
Gateside And District Community Association,SC038682,Fife,KY14 7SY,56.26909019,-3.31724756,S02001824,S01009676
West Division Senior Section,SC038818,Fife,KY11 8BD,56.0575011,-3.43043368,S02001758,S01009362
Fife Decorative & Fine Arts Society,SC038862,Fife,KY15 4PY,56.36485617,-3.00976473,S02001839,S01009746
Stop and Talk (Fife),SC044255,Fife,KY15 4QD,56.34667524,-3.02567406,S02001839,S01009746
18th Kirkcaldy Guide Unit,SC039051,Fife,KY3 0AZ,56.06262067,-3.2458729,S02001780,S01009461
18th Kirkcaldy Brownie Unit,SC044843,Fife,KY3 0AZ,56.06262067,-3.2458729,S02001780,S01009461
Kinglassie Kiddies,SC039926,Fife,KY5 0YD,56.17552849,-3.23258275,S02001798,S01009546
Friends of High Valleyfield Child Development Centre,SC040447,Fife,KY12 8SJ,56.06173465,-3.5966146,S02001741,S01009280
Valleyfield Community Club,SC050837,Fife,KY12 8RT,56.06386375,-3.59943322,S02001741,S01009280
"The Remembrance Garden Society of High Valleyfield, Newmills and Torryburn",SC051244,Fife,KY12 8UA,56.06248366,-3.59706317,S02001741,S01009280
The Redeemed Christian Church of God Open Heavens Fife,SC040702,Fife,KY6 3PJ,56.20995832,-3.1877389,S02001807,S01009591
Talking Tandems,SC040774,Fife,KY11 9LX,56.03883047,-3.34812183,S02001767,S01009401
The John Macdougall Mesothelioma Trust,SC041190,Fife,KY3 0EN,56.0632028,-3.23533956,S02001780,S01009458
Fishbowl Nursery,SC041195,Fife,KY8 3DH,56.18503486,-3.01407492,S02001816,S01009637
Methil And District Pipe Band,SC028237,Fife,KY8 3BS,56.18511952,-3.01580108,S02001816,S01009637
50th Fife Scout Group,SC041283,Fife,KY7 4AD,56.17706909,-3.15012451,S02001804,S01009579
6th Rosyth Methodist Brownie Pack,SC041358,Fife,KY5 9LN,56.12465888,-3.30471266,S02001777,S01009448
77th Fife (Kelty Church) Scout Group,SC041361,Fife,KY4 0BD,56.141607,-3.38302089,S02001772,S01009422
6th Rosyth Methodist Guide Unit,SC041365,Fife,KY11 8ZA,56.07120655,-3.40992862,S02001751,S01009329
Rosyth Senior Section Unit,SC047819,Fife,KY11 8ZA,56.07120655,-3.40992862,S02001751,S01009329
Friends of Forth Child Development Centre,SC042114,Fife,KY7 5AS,56.19490444,-3.14529166,S02001806,S01009588
East Fife Girls' and Women's Football Club,SC045920,Fife,KY7 5DA,56.19533715,-3.14901125,S02001806,S01009588
Don't Walk Charity Fashion Show,SC042338,Fife,KY16 9NW,56.3400241,-2.79489911,S02001835,S01009721
The John Thomson Memorial Committee,SC042476,Fife,KY5 0EF,56.14081809,-3.25670597,S02001776,S01009439
18th Fife Kennoway Scout Group,SC042787,Fife,KY8 5PP,56.20645949,-3.00471028,S02001819,S01009649
West  Wemyss  Community Trust Limited,SC043268,Fife,KY1 4SP,56.14079631,-3.08453957,S02001797,S01009544
Rosyth Busy Little Bees Playgroup,SC043375,Fife,KY11 2HF,56.02677923,-3.42576691,S02001762,S01009377
King's Fellowship Fife,SC047800,Fife,KY11 2HX,56.02587828,-3.42286146,S02001762,S01009377
Radio West Fife (SCIO),SC048378,Fife,KY11 2WX,56.02640642,-3.44006643,S02001762,S01009377
Fife Cultural Trust,SC043442,Fife,KY2 6NA,56.13697832,-3.2037835,S02001792,S01009520
213th City of Edinburgh Guides,SC043447,Fife,KY8 5EF,56.19292352,-3.05067026,S02001812,S01009617
Windygates Durievale Bowling and Sports Club,SC050619,Fife,KY8 5DA,56.19298696,-3.05271858,S02001812,S01009617
Poppyview Family Centre (SCIO),SC043499,Fife,KY8 3RS,56.1878296,-3.00190306,S02001816,S01009635
East Fife Community Football Club (EFCFC),SC049504,Fife,KY8 3RW,56.18826114,-3.00297775,S02001816,S01009635
Raeburn Hall Management Committee,SC043531,Fife,KY2 5PZ,56.11517233,-3.17568156,S02001786,S01009485
Dunfermline City Hockey Club,SC043535,Fife,KY11 8GY,56.06298426,-3.41232674,S02001755,S01009351
Fife Community Cricket,SC043608,Fife,KY7 6ES,56.21891341,-3.18337162,S02001810,S01009602
Gilvenbank Community Sports Hub,SC045658,Fife,KY7 6ES,56.21891341,-3.18337162,S02001810,S01009602
Fife Cricket & Sports Association,SC048208,Fife,KY7 6ES,56.21891341,-3.18337162,S02001810,S01009602
89th North Glen Scout Group,SC050718,Fife,KY7 6FX,56.21866623,-3.17631699,S02001810,S01009602
Comrie Colliery Enviromental Trust,SC043834,Fife,KY6 3EQ,56.21469398,-3.19607649,S02001807,S01009594
The Rotary Club of Glenrothes Charitable Trust Fund,SC049481,Fife,KY6 3HP,56.21524528,-3.19852847,S02001807,S01009594
4 Winds,SC043913,Fife,KY5 9EB,56.13373348,-3.30732099,S02001777,S01009445
Saline and Steelend Community Development Trust,SC044063,Fife,KY12 9LW,56.13325924,-3.61686024,S02001740,S01009275
16th Dunfermline Brownies,SC044114,Fife,KY11 8GX,56.05773572,-3.39662165,S02001755,S01009347
Glenrothes Tennis Club,SC044270,Fife,KY6 3QF,56.20698623,-3.1968521,S02001807,S01009592
Pittarthie Farm Education Trust,SC044399,Fife,KY10 2RZ,56.25889923,-2.79539527,S02001830,S01009702
East Neuk Community Action Plan,SC045074,Fife,KY10 2RF,56.23727187,-2.77579697,S02001830,S01009702
Largoward Public Hall Trust,SC047787,Fife,KY9 1HZ,56.25780822,-2.85784097,S02001830,S01009702
Footprint East Neuk (SCIO),SC050194,Fife,KY10 2RR,56.23746221,-2.74929424,S02001830,S01009702
Methilhill Community Children's Initiative Ltd,SC044414,Fife,KY8 2GW,56.18768755,-3.03549407,S02001814,S01009627
Buckhaven Beehive,SC044696,Fife,KY8 3PZ,56.17817542,-3.02652314,S02001813,S01009619
Levenmouth Twinning Association ,SC047128,Fife,KY8 3PZ,56.17817542,-3.02652314,S02001813,S01009619
Dalgety Bay Play Park,SC044900,Fife,KY11 9YP,56.03118058,-3.36637454,S02001766,S01009394
Autism Rocks (Fife),SC045130,Fife,KY8 1AT,56.17008875,-3.03516519,S02001813,S01009622
Rosyth & District Musical Society,SC045149,Fife,KY11 4PS,56.06365851,-3.44028272,S02001748,S01009315
Letham Glen Community Support Centre,SC045227,Fife,KY8 4EF,56.20116321,-3.00632865,S02001818,S01009645
St Andrews Environmental Network Limited,SC045253,Fife,KY16 9UA,56.33705533,-2.83108579,S02001837,S01009735
The Wu Xianhong Foundation ,SC048305,Fife,KY16 9NQ,56.33299708,-2.8279893,S02001837,S01009735
Markinch Community Council,SC045810,Fife,KY7 6JU,56.21218017,-3.13582662,S02001811,S01009611
Dunfermline Badminton Association,SC046084,Fife,KY11 9YF,56.02937613,-3.35482091,S02001766,S01009396
3rd Dalgety Bay Guide Unit,SC046338,Fife,KY11 9XE,56.03352574,-3.35987732,S02001766,S01009398
Fairisle Kinship Care Group,SC046628,Fife,KY2 6EH,56.12896551,-3.18311697,S02001790,S01009508
South West Fife Community Sports Partnership Limited,SC046653,Fife,KY11 2LZ,56.03697253,-3.41296529,S02001760,S01009367
McKane Park Community Sports Hub,SC046800,Fife,KY12 7XA,56.06156122,-3.46652834,S02001747,S01009310
Kennoway Community Shed,SC047444,Fife,KY8 5LQ,56.21412437,-3.0542654,S02001821,S01009658
Burnturk and Kettlehill Community Trust,SC047452,Fife,KY15 7TR,56.25497981,-3.08429694,S02001822,S01009663
Kettle Memorial Hall Committee (SCIO),SC050077,Fife,KY15 7PN,56.26216762,-3.11664301,S02001822,S01009663
Purple Caffe Fife SCIO,SC047607,Fife,KY4 0EZ,56.13776889,-3.37670354,S02001773,S01009423
Every1matters,SC047633,Fife,KY8 5EG,56.20769372,-3.04230442,S02001821,S01009656
Kingdom Brass SCIO,SC047741,Fife,KY11 4BD,56.06726184,-3.44181462,S02001748,S01009314
Benarty Community Forum,SC047790,Fife,KY5 8JE,56.16186795,-3.32742252,S02001775,S01009434
The Merry Poppins Community Centre,SC048174,Fife,KY2 6AJ,56.12160707,-3.18025306,S02001786,S01009488
Friends of St Clair,SC048973,Fife,KY2 6AQ,56.12106716,-3.18221498,S02001786,S01009488
Guardbridge Community Development Trust,SC048276,Fife,KY16 0UE,56.35971089,-2.89105785,S02001838,S01009738
Fife Dog Rescue and Rehoming (SCIO),SC048298,Fife,KY4 8DX,56.09828303,-3.36813995,S02001769,S01009409
Sunshine Club,SC048338,Fife,KY15 5DJ,56.31705938,-3.02484746,S02001826,S01009683
St Andrews Men's Shed,SC048346,Fife,KY16 8LG,56.33011413,-2.78646143,S02001834,S01009716
Valleyfield Bowling Club,SC048527,Fife,KY12 8RY,56.0618327,-3.60360538,S02001741,S01009281
Rosyth Community Projects Ltd,SC048688,Fife,KY11 2RD,56.04053333,-3.42368983,S02001759,S01009366
Williamena Cameron and Elizabeth Munro Horse Rescue Foundation SCIO ,SC048823,Fife,KY6 2HH,56.19362219,-3.19717717,S02001800,S01009561
82nd Fife (Balmullo) Scout Group,SC048853,Fife,KY16 0ET,56.38366636,-2.8881839,S02001838,S01009740
The Friendship Cabin (SCIO),SC049320,Fife,KY7 5DF,56.19235372,-3.15098474,S02001806,S01009587
Glenrothes Camera Club,SC049389,Fife,KY7 5DT,56.19082621,-3.15195419,S02001806,S01009587
Kennoway Star Hearts Football Club Ltd,SC049333,Fife,KY8 1EB,56.17694173,-3.03654166,S02001813,S01009620
Memorial Park Neighbourhood Centre SCIO,SC049588,Fife,KY8 3PD,56.18138492,-3.02087369,S02001815,S01009632
Fife Nepalese Community (SCIO),SC049687,Fife,KY11 8JF,56.05945445,-3.39957458,S02001755,S01009346
Kelty Hearts Community Club,SC051250,Fife,KY11 8JA,56.06200584,-3.39724183,S02001755,S01009346
Bennochy Community Hub SCIO (Kirkcaldy Polish Club) ,SC049737,Fife,KY2 5TA,56.11906042,-3.17216514,S02001786,S01009486
The Clearing,SC049787,Fife,KY4 9DW,56.10972811,-3.35941222,S02001771,S01009413
East Wemyss and McDuff Green Poverty Action Group ,SC049865,Fife,KY1 4TS,56.16044923,-3.06773626,S02001797,S01009541
Lucky Ewe,SC050034,Fife,KY15 5JT,56.31265549,-3.00859667,S02001828,S01009694
Kelty Evangelical Church,SC050138,Fife,KY4 0AE,56.13422592,-3.38096974,S02001773,S01009424
Inverkeithing Hillfield Swifts Community Club,SC050231,Fife,KY11 1DS,56.02682617,-3.38937549,S02001764,S01009387
Cairneyhill Community Sports Hub,SC050403,Fife,KY12 8QU,56.06010733,-3.53508333,S02001742,S01009286
Kinghorn Community Land Association,SC050496,Fife,KY3 9YG,56.07513099,-3.19192542,S02001783,S01009476
Friends of Canongate Parent Council,SC050739,Fife,KY16 8RX,56.33311723,-2.81118768,S02001836,S01009732
The Central Park Community Trust (SCIO),SC050887,Fife,KY8 5RW,56.18562024,-3.05366077,S02001812,S01009616
Primrose Community Trust,SC051088,Fife,KY4 8DF,56.08792363,-3.37291553,S02001768,S01009406
Future Youth (SCIO),SC051172,Fife,KY11 2LG,56.04089847,-3.41460166,S02001760,S01009369
Dunnikier Park Community Golf,SC051184,Fife,KY1 3LP,56.13606511,-3.16215892,S02001792,S01009519
Dysart Colliery Silver Band,SC051296,Fife,KY1 2RJ,56.11832534,-3.15385543,S02001794,S01009526
Air Training Corps No 2311 Leslie & Glenrothes Squadron Non Public Sports & Welfare Funds,SC024598,Fife,KY7 5DN,56.19151476,-3.14941263,S02001806,S01009589
