Name,Charity Number,Local authority,Postcode,Latitude,Longitude,IntermediateZone2011Code,DataZone2011Code
National Trust For Scotland - Aberdeen & District Members Centre,SC000109,Aberdeen City,AB15 7PR,57.12456027,-2.14374395,S02001241,S01006538
Shepherd Trust,SC000112,Aberdeen City,AB10 1RD,57.14589821,-2.10419814,S02001249,S01006586
Dr Wm Guilds Trust Scheme 1934,SC006213,Aberdeen City,AB10 1JU,57.14695683,-2.10583721,S02001249,S01006586
Kirk Of St Nicholas Uniting,SC008689,Aberdeen City,AB10 1JZ,57.14763566,-2.09962519,S02001249,S01006586
YMCA Aberdeen,SC013487,Aberdeen City,AB10 1RP,57.14730552,-2.1077718,S02001249,S01006586
Royal British Legion Scotland Aberdeen Branch,SC014119,Aberdeen City,AB10 1BD,57.14745859,-2.09631943,S02001249,S01006586
Patrick Mitchell Hunter Fund,SC017380,Aberdeen City,AB10 1RD,57.14589821,-2.10419814,S02001249,S01006586
Dr William Guilds Managers,SC017929,Aberdeen City,AB10 1JU,57.14695683,-2.10583721,S02001249,S01006586
Nether Don Fishers Fund,SC022305,Aberdeen City,AB10 1RD,57.14589821,-2.10419814,S02001249,S01006586
Nether Don Widows Fund,SC022306,Aberdeen City,AB10 1RD,57.14589821,-2.10419814,S02001249,S01006586
Cairns Counselling ,SC023108,Aberdeen City,AB10 1RJ,57.1469385,-2.10626684,S02001249,S01006586
Aberdeen Day Project Limited,SC030100,Aberdeen City,AB25 1NT,57.1483199,-2.10858457,S02001249,S01006586
Aberdeen African Choir,SC050828,Aberdeen City,AB10 1SH,57.14560894,-2.10636218,S02001249,S01006586
Croileagan Obar Dheathain,SC000549,Aberdeen City,AB21 7FL,57.20030218,-2.18670468,S02001277,S01006748
RCCG Fountain Of Love Inverurie,SC045781,Aberdeen City,AB21 7FP,57.20102997,-2.18045232,S02001277,S01006748
St Johns Episcopal Church: Aberdeen,SC000608,Aberdeen City,AB15 8TQ,57.15613355,-2.22955979,S02001275,S01006734
1st Kingswells Scout Group,SC047403,Aberdeen City,AB15 8TG,57.15681726,-2.22404279,S02001275,S01006734
Culter Community Playgroup,SC000761,Aberdeen City,AB14 0UD,57.09633073,-2.26708214,S02001236,S01006506
Culter & District Community Association,SC005948,Aberdeen City,AB14 0UD,57.09633073,-2.26708214,S02001236,S01006506
Culter Theatre Club,SC021432,Aberdeen City,AB14 0UD,57.09633073,-2.26708214,S02001236,S01006506
47th Aberdeen (Culter) Boys Brigade,SC036739,Aberdeen City,AB14 0UF,57.09749011,-2.271002,S02001236,S01006506
East Cults Playgroup,SC001160,Aberdeen City,AB15 9EX,57.11508521,-2.18944548,S02001238,S01006525
Cults Parish Church of Scotland,SC017517,Aberdeen City,AB15 9TD,57.11652222,-2.18360734,S02001238,S01006525
Rubislaw Pipe Band,SC034973,Aberdeen City,AB15 9TY,57.11725255,-2.19373343,S02001238,S01006525
55th (Kincorth) Scout Group,SC035512,Aberdeen City,AB15 9TY,57.11725255,-2.19373343,S02001238,S01006525
Peterculter Parish Church of Scotland,SC001452,Aberdeen City,AB13 0EG,57.10931205,-2.24010006,S02001237,S01006514
St Thomas Indian Orthodox Church Aberdeen,SC046256,Aberdeen City,AB13 0EJ,57.10722022,-2.23945919,S02001237,S01006514
Aberdeen Lads Club,SC001641,Aberdeen City,AB24 2XL,57.17251955,-2.11905785,S02001266,S01006678
Aberdeen Lads Club Community Project,SC046505,Aberdeen City,AB24 2XL,57.17251955,-2.11905785,S02001266,S01006678
Donside Village Community SCIO,SC046955,Aberdeen City,AB24 2PF,57.17454632,-2.11301128,S02001266,S01006678
"Mannofield Church of Scotland, Aberdeen",SC001680,Aberdeen City,AB10 6UZ,57.13199598,-2.13775971,S02001242,S01006545
Printfield Community Project/Forum,SC001762,Aberdeen City,AB24 4AU,57.16801382,-2.124467,S02001267,S01006682
Fersands & Fountain Community Project,SC026690,Aberdeen City,AB24 2QY,57.16957084,-2.12144611,S02001267,S01006682
Aberdeen & District Cerebral Palsy Association,SC001785,Aberdeen City,AB21 9BF,57.18916987,-2.17596033,S02001277,S01006743
Aberdeen Stoneywood Scout Group,SC040165,Aberdeen City,AB21 9HS,57.18671735,-2.18236771,S02001277,S01006743
"Woodside Parish Church of Scotland, Aberdeen",SC001966,Aberdeen City,AB24 4DQ,57.17004208,-2.126359,S02001268,S01006693
Aberdeen Women's Alliance,SC039022,Aberdeen City,AB24 4DL,57.17014189,-2.12536715,S02001268,S01006693
The Lazarus Project,SC045117,Aberdeen City,AB24 4NR,57.16962467,-2.13044204,S02001268,S01006693
RCCG- City of the Great King,SC046811,Aberdeen City,AB24 4NR,57.16962467,-2.13044204,S02001268,S01006693
Queens Cross Church Of Scotland Aberdeen,SC002019,Aberdeen City,AB10 1YN,57.1426907,-2.12449746,S02001247,S01006571
James Allan Of Midbeltie's Fund For Widows,SC003865,Aberdeen City,AB15 4YL,57.14214643,-2.12970071,S02001247,S01006571
Home-Start Aberdeen,SC012942,Aberdeen City,AB10 1YD,57.14301613,-2.11286535,S02001247,S01006571
St Marys Episcopal Church: Aberdeen,SC014062,Aberdeen City,AB10 1UN,57.14385149,-2.12248534,S02001247,S01006571
Female Society for Relief of Aged and Indigent Old Women,SC016491,Aberdeen City,AB15 4YL,57.14214643,-2.12970071,S02001247,S01006571
John And Gladys Colquhoun Trust Fund,SC025417,Aberdeen City,AB10 1XE,57.14352384,-2.1175599,S02001247,S01006571
A.D.H.D. Aberdeen And The North East,SC027742,Aberdeen City,AB25 2BX,57.14568634,-2.1200952,S02001247,S01006571
27th Scout Group Rosehill Avenue,SC031060,Aberdeen City,AB25 2DD,57.14491903,-2.1239431,S02001247,S01006571
Tom And Thelma Wilson Trust,SC035023,Aberdeen City,AB10 1XE,57.14352384,-2.1175599,S02001247,S01006571
"St Clement's Scottish Episcopal Church, Mastrick, in the Diocese of Aberdeen & Orkney",SC002152,Aberdeen City,AB22 8TY,57.18677754,-2.11692001,S02001281,S01006769
3rd Aberdeen Boys Brigade,SC034680,Aberdeen City,AB22 8DB,57.18537048,-2.1228877,S02001281,S01006769
Instant Neighbour Aberdeen,SC002223,Aberdeen City,AB24 3YJ,57.16671241,-2.11384714,S02001266,S01006677
Tillydrone Community Campus SCIO,SC049786,Aberdeen City,AB24 2SZ,57.16817013,-2.11109018,S02001266,S01006677
St Ninians Episcopal Church: Aberdeen,SC002429,Aberdeen City,AB10 7FP,57.13542355,-2.1149734,S02001252,S01006601
Milltimber Community Association,SC002537,Aberdeen City,AB13 0JT,57.11076799,-2.23500786,S02001237,S01006515
65th Aberdeen (Milltimber) Scout Group,SC039649,Aberdeen City,AB13 0JD,57.10968558,-2.23257408,S02001237,S01006515
Milltimber Community Association SCIO,SC048117,Aberdeen City,AB13 0JT,57.11076799,-2.23500786,S02001237,S01006515
The Lighthouse Support Centre,SC050042,Aberdeen City,AB13 0JE,57.10888693,-2.23691101,S02001237,S01006515
Rubislaw Playgroups,SC002911,Aberdeen City,AB15 5PZ,57.1515556,-2.12583304,S02001245,S01006558
Aberdeen Civic Society,SC003089,Aberdeen City,AB15 8DR,57.14203017,-2.16028624,S02001243,S01006551
Tigh A' Chomainn Camphill Ltd,SC003220,Aberdeen City,AB10 6SD,57.14137021,-2.11509103,S02001248,S01006579
The Shannel Trust,SC049035,Aberdeen City,AB10 6SD,57.14137021,-2.11509103,S02001248,S01006579
Aberdeen Christian Fellowship,SC004028,Aberdeen City,AB10 6SR,57.14075409,-2.12069055,S02001248,S01006580
Garthdee Alpine Sports,SC037683,Aberdeen City,AB10 6US,57.14142746,-2.12105627,S02001248,S01006580
1st Dyce Scout Group,SC004284,Aberdeen City,AB21 7EP,57.20536724,-2.18759101,S02001278,S01006753
Dyce Parish Church of Scotland,SC016950,Aberdeen City,AB21 7DN,57.20815987,-2.18830044,S02001278,S01006753
Dyce and Stoneywood Community Association,SC049809,Aberdeen City,AB21 7BD,57.20586352,-2.1861038,S02001278,S01006753
Dr John Calder Fund,SC004299,Aberdeen City,AB24 1RQ,57.16941897,-2.10019657,S02001265,S01006671
Friends Of St Machars Cathedral,SC007590,Aberdeen City,AB24 1RQ,57.16941897,-2.10019657,S02001265,S01006671
"St Machar's Cathedral, Aberdeen, Church of Scotland",SC008157,Aberdeen City,AB24 1RQ,57.16941897,-2.10019657,S02001265,S01006671
Friends of Seaton Park,SC046237,Aberdeen City,AB24 1WS,57.1733394,-2.09526235,S02001265,S01006671
The Lumsden Smith Benevolent Fund,SC004351,Aberdeen City,AB10 1BS,57.14822305,-2.0951315,S02001261,S01006646
Society Of Advocates In Aberdeen Williamson Prize Fund,SC015704,Aberdeen City,AB10 1BS,57.14822305,-2.0951315,S02001261,S01006646
Aberdeen Street Pastors,SC041984,Aberdeen City,AB25 1BT,57.15139732,-2.10237901,S02001261,S01006646
 Cultivate Aberdeen SCIO ,SC048720,Aberdeen City,AB10 1BL,57.14848162,-2.09764425,S02001261,S01006646
Bridge Of Don Baptist Church,SC004490,Aberdeen City,AB22 8FN,57.19673576,-2.12995861,S02001280,S01006765
Befriend A Child,SC005467,Aberdeen City,AB11 6DJ,57.14278828,-2.10635406,S02001249,S01006582
The Aberdeen Seafarers Centre,SC043560,Aberdeen City,AB11 6EL,57.14237588,-2.10537795,S02001249,S01006582
Sitter Service For The Handicapped,SC005682,Aberdeen City,AB10 6RJ,57.13889218,-2.12317939,S02001248,S01006576
"Holburn West Church of Scotland, Aberdeen",SC013318,Aberdeen City,AB10 6RY,57.13734645,-2.12383512,S02001248,S01006576
Ashley Road Primary School Pta,SC035043,Aberdeen City,AB10 6RU,57.13794966,-2.1224658,S02001248,S01006576
Charles Brown Trust,SC005937,Aberdeen City,AB21 9SS,57.17438504,-2.21020727,S02001275,S01006732
Newhills Parish Church of Scotland,SC011204,Aberdeen City,AB21 9SS,57.17438504,-2.21020727,S02001275,S01006732
Aberdeen Physically Disabled Swimming Club,SC036446,Aberdeen City,AB21 0TT,57.1908606,-2.2579199,S02001275,S01006732
The Living Well Project,SC042266,Aberdeen City,AB21 9SS,57.17438504,-2.21020727,S02001275,S01006732
Friends of Orchard Brae,SC049024,Aberdeen City,AB16 7RW,57.16505338,-2.17394414,S02001275,S01006732
Friends Of Woodend,SC005952,Aberdeen City,AB25 2QS,57.15040064,-2.12194509,S02001246,S01006569
Granite City Brass,SC041326,Aberdeen City,AB25 2QN,57.1504023,-2.12022621,S02001246,S01006569
Miss Caroline Jane Spence's Fund,SC006434,Aberdeen City,AB15 9SX,57.11722274,-2.1774845,S02001238,S01006524
John Burnett's Mortification (Kinnadie Estate),SC014563,Aberdeen City,AB15 9SX,57.11722274,-2.1774845,S02001238,S01006524
St Katherine's Trust,SC017184,Aberdeen City,AB15 9SX,57.11722274,-2.1774845,S02001238,S01006524
21st Aberdeen (Cults) Scout Group,SC018385,Aberdeen City,AB15 9LP,57.11682761,-2.17740004,S02001238,S01006524
Phoenix Benevolent,SC048872,Aberdeen City,AB15 9DX,57.10975547,-2.19706222,S02001238,S01006524
Mrs Edna Mary Edwards Memorial Trust,SC048996,Aberdeen City,AB15 9SX,57.11722274,-2.1774845,S02001238,S01006524
Kingswells Church of Scotland,SC006865,Aberdeen City,AB15 8QA,57.14693421,-2.21476135,S02001275,S01006737
Aberdeen Strathspey & Reel Society,SC011924,Aberdeen City,AB15 8TA,57.14763414,-2.2151951,S02001275,S01006737
Kingswells Public Hall Management Committee,SC042085,Aberdeen City,AB15 8TD,57.15379791,-2.21956161,S02001275,S01006737
Aberdeen Theatre Organ Trust,SC044203,Aberdeen City,AB15 8TD,57.15379791,-2.21956161,S02001275,S01006737
Mile End Primary School Parent Teacher Association,SC007530,Aberdeen City,AB15 5PD,57.15153198,-2.13963404,S02001245,S01006562
Disabled Persons Housing Service (Aberdeen City),SC034791,Aberdeen City,AB15 5PF,57.15064559,-2.14496919,S02001245,S01006562
Aberdeen Psychic Centre & Healing Sanctuary,SC007722,Aberdeen City,AB11 6EE,57.14267425,-2.1030654,S02001250,S01006590
Crown Terrace Methodist Church,SC007882,Aberdeen City,AB11 6HE,57.14404089,-2.10156545,S02001250,S01006590
Aberdeen Open Hands Group,SC041469,Aberdeen City,AB11 6EF,57.1418572,-2.10256741,S02001250,S01006590
17th City Of Aberdeen Scout Troop,SC008046,Aberdeen City,AB22 8LF,57.19118674,-2.12758956,S02001280,S01006762
38th Aberdeen (Queen's Cross & Rubislaw) Scout Group,SC031051,Aberdeen City,AB22 8LF,57.19118674,-2.12758956,S02001280,S01006762
Bridge of Don and Danestone First Responder Service,SC043319,Aberdeen City,AB22 9AE,57.18873863,-2.13216403,S02001280,S01006762
Friends Of Aberdeen University Library,SC009009,Aberdeen City,AB24 3AA,57.16542591,-2.10580744,S02001263,S01006662
Pathways Services Limited,SC028919,Aberdeen City,AB24 3YX,57.16462257,-2.11026934,S02001263,S01006662
Linksfield Academy Trust Fund,SC030175,Aberdeen City,AB24 3YZ,57.166068,-2.11121614,S02001263,S01006662
St Machar Parent Support Project,SC035404,Aberdeen City,AB24 3YW,57.16536842,-2.10997395,S02001263,S01006662
Friends of Sunnybank Park SCIO,SC042629,Aberdeen City,AB24 3YT,57.16406504,-2.11092903,S02001263,S01006662
"Torry St Fitticks Parish Church of Scotland, Aberdeen",SC009020,Aberdeen City,AB11 8DL,57.1349849,-2.0913472,S02001257,S01006624
Air Training Corps No 0107 Aberdeen Squadron Non Public Sports & Welfare Funds,SC024935,Aberdeen City,AB11 8BY,57.1319109,-2.09378449,S02001257,S01006624
Torry United Free Church,SC009542,Aberdeen City,AB11 8RJ,57.13313391,-2.07887001,S02001258,S01006635
Friends of Balnagask Court,SC037107,Aberdeen City,AB11 8RJ,57.13313391,-2.07887001,S02001258,S01006635
Friends Of The Kirk Of St Nicholas,SC009559,Aberdeen City,AB15 4ES,57.14536146,-2.14678281,S02001243,S01006549
John Ogilvie Mortification,SC009855,Aberdeen City,AB15 6YR,57.14591617,-2.16311245,S02001243,S01006552
Scottish Retired Teachers Association Benevolent Fund - Aberdeen & District Branch,SC010178,Aberdeen City,AB10 7DE,57.12110874,-2.12913157,S02001239,S01006530
Kaimhill Mini-Bus Project,SC031063,Aberdeen City,AB10 7HR,57.12366133,-2.12776966,S02001239,S01006530
"Midstocket Parish Church of Scotland, Aberdeen",SC010643,Aberdeen City,AB15 5EN,57.14813208,-2.13539036,S02001245,S01006560
Westburn Development Trust SCIO,SC050078,Aberdeen City,AB15 5LX,57.15133695,-2.12884042,S02001245,S01006560
Ferryhill Parish Church of Scotland,SC010756,Aberdeen City,AB11 6UD,57.13670712,-2.10594006,S02001251,S01006596
62nd Aberdeen Scout Group,SC032866,Aberdeen City,AB11 7SG,57.13794029,-2.10295307,S02001251,S01006596
Milltimber Community Association Playgroup And Rising Fives,SC010826,Aberdeen City,AB13 0EA,57.10611187,-2.23172626,S02001237,S01006516
Simeon Care For The Elderly Ltd,SC012239,Aberdeen City,AB15 9BN,57.11747691,-2.19959675,S02001238,S01006519
Aberdeen Incorporation Of Tailors - James Milne Mortification,SC014002,Aberdeen City,AB15 9NY,57.11721079,-2.19746514,S02001238,S01006519
St Devenicks Playgroup,SC016621,Aberdeen City,AB15 9AP,57.11371604,-2.19767768,S02001238,S01006519
Hillview Community Church,SC020153,Aberdeen City,AB15 9NY,57.11721079,-2.19746514,S02001238,S01006519
Camphill Senior Cohousing Aberdeen,SC049638,Aberdeen City,AB15 9BN,57.11747691,-2.19959675,S02001238,S01006519
Rosemount Trust Christian Brethren,SC012276,Aberdeen City,AB11 7UF,57.13415168,-2.10020013,S02001252,S01006598
Aberdeen Play Forum,SC029593,Aberdeen City,AB11 7SL,57.13162076,-2.09730238,S02001252,S01006598
Friends of Duthie Park,SC041679,Aberdeen City,AB11 7TH,57.13247055,-2.10181451,S02001252,S01006598
All Shapes And Sizes,SC044560,Aberdeen City,AB11 7SL,57.13162076,-2.09730238,S02001252,S01006598
Mission,SC012319,Aberdeen City,AB24 3RX,57.1669574,-2.10048752,S02001265,S01006672
S.T.A.R - Seaton Taking Action For Regeneration,SC032393,Aberdeen City,AB24 1UX,57.16827354,-2.09455479,S02001265,S01006672
Samuel Trust,SC036820,Aberdeen City,AB24 3RX,57.1669574,-2.10048752,S02001265,S01006672
"Ruthrieston West Church of Scotland, Aberdeen",SC013020,Aberdeen City,AB10 6JD,57.1331594,-2.12479579,S02001240,S01006534
St James Episcopal Church: Aberdeen,SC016174,Aberdeen City,AB10 6JH,57.13220963,-2.12233117,S02001240,S01006534
Aberdeen South Holburn Church of Scotland,SC017516,Aberdeen City,AB10 6JB,57.1329918,-2.12167295,S02001240,S01006534
Church of Scotland Presbytery of Aberdeen and Shetland,SC013064,Aberdeen City,AB16 6TR,57.1562373,-2.16338938,S02001270,S01006703
Aberdeen North Parish Church of Scotland,SC013459,Aberdeen City,AB16 6TR,57.1562373,-2.16338938,S02001270,S01006703
James Tyrrell Centre,SC029188,Aberdeen City,AB16 6TR,57.1562373,-2.16338938,S02001270,S01006703
The Church of Scotland - Aberdeen: St Stephens Church,SC014120,Aberdeen City,AB23 8LN,57.20233759,-2.10498643,S02001284,S01006788
Northfield United Free Church,SC014484,Aberdeen City,AB16 5UY,57.16458607,-2.16063201,S02001273,S01006723
Friends of The North East of Scotland Music School,SC014898,Aberdeen City,AB22 8WF,57.18898875,-2.12476932,S02001280,S01006767
53rd City Of Aberdeen Scout Group,SC014952,Aberdeen City,AB15 7RL,57.12945713,-2.14278838,S02001241,S01006541
Aberdeen Care And Repair Group,SC015306,Aberdeen City,AB10 1UT,57.14559093,-2.11649231,S02001249,S01006584
1st Bucksburn Rainbow Unit,SC030736,Aberdeen City,AB10 1UX,57.14522431,-2.11467336,S02001249,S01006584
54th Aberdeen Guide Company,SC030828,Aberdeen City,AB10 1UX,57.14522431,-2.11467336,S02001249,S01006584
"Don Division Guide, Brownie & Rainbow Units",SC030925,Aberdeen City,AB10 1UX,57.14522431,-2.11467336,S02001249,S01006584
22nd A/B Aberdeen Brownie Unit,SC030931,Aberdeen City,AB10 1UX,57.14522431,-2.11467336,S02001249,S01006584
9th Aberdeen Guides,SC031048,Aberdeen City,AB10 1UX,57.14522431,-2.11467336,S02001249,S01006584
3rd Rosemount Rainbow Unit Aberdeen,SC031083,Aberdeen City,AB10 1UX,57.14522431,-2.11467336,S02001249,S01006584
2nd Parkway Brownie Unit,SC031121,Aberdeen City,AB10 1UX,57.14522431,-2.11467336,S02001249,S01006584
1st Newhills Brownie Unit,SC031350,Aberdeen City,AB10 1UX,57.14522431,-2.11467336,S02001249,S01006584
1st Parkway Rainbow Unit,SC031504,Aberdeen City,AB10 1UX,57.14522431,-2.11467336,S02001249,S01006584
4th Parkway Brownie Unit,SC031516,Aberdeen City,AB10 1UX,57.14522431,-2.11467336,S02001249,S01006584
19th Holburn West Guides,SC031742,Aberdeen City,AB10 1UX,57.14522431,-2.11467336,S02001249,S01006584
9th Aberdeen Brownie Unit,SC032123,Aberdeen City,AB10 1UX,57.14522431,-2.11467336,S02001249,S01006584
Cults District Guides,SC032140,Aberdeen City,AB10 1UX,57.14522431,-2.11467336,S02001249,S01006584
33rd North Church Of Saint Andrews Guide Company,SC032356,Aberdeen City,AB10 1UX,57.14522431,-2.11467336,S02001249,S01006584
Guide Association - North Church Of Saint Andrews Senior Section,SC032357,Aberdeen City,AB10 1UX,57.14522431,-2.11467336,S02001249,S01006584
37th A Brownies - Aberdeen,SC032674,Aberdeen City,AB10 1UX,57.14522431,-2.11467336,S02001249,S01006584
1st Parkway Guides,SC032703,Aberdeen City,AB10 1UX,57.14522431,-2.11467336,S02001249,S01006584
4th A Parkway Brownies,SC032865,Aberdeen City,AB10 1UX,57.14522431,-2.11467336,S02001249,S01006584
37th Beechgrove Brownie Unit,SC032962,Aberdeen City,AB10 1UX,57.14522431,-2.11467336,S02001249,S01006584
40th Aberdeen Guides,SC033338,Aberdeen City,AB10 1UX,57.14522431,-2.11467336,S02001249,S01006584
3rd Parkway Rainbow Guides Unit,SC033563,Aberdeen City,AB10 1UX,57.14522431,-2.11467336,S02001249,S01006584
2nd Macaulay Rainbow Guide Unit,SC033769,Aberdeen City,AB10 1UX,57.14522431,-2.11467336,S02001249,S01006584
5th Parkway Brownies,SC033955,Aberdeen City,AB10 1UX,57.14522431,-2.11467336,S02001249,S01006584
1st Albyn Rainbows,SC034145,Aberdeen City,AB10 1UX,57.14522431,-2.11467336,S02001249,S01006584
19th Aberdeen Brownie Unit,SC034198,Aberdeen City,AB10 1UX,57.14522431,-2.11467336,S02001249,S01006584
2nd Culter Brownie Pack,SC034610,Aberdeen City,AB10 1UX,57.14522431,-2.11467336,S02001249,S01006584
40th Mannofield Brownie Pack,SC034621,Aberdeen City,AB10 1UX,57.14522431,-2.11467336,S02001249,S01006584
22nd Aberdeen Guides,SC034758,Aberdeen City,AB10 1UX,57.14522431,-2.11467336,S02001249,S01006584
51st Aberdeen Brownie Pack,SC034762,Aberdeen City,AB10 1UX,57.14522431,-2.11467336,S02001249,S01006584
Milltimber Rainbow Group,SC035085,Aberdeen City,AB10 1UX,57.14522431,-2.11467336,S02001249,S01006584
55th Aberdeen Guide Unit,SC035649,Aberdeen City,AB10 1UX,57.14522431,-2.11467336,S02001249,S01006584
1st Wellington Rainbows,SC035711,Aberdeen City,AB10 1UX,57.14522431,-2.11467336,S02001249,S01006584
Aberdeen City Heritage Trust,SC036391,Aberdeen City,AB10 1UR,57.14507674,-2.11878772,S02001249,S01006584
3rd Albyn Rainbows,SC036517,Aberdeen City,AB10 1UX,57.14522431,-2.11467336,S02001249,S01006584
"16th Ferryhill Guides, Aberdeen",SC036693,Aberdeen City,AB10 1UX,57.14522431,-2.11467336,S02001249,S01006584
1st Ferryhill Rainbow Unit,SC036730,Aberdeen City,AB10 1UX,57.14522431,-2.11467336,S02001249,S01006584
2nd Bridge Of Don Brownie Unit,SC036789,Aberdeen City,AB10 1UX,57.14522431,-2.11467336,S02001249,S01006584
4th Parkway Rainbows,SC036835,Aberdeen City,AB10 1UX,57.14522431,-2.11467336,S02001249,S01006584
37th Aberdeen Guides,SC037151,Aberdeen City,AB10 1UX,57.14522431,-2.11467336,S02001249,S01006584
54th City Of Aberdeen Brownie Unit,SC038251,Aberdeen City,AB10 1UX,57.14522431,-2.11467336,S02001249,S01006584
2nd Cults Guide Unit,SC038394,Aberdeen City,AB10 1UX,57.14522431,-2.11467336,S02001249,S01006584
3rd Cult Rainbow Unit,SC038401,Aberdeen City,AB10 1UX,57.14522431,-2.11467336,S02001249,S01006584
2nd Hilton Rainbow Unit,SC038533,Aberdeen City,AB10 1UX,57.14522431,-2.11467336,S02001249,S01006584
2nd Dyce Rainbow Unit,SC038714,Aberdeen City,AB10 1UX,57.14522431,-2.11467336,S02001249,S01006584
1st Machar Brownie Unit,SC038942,Aberdeen City,AB10 1UX,57.14522431,-2.11467336,S02001249,S01006584
55th A City Of Aberdeen Brownie Unit,SC038970,Aberdeen City,AB10 1UX,57.14522431,-2.11467336,S02001249,S01006584
2nd Cults Brownie Unit,SC038984,Aberdeen City,AB10 1UX,57.14522431,-2.11467336,S02001249,S01006584
1st Kaimhill Rainbow Unit,SC039018,Aberdeen City,AB10 1UX,57.14522431,-2.11467336,S02001249,S01006584
33rd City Of Aberdeen Brownie Unit,SC039068,Aberdeen City,AB10 1UX,57.14522431,-2.11467336,S02001249,S01006584
47th A City of Aberdeen Brownie Unit,SC039097,Aberdeen City,AB10 1UX,57.14522431,-2.11467336,S02001249,S01006584
1st Cults Brownie Unit,SC039160,Aberdeen City,AB10 1UX,57.14522431,-2.11467336,S02001249,S01006584
40th A City of Aberdeen Brownie Unit,SC039311,Aberdeen City,AB10 1UX,57.14522431,-2.11467336,S02001249,S01006584
2nd Parkway Rainbow Unit,SC039315,Aberdeen City,AB10 1UX,57.14522431,-2.11467336,S02001249,S01006584
3rd Cults Brownie Unit,SC040278,Aberdeen City,AB10 1UX,57.14522431,-2.11467336,S02001249,S01006584
19thA Albyn Brownie Unit,SC040851,Aberdeen City,AB10 1UX,57.14522431,-2.11467336,S02001249,S01006584
1st Macaulay Rainbow Unit,SC040853,Aberdeen City,AB10 1UX,57.14522431,-2.11467336,S02001249,S01006584
28th Hilton Guide Unit,SC040854,Aberdeen City,AB10 1UX,57.14522431,-2.11467336,S02001249,S01006584
28th Hilton Senior Section Unit,SC040855,Aberdeen City,AB10 1UX,57.14522431,-2.11467336,S02001249,S01006584
3rd Hilton Rainbow Unit,SC040856,Aberdeen City,AB10 1UX,57.14522431,-2.11467336,S02001249,S01006584
48th Wellington Brownie Unit,SC040857,Aberdeen City,AB10 1UX,57.14522431,-2.11467336,S02001249,S01006584
48th Wellington Guide Unit,SC040858,Aberdeen City,AB10 1UX,57.14522431,-2.11467336,S02001249,S01006584
4th Kaimhill Rainbow Unit,SC040859,Aberdeen City,AB10 1UX,57.14522431,-2.11467336,S02001249,S01006584
53rd Wellington Brownie Unit,SC040860,Aberdeen City,AB10 1UX,57.14522431,-2.11467336,S02001249,S01006584
3rd Wellington Rainbow Unit,SC040879,Aberdeen City,AB10 1UX,57.14522431,-2.11467336,S02001249,S01006584
28th Hilton Brownie Unit,SC040880,Aberdeen City,AB10 1UX,57.14522431,-2.11467336,S02001249,S01006584
30th Wellington Brownie Unit,SC040881,Aberdeen City,AB10 1UX,57.14522431,-2.11467336,S02001249,S01006584
13th City of Aberdeen Guide Unit,SC040882,Aberdeen City,AB10 1UX,57.14522431,-2.11467336,S02001249,S01006584
13th City of Aberdeen Brownie Unit,SC040883,Aberdeen City,AB10 1UX,57.14522431,-2.11467336,S02001249,S01006584
38th City of Aberdeen Brownie Unit,SC040885,Aberdeen City,AB10 1UX,57.14522431,-2.11467336,S02001249,S01006584
1st Anderson Rainbow Unit,SC040888,Aberdeen City,AB10 1UX,57.14522431,-2.11467336,S02001249,S01006584
3rd Kingswell Brownie Unit,SC041073,Aberdeen City,AB10 1UX,57.14522431,-2.11467336,S02001249,S01006584
1st Kingswell Rainbow Unit,SC041074,Aberdeen City,AB10 1UX,57.14522431,-2.11467336,S02001249,S01006584
2nd Kingswells Brownie Unit,SC041094,Aberdeen City,AB10 1UX,57.14522431,-2.11467336,S02001249,S01006584
1st Kingswells Guide Unit,SC041095,Aberdeen City,AB10 1UX,57.14522431,-2.11467336,S02001249,S01006584
1st Cults Rainbow Unit,SC041097,Aberdeen City,AB10 1UX,57.14522431,-2.11467336,S02001249,S01006584
2nd Kingswells Rainbow Unit,SC041098,Aberdeen City,AB10 1UX,57.14522431,-2.11467336,S02001249,S01006584
Ist Kingswells Brownie Unit,SC041106,Aberdeen City,AB10 1UX,57.14522431,-2.11467336,S02001249,S01006584
Ist Kingswells Senior Section,SC041107,Aberdeen City,AB10 1UX,57.14522431,-2.11467336,S02001249,S01006584
32nd City of Aberdeen Guide Unit,SC041128,Aberdeen City,AB10 1UX,57.14522431,-2.11467336,S02001249,S01006584
Ashgrove Senior Section Unit,SC041130,Aberdeen City,AB10 1UX,57.14522431,-2.11467336,S02001249,S01006584
3rd Ferryhill Rainbow Unit,SC041134,Aberdeen City,AB10 1UX,57.14522431,-2.11467336,S02001249,S01006584
1st Old Aberdeen Brownie Unit,SC044315,Aberdeen City,AB10 1UX,57.14522431,-2.11467336,S02001249,S01006584
Dee Senior Section Unit,SC044316,Aberdeen City,AB10 1UX,57.14522431,-2.11467336,S02001249,S01006584
1st Culter Brownie Unit,SC044326,Aberdeen City,AB10 1UX,57.14522431,-2.11467336,S02001249,S01006584
1st Old Aberdeen Rainbow Unit,SC044345,Aberdeen City,AB10 1UX,57.14522431,-2.11467336,S02001249,S01006584
1st Culter Rainbow Unit,SC044346,Aberdeen City,AB10 1UX,57.14522431,-2.11467336,S02001249,S01006584
39th City of Aberdeen Guide Unit,SC044357,Aberdeen City,AB10 1UX,57.14522431,-2.11467336,S02001249,S01006584
2nd Bankhead Guide Unit,SC044366,Aberdeen City,AB10 1UX,57.14522431,-2.11467336,S02001249,S01006584
1st Parkway Senior Section,SC044381,Aberdeen City,AB10 1UX,57.14522431,-2.11467336,S02001249,S01006584
2nd Albyn Rainbow Unit,SC044415,Aberdeen City,AB10 1UX,57.14522431,-2.11467336,S02001249,S01006584
2nd Machar Rainbow Unit,SC044543,Aberdeen City,AB10 1UX,57.14522431,-2.11467336,S02001249,S01006584
1st Old Aberdeen Guide Unit,SC044822,Aberdeen City,AB10 1UX,57.14522431,-2.11467336,S02001249,S01006584
1st Milltimber Guide Unit,SC045409,Aberdeen City,AB10 1UX,57.14522431,-2.11467336,S02001249,S01006584
30th City of Aberdeen Guide Unit,SC045766,Aberdeen City,AB10 1UX,57.14522431,-2.11467336,S02001249,S01006584
1st Mastrick Rainbow Unit,SC047257,Aberdeen City,AB10 1UX,57.14522431,-2.11467336,S02001249,S01006584
51st City of Aberdeen Guide Unit,SC047624,Aberdeen City,AB10 1UX,57.14522431,-2.11467336,S02001249,S01006584
Aberdeen St Mark's Church of Scotland,SC015451,Aberdeen City,AB25 1JY,57.14804417,-2.10537758,S02001261,S01006648
Aberdeen Tailors Incorporation - Watson & Chalmers Mortification,SC015749,Aberdeen City,AB22 8QY,57.19484506,-2.1160189,S02001281,S01006774
Aberdeen Bridge of Don St Columba's Church of Scotland,SC027440,Aberdeen City,AB22 8QZ,57.19474336,-2.11909642,S02001281,S01006774
"Rubislaw Parish Church of Scotland, Aberdeen",SC015841,Aberdeen City,AB15 4BQ,57.14577331,-2.13186176,S02001247,S01006573
"South St Nicholas & Kincorth Church of Scotland, Aberdeen",SC016043,Aberdeen City,AB12 3HF,57.10528296,-2.08420862,S02001256,S01006620
The Altens & Cove Community Association,SC043992,Aberdeen City,AB12 3SE,57.10718642,-2.08561618,S02001256,S01006620
Robert Gordon University Student Association,SC016639,Aberdeen City,AB10 7GE,57.11877306,-2.13764447,S02001239,S01006528
1st City Of Aberdeen Scouts Group,SC017045,Aberdeen City,AB15 9BS,57.12378667,-2.21371881,S02001237,S01006517
Culter Amateur Sports (Training Leisure And Education) Limited,SC033897,Aberdeen City,AB15 9BU,57.11948595,-2.20157273,S02001237,S01006517
St Margarets Episcopal Church: Aberdeen,SC017053,Aberdeen City,AB23 8BX,57.17814022,-2.08998191,S02001283,S01006784
"Craigiebuckler Church of Scotland, Aberdeen",SC017158,Aberdeen City,AB15 8AA,57.13788656,-2.15508034,S02001243,S01006550
Sportschallenge Trust,SC050769,Aberdeen City,AB15 8JN,57.13999464,-2.15743546,S02001243,S01006550
Bucksburn Stoneywood Parish Church of Scotland,SC017404,Aberdeen City,AB21 9AD,57.177544,-2.17084379,S02001276,S01006738
St Mary's Church of Scotland: Aberdeen,SC018173,Aberdeen City,AB24 5SS,57.16396,-2.09679234,S02001264,S01006667
Torry Resource & Advice Group,SC018431,Aberdeen City,AB11 7SE,57.13728466,-2.10278603,S02001251,S01006593
Access To Training And Employment,SC028228,Aberdeen City,AB11 7SE,57.13728466,-2.10278603,S02001251,S01006593
Shopmobility Aberdeen,SC018633,Aberdeen City,AB11 5RG,57.14437759,-2.09609658,S02001250,S01006587
TLC SCIO,SC042674,Aberdeen City,AB11 5QN,57.14261902,-2.09331593,S02001250,S01006587
The Prayer Room 786 Ltd,SC043741,Aberdeen City,AB11 6JH,57.1415182,-2.09965828,S02001250,S01006587
The Potter's Hand,SC045930,Aberdeen City,AB11 5QP,57.14214293,-2.09329821,S02001250,S01006587
RCCG - Victory Assembly Banchory ,SC045934,Aberdeen City,AB11 5QP,57.14214293,-2.09329821,S02001250,S01006587
"RCCG - Restoration Chapel, Stonehaven",SC046083,Aberdeen City,AB11 5QP,57.14214293,-2.09329821,S02001250,S01006587
Community Fridge Network Aberdeen (SCIO),SC048958,Aberdeen City,AB11 6HB,57.14465881,-2.10389719,S02001250,S01006587
The Bridge,SC050930,Aberdeen City,AB11 5QP,57.14214293,-2.09329821,S02001250,S01006587
Middlefield Community Project SCIO ,SC018759,Aberdeen City,AB16 7UR,57.17015462,-2.15420694,S02001274,S01006727
Lord Provost Henry E Rae Community Centre,SC021744,Aberdeen City,AB16 7UR,57.17015462,-2.15420694,S02001274,S01006727
Aberdeen Chinese Christian Church,SC020452,Aberdeen City,AB11 6XW,57.13905694,-2.11025921,S02001251,S01006595
The Encampment Trust,SC050442,Aberdeen City,AB11 6XP,57.13943447,-2.10997944,S02001251,S01006595
St Machar's Cathedral Belfry Fund,SC020923,Aberdeen City,AB15 9AY,57.11859356,-2.20346694,S02001238,S01006520
Grampian Muslim Community Centre (GMCC),SC038794,Aberdeen City,AB15 9FE,57.1170427,-2.20699219,S02001238,S01006520
Baitu Taleem,SC045917,Aberdeen City,AB15 9AH,57.11709474,-2.20263307,S02001238,S01006520
Aberdeen Action On Disability Limited,SC022271,Aberdeen City,AB22 8GU,57.17973085,-2.11150539,S02001282,S01006775
Sheddocksley Baptist Church,SC024101,Aberdeen City,AB15 6LN,57.1494917,-2.16965651,S02001244,S01006555
Seaton Community Enterprise Limited,SC024353,Aberdeen City,AB24 1YA,57.17118514,-2.09307391,S02001265,S01006674
Air Training Corps No 2489 (Bridge of Don) Squadron Non-Public Sports and Welfare Funds,SC024616,Aberdeen City,AB22 8SD,57.187738,-2.10769127,S02001282,S01006777
Seaton Community Church SCIO ,SC047825,Aberdeen City,AB22 8RZ,57.18525045,-2.11689863,S02001282,S01006777
Royal Scottish Country Dance Society Aberdeen Branch,SC024738,Aberdeen City,AB10 7GF,57.12138115,-2.1506348,S02001239,S01006527
25th Beechgrove Scout Group,SC024776,Aberdeen City,AB22 8AF,57.176743,-2.12672924,S02001279,S01006756
Advocacy Service Aberdeen,SC024901,Aberdeen City,AB11 6YG,57.1398481,-2.10951803,S02001249,S01006583
Airyhall Community Centre,SC025273,Aberdeen City,AB15 8AD,57.13211697,-2.14973686,S02001242,S01006542
Aberdeen Bridge of Don Old Machar Church of Scotland,SC025324,Aberdeen City,AB22 8PR,57.20006659,-2.12288698,S02001280,S01006763
9th Aberdeen Scout Group,SC026057,Aberdeen City,AB15 7TS,57.127071,-2.14763527,S02001241,S01006537
Wallace 700,SC034208,Aberdeen City,AB15 7SX,57.12520055,-2.14929599,S02001241,S01006537
Northcote Lodge Trust,SC042417,Aberdeen City,AB15 7UB,57.12777077,-2.15579779,S02001241,S01006537
Banks O' Dee Sports Club Ltd,SC026594,Aberdeen City,AB12 3AB,57.12785821,-2.09555813,S02001256,S01006623
Aberdeen Council Of Voluntary Organisations,SC036845,Aberdeen City,AB12 3BT,57.12654588,-2.08417446,S02001256,S01006623
The Aberdeen Mosque and Islamic Centre,SC028038,Aberdeen City,AB24 3JD,57.16109128,-2.10076915,S02001263,S01006663
Aberdeen Mosque and Islamic Centre SCIO,SC048009,Aberdeen City,AB24 3JD,57.16109128,-2.10076915,S02001263,S01006663
Williams Cormack Trust,SC029537,Aberdeen City,AB15 5DR,57.14882565,-2.12494781,S02001245,S01006559
Rotary Club Of Aberdeen St Fittick Millennium Bursary Fund,SC030384,Aberdeen City,AB15 4YY,57.13976855,-2.13570674,S02001248,S01006581
St Peters Heritage Trust,SC030474,Aberdeen City,AB14 0RL,57.10041159,-2.25729073,S02001236,S01006511
The Morven Singers,SC047828,Aberdeen City,AB14 0RB,57.09986346,-2.25736945,S02001236,S01006511
44th Aberdeen Boys Brigade Company,SC030488,Aberdeen City,AB22 8UG,57.1881282,-2.11341683,S02001281,S01006770
The Bridge of Don Brigade,SC050686,Aberdeen City,AB22 8TJ,57.1887753,-2.11305484,S02001281,S01006770
Aberdeen: Stockethill Church of Scotland,SC030587,Aberdeen City,AB16 5EE,57.15750787,-2.13765636,S02001269,S01006697
46th Aberdeen (Bridge Of Don) Scout Group,SC031345,Aberdeen City,AB22 8UT,57.18977481,-2.11036101,S02001281,S01006772
Society Of Friends Of The Gordon Highlanders Museum,SC031352,Aberdeen City,AB15 7XH,57.13708855,-2.14638653,S02001242,S01006544
Queens Cross Trefoil Guild (Aberdeen),SC032968,Aberdeen City,AB16 5PP,57.15688139,-2.15848263,S02001270,S01006705
Old Aberdeen Heritage Society,SC033236,Aberdeen City,AB23 8QX,57.18405484,-2.09687811,S02001283,S01006783
Aberdeen And District Fibromyalgia Support Group,SC033870,Aberdeen City,AB16 6EB,57.15197573,-2.17917176,S02001271,S01006709
58th Aberdeen Scout Group,SC033968,Aberdeen City,AB14 0TX,57.09923948,-2.26791183,S02001236,S01006509
Station House Media Unit,SC034211,Aberdeen City,AB24 2WB,57.17240896,-2.13086531,S02001267,S01006685
Culter Youth Football Club,SC034822,Aberdeen City,AB15 9BD,57.1155906,-2.20506866,S02001238,S01006518
ARC Hippotherapy (SCIO),SC046528,Aberdeen City,AB15 9DT,57.11218978,-2.20275485,S02001238,S01006518
Bon Accord Explorer Scout Unit,SC035733,Aberdeen City,AB11 6WF,57.14024878,-2.10312473,S02001251,S01006591
Fiona and John Mallard Fellowship for Physics and Engineering in Medicine,SC036200,Aberdeen City,AB12 3HD,57.10425252,-2.08024455,S02001256,S01006619
Cove and Altens Men's Shed (SCIO),SC049347,Aberdeen City,AB12 3NU,57.10054303,-2.07942774,S02001256,S01006619
The Fiona and John Mallard Trust for Physics and Engineering in Medicine,SC050625,Aberdeen City,AB12 3HD,57.10425252,-2.08024455,S02001256,S01006619
63rd Aberdeen (cove Bay) Scout Group,SC036454,Aberdeen City,AB12 3SD,57.10390327,-2.09171618,S02001256,S01006622
Aberdeen Vineyard Church,SC037258,Aberdeen City,AB25 2NS,57.14853574,-2.11822038,S02001246,S01006568
Hilton Neighbourhood Watch Association,SC040921,Aberdeen City,AB25 3ST,57.16090337,-2.12029343,S02001262,S01006654
Sport Aberdeen,SC040973,Aberdeen City,AB23 8EE,57.18649865,-2.09630549,S02001283,S01006782
Club Sport Aberdeen SCIO ,SC049167,Aberdeen City,AB23 8BL,57.18616334,-2.08809895,S02001283,S01006782
Polish Association Aberdeen,SC041396,Aberdeen City,AB11 5BN,57.14710862,-2.09583926,S02001250,S01006588
CREATE Aberdeen,SC041611,Aberdeen City,AB10 7DR,57.12220987,-2.13275223,S02001239,S01006531
Aberdeen Hindu Association,SC041762,Aberdeen City,AB10 7DL,57.12180813,-2.13037263,S02001239,S01006531
32nd Aberdeen Company Boys Brigade,SC042469,Aberdeen City,AB16 7DR,57.17224771,-2.16129372,S02001274,S01006728
The Youth Outreach Bus Trust,SC042700,Aberdeen City,AB21 7FG,57.20265041,-2.18421734,S02001278,S01006754
Pound for Piper Memorial Trust,SC043546,Aberdeen City,AB15 9PA,57.11971989,-2.16443382,S02001238,S01006521
Ruthrieston Community Centre Asssociation,SC044026,Aberdeen City,AB10 7LL,57.1286202,-2.11840453,S02001252,S01006599
Northfield Community Learning Association SCIO,SC044034,Aberdeen City,AB16 7LL,57.16594056,-2.16214255,S02001273,S01006721
Alhikmah Foundation SCIO,SC044230,Aberdeen City,AB24 5ER,57.15392471,-2.09843551,S02001260,S01006642
Aberdeen Muslims SCIO,SC050977,Aberdeen City,AB24 3HP,57.15670829,-2.09988108,S02001260,S01006642
Aberdeen Hindu Temple Trust,SC044908,Aberdeen City,AB21 9HQ,57.18391624,-2.18127861,S02001277,S01006744
Autism Awareness Association,SC045020,Aberdeen City,AB25 2TZ,57.14923974,-2.11465276,S02001246,S01006567
Froghall Community Centre Association SCIO,SC045587,Aberdeen City,AB24 3NN,57.15898093,-2.11063274,S02001263,S01006659
Aberdeen Orpheus Choir,SC045709,Aberdeen City,AB15 8NQ,57.13561105,-2.16432266,S02001243,S01006548
Bon Accord Heritage SCIO,SC046052,Aberdeen City,AB24 4JJ,57.16242829,-2.13140863,S02001268,S01006688
Westhill & District Community Sports and Leisure Hub (SCIO),SC046264,Aberdeen City,AB23 8QG,57.19424692,-2.10138919,S02001284,S01006786
Fittie Community Development Trust SCIO,SC046775,Aberdeen City,AB11 5DR,57.14261533,-2.07168567,S02001259,S01006637
RCCG - Higher Ground Assembly ,SC046834,Aberdeen City,AB16 6WB,57.15590643,-2.18185216,S02001271,S01006710
Torry Development Trust Limited,SC047191,Aberdeen City,AB10 1TN,57.14432329,-2.10761438,S02001249,S01006585
Cove Woodland Trust SCIO,SC047550,Aberdeen City,AB12 3PE,57.10081147,-2.08106237,S02001255,S01006617
Loirston Annexe Community Centre SCIO,SC049889,Aberdeen City,AB12 3NX,57.09876192,-2.0832035,S02001255,S01006617
Mikey's Charity SCIO,SC047708,Aberdeen City,AB12 5DJ,57.11798273,-2.09954535,S02001254,S01006609
Old Torry Community Centre Association SCIO,SC047981,Aberdeen City,AB11 9QH,57.13725753,-2.07821793,S02001257,S01006627
Bonnymuir Green Community Trust,SC048260,Aberdeen City,AB15 5NQ,57.15158681,-2.13044453,S02001245,S01006561
Danestone Community Centre Association SCIO,SC049509,Aberdeen City,AB22 8ZP,57.18258917,-2.13692269,S02001279,S01006757
RCCG Oil of Joy,SC049553,Aberdeen City,AB21 9NW,57.17837622,-2.16654717,S02001276,S01006739
Garlogie Beam Engine Trust,SC049632,Aberdeen City,AB15 8LD,57.14059684,-2.16416303,S02001243,S01006547
Grace Baptist Church Aberdeen,SC049753,Aberdeen City,AB24 4RT,57.1654698,-2.12629376,S02001268,S01006689
Lovebridge Community Church [SCIO],SC049972,Aberdeen City,AB15 8TF,57.15686737,-2.22111717,S02001275,S01006735
Tillydrone Community Flat SCIO,SC050049,Aberdeen City,AB24 2QT,57.16977331,-2.11633703,S02001266,S01006675
Aberdeen Amateur Athletic Club,SC050149,Aberdeen City,AB24 5RU,57.16139247,-2.09468596,S02001264,S01006668
Tillydrone Community Development Trust SCIO,SC050475,Aberdeen City,AB12 3LL,57.09877534,-2.11203733,S02001254,S01006608
Alcolescents,SC050607,Aberdeen City,AB22 8TL,57.18370122,-2.13022706,S02001279,S01006760
Kittybrewster Parent Council,SC050785,Aberdeen City,AB24 3QG,57.16408709,-2.11633567,S02001262,S01006657
Bornomala Aberdeen,SC051067,Aberdeen City,AB25 3RQ,57.15617213,-2.11733564,S02001262,S01006655
United Reformed Church in Aberdeen,SC051085,Aberdeen City,AB22 8ZY,57.18064207,-2.13489745,S02001279,S01006758
Aberdeen City First Responders,SC051147,Aberdeen City,AB16 7YD,57.16883207,-2.14846344,S02001274,S01006726
Granite City Taekwondo,SC051164,Aberdeen City,AB15 6ES,57.15110576,-2.15812733,S02001244,S01006554
Aberdeen Independent Multiple Sclerosis SCIO,SC051225,Aberdeen City,AB23 8RB,57.18619875,-2.10070534,S02001283,S01006781
