Name,Charity Number,Local authority,Postcode,Latitude,Longitude,IntermediateZone2011Code,DataZone2011Code
Campsie Parish Church of Scotland,SC000835,East Dunbartonshire,G66 7EP,55.97295552,-4.18958537,S02001533,S01008158
Campsie Football Club,SC048574,East Dunbartonshire,G66 7ER,55.97239861,-4.19057959,S02001533,S01008158
212th Glasgow Boys Brigade Company,SC001145,East Dunbartonshire,G64 3AG,55.91120237,-4.22975347,S02001519,S01008092
Auchinairn Parent / Toddler Group,SC001348,East Dunbartonshire,G64 1NN,55.89956491,-4.21025769,S02001521,S01008106
Baldernock Childcare,SC002127,East Dunbartonshire,G64 4AS,55.94427988,-4.26302812,S02001518,S01008085
Torrance Guides,SC032216,East Dunbartonshire,G64 4LW,55.93780381,-4.22085822,S02001518,S01008085
32nd Glasgow 1st Kirkintilloch Scout Group,SC002267,East Dunbartonshire,G66 1EU,55.93787131,-4.16150514,S02001527,S01008133
Ethnic Minority Forum In East Dunbartonshire,SC031863,East Dunbartonshire,G66 1DH,55.93920881,-4.16108327,S02001527,S01008133
Care and Repair in East Dunbartonshire,SC040240,East Dunbartonshire,G66 1HW,55.94059455,-4.15790981,S02001527,S01008133
East Dunbartonshire Leisure and Culture Trust,SC041942,East Dunbartonshire,G66 1DH,55.93920881,-4.16108327,S02001527,S01008133
Kirkintilloch Hillhead Church Of Scotland,SC002424,East Dunbartonshire,G64 2LH,55.90937392,-4.21254396,S02001520,S01008096
Kirkintilloch Players Club,SC002574,East Dunbartonshire,G66 1PY,55.94203829,-4.15449914,S02001527,S01008135
Friends Of Kelvinbank,SC021133,East Dunbartonshire,G66 1RP,55.94543643,-4.143109,S02001527,S01008135
Stewart Family Trust,SC028166,East Dunbartonshire,G66 1SH,55.94110712,-4.16352698,S02001527,S01008135
Kirkintilloch Skatepark Initiative,SC034393,East Dunbartonshire,G66 2BL,55.93959043,-4.14851856,S02001527,S01008135
4th Glasgow Scout Group,SC050280,East Dunbartonshire,G66 1RW,55.95254449,-4.15859084,S02001527,S01008135
St Pauls Parish Church Of Scotland: Milngavie,SC002737,East Dunbartonshire,G62 8DP,55.94199297,-4.31020067,S02001508,S01008044
Standing Tall Arts,SC047472,East Dunbartonshire,G62 6AT,55.94049046,-4.30980693,S02001508,S01008044
St Cyprians Episcopal Church: Lenzie,SC003826,East Dunbartonshire,G66 4LE,55.9224481,-4.15798931,S02001524,S01008122
Lenzie Old Parish Church of Scotland,SC008935,East Dunbartonshire,G66 4LJ,55.9226035,-4.15116352,S02001524,S01008122
Lenzie Union Church of Scotland,SC015287,East Dunbartonshire,G66 4LD,55.9236158,-4.15597343,S02001524,S01008122
St Lukes Church Of Scotland: Milngavie,SC003870,East Dunbartonshire,G62 7RB,55.9417693,-4.34580315,S02001506,S01008034
Waterside Miners Charitable Society,SC003983,East Dunbartonshire,G66 3JQ,55.93244595,-4.12831899,S02001529,S01008144
Lenzie Old Parish Church Parent & Toddler Group,SC011608,East Dunbartonshire,G66 3US,55.92656426,-4.13582398,S02001529,S01008144
5th Kirkintilloch Guides,SC041401,East Dunbartonshire,G66 3FD,55.93890494,-4.11439037,S02001529,S01008144
St Joseph's Nursery,SC004008,East Dunbartonshire,G62 7AA,55.9409193,-4.32379658,S02001509,S01008047
"Westerton Fairlie Memorial Parish Church of Scotland, Bearsden",SC004489,East Dunbartonshire,G61 2SB,55.91357967,-4.32852914,S02001516,S01008076
Milngavie Churches Assoc Friendship House,SC004739,East Dunbartonshire,G62 6PJ,55.93911017,-4.31869209,S02001509,S01008046
"Springfield Cambridge Church of Scotland, Bishopbriggs",SC005642,East Dunbartonshire,G64 1PN,55.90404902,-4.21428843,S02001523,S01008111
Baldernock Parish Church of Scotland,SC006355,East Dunbartonshire,G61 4PP,55.91956884,-4.3364108,S02001513,S01008066
Bearsden Academy Parent Teacher Assoc,SC006983,East Dunbartonshire,G61 3SF,55.92789081,-4.34400363,S02001512,S01008061
"St Marys Parish Church of Scotland, Kirkintilloch",SC007260,East Dunbartonshire,G66 1JT,55.93917535,-4.15581329,S02001527,S01008134
Contact Point in East Dunbartonshire SCIO,SC008184,East Dunbartonshire,G66 1LF,55.93801103,-4.15866278,S02001527,S01008134
East Dunbartonshire Citizens Advice Bureau,SC023348,East Dunbartonshire,G66 1HB,55.93817427,-4.15601385,S02001527,S01008134
Park Centre (Strathkelvin) Limited,SC025724,East Dunbartonshire,G66 1LF,55.93801103,-4.15866278,S02001527,S01008134
Abbeyfield Bearsden Society Ltd,SC007636,East Dunbartonshire,G61 3PL,55.92090264,-4.32672761,S02001511,S01008054
Bearsden And Milngavie Talking Newspaper Association (Beam),SC015177,East Dunbartonshire,G61 2SY,55.91811142,-4.33174579,S02001511,S01008054
St Andrews Episcopal Church: Milngavie,SC008683,East Dunbartonshire,G62 7LF,55.95069877,-4.32849927,S02001507,S01008040
Kilmardinny Music Circle,SC028581,East Dunbartonshire,G62 7LE,55.9504001,-4.32860948,S02001507,S01008040
3rd Milngavie Rainbow Unit,SC046696,East Dunbartonshire,G62 7LE,55.9504001,-4.32860948,S02001507,S01008040
"St Columba Parish Church of Scotland, Kirkintilloch",SC008735,East Dunbartonshire,G66 3HS,55.93401374,-4.13535345,S02001526,S01008128
3rd Kirkintilloch Brownie Pack,SC034763,East Dunbartonshire,G66 3JN,55.93352918,-4.13996972,S02001526,S01008128
Guides - Kirkintilloch Division,SC008778,East Dunbartonshire,G66 5LS,55.91797535,-4.14290521,S02001525,S01008124
1st Lenzie Girls Brigade Company,SC034588,East Dunbartonshire,G66 5NJ,55.91920124,-4.13804357,S02001525,S01008124
Milngavie Choir,SC008971,East Dunbartonshire,G61 1QR,55.90724939,-4.31534957,S02001515,S01008075
The Church of Scotland Bearsden Cross Church,SC009082,East Dunbartonshire,G61 1AU,55.90514999,-4.32754377,S02001515,S01008074
Bearsden Primary After School Club Ltd,SC023318,East Dunbartonshire,G61 1HU,55.90442685,-4.333932,S02001515,S01008074
9th Bearsden Guide Unit,SC037262,East Dunbartonshire,G61 1AX,55.90540341,-4.32935088,S02001515,S01008074
Bishopbriggs Congregation Of Jehovahs Witnesses,SC009325,East Dunbartonshire,G66 4JG,55.92623831,-4.16529123,S02001524,S01008118
Lenzie District Guides,SC034325,East Dunbartonshire,G66 4HJ,55.92863508,-4.15930983,S02001524,S01008118
The Church of God Kirkintilloch,SC049313,East Dunbartonshire,G66 4HS,55.92582877,-4.16149072,S02001524,S01008118
2nd Lenzie Guide Unit,SC050499,East Dunbartonshire,G66 4HJ,55.92863508,-4.15930983,S02001524,S01008118
Mosshead Pre-School and Playgroup,SC009508,East Dunbartonshire,G61 3RS,55.92805771,-4.34137227,S02001511,S01008056
New Kilpatrick Parish Church of Scotland,SC012997,East Dunbartonshire,G61 3AP,55.92880792,-4.33831179,S02001511,S01008056
Way Ahead Group (A Stroke Club For Bearsden),SC033194,East Dunbartonshire,G61 3AD,55.92501559,-4.33592231,S02001511,S01008056
Milngavie Youth Centre,SC033899,East Dunbartonshire,G61 3RW,55.9257402,-4.34083227,S02001511,S01008056
12th Glasgow (1st Lenzie) Scout Group,SC009602,East Dunbartonshire,G66 8FZ,55.96431895,-4.16414961,S02001532,S01008157
4th Campsie Rainbow Unit,SC032406,East Dunbartonshire,G66 8EZ,55.96763034,-4.16186679,S02001532,S01008157
3rd Campsie Brownies,SC032694,East Dunbartonshire,G66 8EZ,55.96763034,-4.16186679,S02001532,S01008157
16th Glasgow (Milton Of Campsie) Scout Group,SC033937,East Dunbartonshire,G66 8ET,55.96707286,-4.16085822,S02001532,S01008157
Killermont Parish Church (Church of Scotland) Bearsden,SC009748,East Dunbartonshire,G61 2AT,55.91850462,-4.30849863,S02001517,S01008083
1st Killermont Rangers,SC032627,East Dunbartonshire,G61 2AT,55.91850462,-4.30849863,S02001517,S01008083
7th Bearsden Guides,SC032628,East Dunbartonshire,G61 2AT,55.91850462,-4.30849863,S02001517,S01008083
2nd Bearsden Guides,SC032629,East Dunbartonshire,G61 2AT,55.91850462,-4.30849863,S02001517,S01008083
20th Bearsden Brownies,SC032630,East Dunbartonshire,G61 2AT,55.91850462,-4.30849863,S02001517,S01008083
2nd A Bearsden Brownies,SC032631,East Dunbartonshire,G61 2AT,55.91850462,-4.30849863,S02001517,S01008083
2nd Bearsden Brownies,SC032632,East Dunbartonshire,G61 2AT,55.91850462,-4.30849863,S02001517,S01008083
2nd Killermont Rainbows,SC032633,East Dunbartonshire,G61 2AT,55.91850462,-4.30849863,S02001517,S01008083
1st Killermont Rainbows,SC032634,East Dunbartonshire,G61 2AT,55.91850462,-4.30849863,S02001517,S01008083
Twechar Church Of Scotland,SC011672,East Dunbartonshire,G65 9SP,55.9506381,-4.0888102,S02001530,S01008145
Twechar Miners Charitable Society,SC019089,East Dunbartonshire,G65 9QQ,55.95711937,-4.08393698,S02001530,S01008145
Twechar Community Action,SC031261,East Dunbartonshire,G65 9TA,55.95294012,-4.08342403,S02001530,S01008145
Twechar Youth Group,SC037005,East Dunbartonshire,G65 9TA,55.95294012,-4.08342403,S02001530,S01008145
Kenmure Parish Church of Scotland,SC012329,East Dunbartonshire,G64 2AF,55.90125817,-4.23394983,S02001520,S01008100
Bishopbriggs Islamic Community Centre,SC048127,East Dunbartonshire,G64 2TA,55.9035455,-4.23518524,S02001520,S01008100
Home Church Scotland,SC013350,East Dunbartonshire,G66 2AB,55.93628039,-4.13472567,S02001528,S01008140
Star,SC016652,East Dunbartonshire,G66 2AF,55.93857037,-4.14052,S02001528,S01008140
Bearsden Boys Brigade Hall Trust for 1st Bearsden Boys Brigade Company,SC013647,East Dunbartonshire,G61 3PS,55.92282481,-4.32250508,S02001510,S01008053
8th Bearsden Guide Company,SC034147,East Dunbartonshire,G61 3PZ,55.92216531,-4.32220952,S02001510,S01008053
Kirkintilloch Baptist Church,SC013909,East Dunbartonshire,G66 1NL,55.93757546,-4.15428331,S02001527,S01008131
East Dunbartonshire Association For Mental Health (Edamh),SC029675,East Dunbartonshire,G66 1XQ,55.93446148,-4.15812907,S02001527,S01008131
Ceartas,SC035269,East Dunbartonshire,G66 1XF,55.93409308,-4.15812459,S02001527,S01008131
East Dunbartonshire Visually Impaired People's Forum,SC041721,East Dunbartonshire,G66 1NL,55.93757546,-4.15428331,S02001527,S01008131
East Dunbartonshire Voluntary Action,SC042983,East Dunbartonshire,G66 1NL,55.93757546,-4.15428331,S02001527,S01008131
Kirkintilloch Community Sports Club,SC045155,East Dunbartonshire,G66 1NZ,55.9360931,-4.15271196,S02001527,S01008131
East Dunbartonshire Women's Aid SCIO,SC047155,East Dunbartonshire,G66 1XF,55.93409308,-4.15812459,S02001527,S01008131
Maxholme Pre School Playgroup,SC014163,East Dunbartonshire,G62 8AJ,55.94409987,-4.31573931,S02001508,S01008042
In Your Corner SCIO,SC050844,East Dunbartonshire,G62 8PG,55.94203256,-4.31670486,S02001508,S01008042
Bearsden Horticultural Society,SC014384,East Dunbartonshire,G61 2EW,55.91629115,-4.31915352,S02001516,S01008079
White Lily Fund,SC036136,East Dunbartonshire,G61 2EW,55.91629115,-4.31915352,S02001516,S01008079
Milton Of Campsie Parish Church of Scotland,SC014735,East Dunbartonshire,G66 8HH,55.95834965,-4.16629952,S02001532,S01008153
3rd Campsie Guide Unit,SC032281,East Dunbartonshire,G66 8HH,55.95834965,-4.16629952,S02001532,S01008153
1st Campsie Brownie Unit,SC032554,East Dunbartonshire,G66 8HJ,55.95787878,-4.16752279,S02001532,S01008153
6th Campsie Brownies,SC035911,East Dunbartonshire,G66 8HJ,55.95787878,-4.16752279,S02001532,S01008153
Torrance Parish Church Of Scotland,SC016058,East Dunbartonshire,G64 4BZ,55.94241132,-4.21103314,S02001518,S01008084
Caldwell Halls Trust ,SC042184,East Dunbartonshire,G64 4BN,55.94082951,-4.2095338,S02001518,S01008084
Castlehill Baptist Church,SC016697,East Dunbartonshire,G61 4HH,55.921549,-4.3527761,S02001513,S01008063
Hilton Road Toddler Group,SC017325,East Dunbartonshire,G64 3EU,55.9152164,-4.23043206,S02001519,S01008090
Baljaffray Primary School Parent-Teacher Association,SC019851,East Dunbartonshire,G61 4RL,55.935773,-4.3515411,S02001512,S01008058
Milngavie Old Peoples Welfare Committee,SC021117,East Dunbartonshire,G62 8PA,55.94529817,-4.31749251,S02001508,S01008041
Time-Out Club,SC024191,East Dunbartonshire,G62 8PN,55.94311805,-4.32062926,S02001508,S01008041
Carers Link East Dunbartonshire,SC034447,East Dunbartonshire,G62 8PH,55.94337714,-4.31880305,S02001508,S01008041
Milngavie in Bloom,SC041480,East Dunbartonshire,G62 8PN,55.94311805,-4.32062926,S02001508,S01008041
Glasgow (Kirkintilloch) Congregation Of Jehovahs Witnesses,SC021342,East Dunbartonshire,G66 8BB,55.95939592,-4.16608564,S02001532,S01008154
Milton Of Campsie Village Hall Trust,SC037687,East Dunbartonshire,G66 8DS,55.96033315,-4.16338235,S02001532,S01008154
"St James the Less Scottish Episcopal Church, Bishopbriggs",SC023292,East Dunbartonshire,G64 3EL,55.91433068,-4.22574044,S02001519,S01008089
Hillhead Housing Association 2000,SC029908,East Dunbartonshire,G66 2LA,55.94129059,-4.14481756,S02001528,S01008137
268 Glasgow Company Boys Brigade,SC031034,East Dunbartonshire,G64 1BG,55.90529416,-4.20751194,S02001523,S01008112
3rd Bishopbriggs Rainbow Unit,SC035874,East Dunbartonshire,G64 1HP,55.90513741,-4.20873493,S02001523,S01008112
Friends of Positive Achievements,SC044416,East Dunbartonshire,G64 1HP,55.90513741,-4.20873493,S02001523,S01008112
Friends Of Instrumental Music In East Dunbartonshire Schools,SC031150,East Dunbartonshire,G61 3HA,55.92934474,-4.32324749,S02001510,S01008051
183rd Scout Group,SC031573,East Dunbartonshire,G61 1NB,55.91103192,-4.33112864,S02001515,S01008072
1st Bearsden Guides,SC042358,East Dunbartonshire,G61 1ND,55.91056488,-4.33585304,S02001515,S01008072
7th Bearsden Brownie Pack,SC031675,East Dunbartonshire,G61 1NT,55.91017616,-4.34023001,S02001515,S01008071
2nd Westerton Rainbows Unit,SC033503,East Dunbartonshire,G61 1NR,55.91020381,-4.33877556,S02001515,S01008071
Girlguiding Westerton District,SC049235,East Dunbartonshire,G61 1PA,55.90795678,-4.33641618,S02001515,S01008071
Milngavie District Guides,SC031724,East Dunbartonshire,G62 7BY,55.94630824,-4.33491439,S02001506,S01008035
7th Bishopbriggs Guide Unit,SC032082,East Dunbartonshire,G64 2DT,55.89826709,-4.22939495,S02001520,S01008101
Fresh Start East Dunbartonshire,SC045775,East Dunbartonshire,G64 2AZ,55.8970791,-4.23047845,S02001520,S01008101
175th Glasgow Scout Group (1st Bishopbriggs),SC032095,East Dunbartonshire,G64 2RQ,55.90559857,-4.22603998,S02001520,S01008097
2nd Torrance Brownies,SC032213,East Dunbartonshire,G66 7JY,55.98119584,-4.21327878,S02001533,S01008162
1st Campsie Guide Unit,SC035330,East Dunbartonshire,G66 7LF,55.97512138,-4.22072115,S02001533,S01008162
5th Bearsden Brownie Unit,SC032601,East Dunbartonshire,G61 1RF,55.90528751,-4.34067141,S02001514,S01008070
24th Glasgow (Bearsden) Scout Group,SC032723,East Dunbartonshire,G61 3LE,55.92820771,-4.33204823,S02001511,S01008057
Bearsden And Milngavie Youth Orchestra,SC035158,East Dunbartonshire,G61 3LG,55.92870249,-4.33012488,S02001511,S01008057
Campsie View School Parents Teachers Association,SC033677,East Dunbartonshire,G66 4DP,55.92432938,-4.17213154,S02001524,S01008117
1st Campsie Boys Brigade,SC033738,East Dunbartonshire,G66 8JW,55.96313435,-4.16916258,S02001532,S01008155
Addiction Recovery Centre,SC033809,East Dunbartonshire,G66 3BS,55.92896399,-4.1492429,S02001526,S01008130
East Dunbartonshire Food Co-ops Advisory Group,SC044342,East Dunbartonshire,G66 3BF,55.93457344,-4.15173105,S02001526,S01008130
36th Glasgow Scout Group,SC044549,East Dunbartonshire,G66 3DA,55.93044567,-4.14879666,S02001526,S01008130
4th Bishopbriggs Guide Company,SC033917,East Dunbartonshire,G64 3LZ,55.91735838,-4.22181704,S02001519,S01008088
16th Bishopbriggs Brownie Unit,SC034324,East Dunbartonshire,G64 1BL,55.90279379,-4.19908303,S02001522,S01008108
1st Bearsden Rainbows,SC034649,East Dunbartonshire,G61 2DQ,55.91615315,-4.32884352,S02001516,S01008077
3rd Bearsden Brownies,SC034727,East Dunbartonshire,G61 2QL,55.91978291,-4.32272321,S02001516,S01008077
1st Bearsden Company Boys Brigade,SC036872,East Dunbartonshire,G61 2DJ,55.91677496,-4.32399961,S02001516,S01008077
1st Bearsden Brownie Pack,SC034764,East Dunbartonshire,G61 2AF,55.92021692,-4.31399425,S02001516,S01008078
Bearsden North District Guide Association,SC034895,East Dunbartonshire,G61 3BQ,55.92528644,-4.33206479,S02001511,S01008055
Brookwood Community Trust,SC049997,East Dunbartonshire,G61 3BF,55.9258484,-4.32944127,S02001511,S01008055
Hillhead Pre Fives Unit,SC035101,East Dunbartonshire,G66 2UA,55.94764092,-4.12167339,S02001530,S01008147
Milton Of Campsie Village Association,SC035572,East Dunbartonshire,G66 8BU,55.9613455,-4.16202894,S02001532,S01008156
Torrance Community Initiative,SC035721,East Dunbartonshire,G64 4HF,55.93897292,-4.2053128,S02001518,S01008086
Torrance Tennis Club SCIO ,SC048729,East Dunbartonshire,G64 4HQ,55.93811693,-4.20744181,S02001518,S01008086
1st Kirkintilloch Rainbow Unit,SC036516,East Dunbartonshire,G66 4HN,55.92718252,-4.15758023,S02001524,S01008120
Friends Of First Bearsden Trust,SC036906,East Dunbartonshire,G61 4EF,55.92641017,-4.35377515,S02001512,S01008062
82nd Glasgow Company Girls Brigade,SC036910,East Dunbartonshire,G62 7RG,55.94272016,-4.34448339,S02001506,S01008033
Bearsden Muslim Association,SC037043,East Dunbartonshire,G61 2LX,55.91243065,-4.31797882,S02001517,S01008080
Bearsden Baljaffray Parish Church of Scotland,SC037739,East Dunbartonshire,G61 4RN,55.93254249,-4.35033663,S02001512,S01008060
Forget Me Not Fund (Beaston),SC038967,East Dunbartonshire,G66 1QF,55.94620801,-4.14111769,S02001531,S01008152
Kirkintilloch and Lenzie ACTS Group,SC039686,East Dunbartonshire,G66 2JQ,55.94310991,-4.13942533,S02001531,S01008152
Western Wildcats Hockey Club,SC039604,East Dunbartonshire,G62 6EJ,55.93660032,-4.29482821,S02001509,S01008045
1st Lenzie Boys' Brigade Company,SC039776,East Dunbartonshire,G66 4EJ,55.92749733,-4.16881915,S02001524,S01008116
Campsie Memorial Hall Trust SCIO,SC042218,East Dunbartonshire,G66 7HA,55.97475434,-4.20161141,S02001533,S01008160
East Dunbartonshire Radio,SC043377,East Dunbartonshire,G64 1QY,55.90206181,-4.22580531,S02001521,S01008103
Bearsden Primary School Fundraising Group,SC043589,East Dunbartonshire,G61 4BP,55.91959331,-4.34740785,S02001513,S01008067
Friends of Merkland School ,SC043898,East Dunbartonshire,G66 3AH,55.93668302,-4.15083933,S02001528,S01008136
Milngavie Primary School Fund,SC046598,East Dunbartonshire,G62 8HZ,55.9459531,-4.3022204,S02001508,S01008043
Milngavie Community Development Trust,SC047523,East Dunbartonshire,G62 7QA,55.93791333,-4.33162286,S02001509,S01008048
The Gathering Church,SC047556,East Dunbartonshire,G62 7PE,55.9405344,-4.33179643,S02001507,S01008037
Families of Auchinairn Coming Together (SCIO),SC049248,East Dunbartonshire,G64 1NE,55.89857532,-4.21431237,S02001521,S01008105
Community Response in East Dunbartonshire (CRED),SC050862,East Dunbartonshire,G66 3AU,55.92716027,-4.14496505,S02001526,S01008127
