Name,Charity Number,Local authority,Postcode,Latitude,Longitude,IntermediateZone2011Code,DataZone2011Code
Dumfries & Galloway Arts Festival,SC000236,Dumfries and Galloway,DG1 1JQ,55.07408338,-3.60756162,S02001431,S01007613
St Johns The Evangelist Episcopal Church: Dumfries,SC007742,Dumfries and Galloway,DG1 1LW,55.07096604,-3.60746792,S02001431,S01007613
John Primrose Trust,SC009173,Dumfries and Galloway,DG1 1LN,55.07069481,-3.60690888,S02001431,S01007613
Mouswald Trust,SC014437,Dumfries and Galloway,DG1 1LN,55.07069481,-3.60690888,S02001431,S01007613
River Of Life Church,SC019962,Dumfries and Galloway,DG1 1LU,55.07253829,-3.60410086,S02001431,S01007613
Ian M Wardlaw Drama Trust,SC021770,Dumfries and Galloway,DG1 1LN,55.07069481,-3.60690888,S02001431,S01007613
Rhet Dumfries And Galloway Countryside Initiative,SC034814,Dumfries and Galloway,DG1 1LN,55.07069481,-3.60690888,S02001431,S01007613
The Oasis Youth Centre Management Committee,SC040019,Dumfries and Galloway,DG1 1LW,55.07096604,-3.60746792,S02001431,S01007613
SWing Band,SC047463,Dumfries and Galloway,DG1 1HF,55.07099898,-3.60565245,S02001431,S01007613
Include Us,SC048168,Dumfries and Galloway,DG1 1JA,55.07166623,-3.60888994,S02001431,S01007613
The River of Life Church (Dumfries),SC049246,Dumfries and Galloway,DG1 1LU,55.07253829,-3.60410086,S02001431,S01007613
INSPIRED COMMUNITY ENTERPRISE TRUST LTD,SC050602,Dumfries and Galloway,DG1 1BZ,55.07165659,-3.61029916,S02001431,S01007613
The Murray Usher Foundation,SC000266,Dumfries and Galloway,DG6 4UR,54.84562263,-4.0416692,S02001414,S01007529
The Dumfries & Galloway Outdoor Access Trust ,SC046070,Dumfries and Galloway,DG6 4HF,54.8463084,-4.03883785,S02001414,S01007529
Eaglesfield Public Hall,SC000325,Dumfries and Galloway,DG11 3PA,55.0602471,-3.1950318,S02001439,S01007653
"Hoddom, Kirtle-Eaglesfield and Middlebie Church of Scotland",SC000722,Dumfries and Galloway,DG11 3NT,55.06176364,-3.18975347,S02001439,S01007653
Middlebie Community Centre,SC027663,Dumfries and Galloway,DG11 3HT,55.07404885,-3.23572668,S02001439,S01007653
Eaglesfield Sports Association,SC029906,Dumfries and Galloway,DG11 3PH,55.05563259,-3.20640079,S02001439,S01007653
Birrens Historic Group,SC045560,Dumfries and Galloway,DG11 3LH,55.06638813,-3.22366776,S02001439,S01007653
St Mary's Episcopal Church: Gatehouse Of Fleet,SC000527,Dumfries and Galloway,DG7 2EB,54.88116982,-4.17780389,S02001413,S01007522
Gatehouse Of Fleet Pre-School Under 5's Group,SC009319,Dumfries and Galloway,DG7 2JD,54.8837956,-4.18324653,S02001413,S01007522
Gatehouse Music Society,SC013231,Dumfries and Galloway,DG7 2FA,54.88617401,-4.20086941,S02001413,S01007522
Galloway District Scout Council,SC015674,Dumfries and Galloway,DG7 2EB,54.88116982,-4.17780389,S02001413,S01007522
The Mill On The Fleet,SC019830,Dumfries and Galloway,DG7 2HP,54.88226313,-4.18299214,S02001413,S01007522
Gatehouse YMCA,SC026829,Dumfries and Galloway,DG7 2JW,54.88298378,-4.1834053,S02001413,S01007522
Kirkcudbright Hospital League Of Friends,SC035131,Dumfries and Galloway,DG7 2EQ,54.88001587,-4.19397038,S02001413,S01007522
Gatehouse Development Initiative,SC036088,Dumfries and Galloway,DG7 2HP,54.88226313,-4.18299214,S02001413,S01007522
The Gatehouse Bunker (SCIO),SC039157,Dumfries and Galloway,DG7 2HR,54.88282296,-4.18285092,S02001413,S01007522
Galloway Cricket Club Trust,SC040709,Dumfries and Galloway,DG7 2FA,54.88617401,-4.20086941,S02001413,S01007522
Gatehouse of Fleet Community Centre,SC041192,Dumfries and Galloway,DG7 2JX,54.88157205,-4.1889258,S02001413,S01007522
Gatehouse of Fleet Festival Group,SC048290,Dumfries and Galloway,DG7 2JB,54.8830433,-4.18459341,S02001413,S01007522
Gatehouse of Fleet Community Centre Association,SC050240,Dumfries and Galloway,DG7 2JX,54.88157205,-4.1889258,S02001413,S01007522
St Brides Parish Church Of Scotland: Sanquhar,SC000845,Dumfries and Galloway,DG4 6DT,55.36710236,-3.92153236,S02001419,S01007556
Wanlockhead Nivison Trust,SC004258,Dumfries and Galloway,DG4 6DT,55.36710236,-3.92153236,S02001419,S01007556
St Ninians Sanquhar Baptist Church: Sanquhar,SC021244,Dumfries and Galloway,DG4 6DX,55.36629543,-3.91969439,S02001419,S01007556
Upper Nithsdale Arts And Crafts Community Initiative Limited,SC035319,Dumfries and Galloway,DG4 6BL,55.36748748,-3.92390223,S02001419,S01007556
1st Sanquhar Rainbows,SC035990,Dumfries and Galloway,DG4 6BJ,55.36973866,-3.92476898,S02001419,S01007556
Nith Valley Leaf Trust,SC040917,Dumfries and Galloway,DG4 6DT,55.36710236,-3.92153236,S02001419,S01007556
Glenmuckloch Energy Park,SC045035,Dumfries and Galloway,DG4 6BL,55.36748748,-3.92390223,S02001419,S01007556
Kirkcudbright Community Centre,SC000940,Dumfries and Galloway,DG6 4JU,54.83587135,-4.05810362,S02001414,S01007526
Kirkcudbright Parish Church Of Scotland,SC005883,Dumfries and Galloway,DG6 4AA,54.83599375,-4.04980989,S02001414,S01007526
Stewartry Unit (No 558) of the Sea Cadet Corps,SC011389,Dumfries and Galloway,DG6 4JX,54.83649302,-4.05483392,S02001414,S01007526
Kirkcudbright Harbour Cottage Trust,SC014415,Dumfries and Galloway,DG6 4JX,54.83649302,-4.05483392,S02001414,S01007526
Kirkcudbright 2000 Limited,SC029751,Dumfries and Galloway,DG6 4JX,54.83649302,-4.05483392,S02001414,S01007526
1st Kirkcudbright Rainbows,SC038013,Dumfries and Galloway,DG6 4JS,54.83430258,-4.05573475,S02001414,S01007526
Kirkcudbright Forum (SCIO),SC045740,Dumfries and Galloway,DG6 4JX,54.83649302,-4.05483392,S02001414,S01007526
Kirkcudbright Community Tennis Club,SC050244,Dumfries and Galloway,DG6 4JW,54.83549167,-4.05451831,S02001414,S01007526
Gatehouse and Borgue Parish Church of Scotland,SC000961,Dumfries and Galloway,DG7 2EN,54.86911671,-4.21454316,S02001413,S01007521
Maxwell Memorial Trust,SC006593,Dumfries and Galloway,DG7 2EP,54.85692941,-4.23458189,S02001413,S01007521
Gatehouse Scout Group,SC042287,Dumfries and Galloway,DG7 2EP,54.85692941,-4.23458189,S02001413,S01007521
Cree Woodland Volunteers,SC050154,Dumfries and Galloway,DG7 2BD,54.89086488,-4.1820073,S02001413,S01007521
Lockerbie Mother & Toddler Group,SC000982,Dumfries and Galloway,DG11 2GZ,55.12395944,-3.35262454,S02001436,S01007637
"St Mungo Parish Church of Scotland, Lockerbie",SC001060,Dumfries and Galloway,DG12 5QA,54.99092007,-3.35395942,S02001440,S01007658
Cummertrees Public Hall,SC003877,Dumfries and Galloway,DG12 5PQ,54.97965962,-3.33114172,S02001440,S01007658
St Johns Episcopal Church: Annan,SC014491,Dumfries and Galloway,DG12 5PL,54.97658307,-3.33305548,S02001440,S01007658
Powlakes,SC025761,Dumfries and Galloway,DG12 5PS,54.97939343,-3.33000787,S02001440,S01007658
Dumfries Spiritualist Church,SC041289,Dumfries and Galloway,DG12 5QB,54.98556769,-3.3463246,S02001440,S01007658
Wanlockhead Museum Trust,SC001508,Dumfries and Galloway,ML12 6UT,55.39828045,-3.77834377,S02001419,S01007558
Upper Nithsdale RDA (SCIO),SC047337,Dumfries and Galloway,DG4 6JW,55.37771103,-3.93781498,S02001419,S01007558
Wanlockhead Community Centre SCIO ,SC048528,Dumfries and Galloway,ML12 6UN,55.39615401,-3.77933784,S02001419,S01007558
Wanlockhead Community Trust,SC050720,Dumfries and Galloway,ML12 6UJ,55.39643937,-3.78010863,S02001419,S01007558
Dumfries YMCA,SC001590,Dumfries and Galloway,DG2 0NF,55.08337872,-3.63571194,S02001423,S01007576
Maxwelltown Playcare,SC029237,Dumfries and Galloway,DG2 0NF,55.08337872,-3.63571194,S02001423,S01007576
Dumfries YMCA SCIO,SC048903,Dumfries and Galloway,DG2 0NF,55.08337872,-3.63571194,S02001423,S01007576
Castle Douglas Day Centre For Older People,SC001618,Dumfries and Galloway,DG7 3QE,55.08840054,-4.1123195,S02001418,S01007551
Lagwyne Hall Committee Of Management,SC002530,Dumfries and Galloway,DG7 3TQ,55.21255207,-4.26264668,S02001418,S01007551
Carsphairn Heritage Group,SC007408,Dumfries and Galloway,DG7 3TQ,55.21255207,-4.26264668,S02001418,S01007551
Springholm Nursery,SC009732,Dumfries and Galloway,DG7 3DR,55.07438058,-3.95178586,S02001418,S01007551
Stewartry Of Kirkcudbright Guides Association,SC015132,Dumfries and Galloway,DG7 3XH,55.12082693,-4.07535712,S02001418,S01007551
Glenkens & District Trust,SC042489,Dumfries and Galloway,DG7 3PW,55.08407936,-4.11737198,S02001418,S01007551
Dumfries & Galloway Day Centres' Consortium,SC042973,Dumfries and Galloway,DG7 3QE,55.08840054,-4.1123195,S02001418,S01007551
Balmaclellan Community Trust (SCIO),SC047278,Dumfries and Galloway,DG7 3PP,55.0808445,-4.12968795,S02001418,S01007551
Corsock Village Hall,SC047343,Dumfries and Galloway,DG7 3DP,55.06339385,-3.95313015,S02001418,S01007551
EPIC East Ayrshire Pipe Band Academy,SC047511,Dumfries and Galloway,DG7 3TQ,55.21255207,-4.26264668,S02001418,S01007551
Balmaclellan Village Hall,SC048224,Dumfries and Galloway,DG7 3QE,55.08840054,-4.1123195,S02001418,S01007551
Carsphairn Heritage Initiative,SC049987,Dumfries and Galloway,DG7 3TQ,55.21255207,-4.26264668,S02001418,S01007551
Loch Ken Trust,SC050211,Dumfries and Galloway,DG7 3PW,55.08407936,-4.11737198,S02001418,S01007551
Stranraer Music For All,SC001636,Dumfries and Galloway,DG9 0AP,54.90651062,-5.03968929,S02001405,S01007483
Major General Robert and Miss McDoualls Bequest,SC003336,Dumfries and Galloway,DG9 0AP,54.90651062,-5.03968929,S02001405,S01007483
Presbytery of Wigtown and Stranraer,SC013865,Dumfries and Galloway,DG9 0AP,54.90651062,-5.03968929,S02001405,S01007483
Stranraer And District Local History Trust,SC028177,Dumfries and Galloway,DG9 0AP,54.90651062,-5.03968929,S02001405,S01007483
Glasserton and the Isle Of Whithorn Church of Scotland,SC001705,Dumfries and Galloway,DG8 8JU,54.69965817,-4.43753509,S02001411,S01007512
Mochrum Church of Scotland,SC003300,Dumfries and Galloway,DG8 8HA,54.76287167,-4.39144998,S02001411,S01007512
Charles William Fox Fund,SC005901,Dumfries and Galloway,DG8 8JA,54.68749887,-4.40228172,S02001411,S01007512
Isle Futures,SC037758,Dumfries and Galloway,DG8 8LH,54.70156913,-4.36471286,S02001411,S01007512
Isle of Whithorn Heritage SCIO,SC049698,Dumfries and Galloway,DG8 8LH,54.70156913,-4.36471286,S02001411,S01007512
Wigtown Bay Coastal Rowing Club (SCIO),SC049939,Dumfries and Galloway,DG8 8LT,54.69940974,-4.37171125,S02001411,S01007512
Kirkinner Church of Scotland,SC001946,Dumfries and Galloway,DG8 9EE,54.86449447,-4.4468514,S02001411,S01007507
Mckerlie Trust,SC009799,Dumfries and Galloway,DG8 9HT,54.87120741,-4.44069606,S02001411,S01007507
Crossroads Care & Support,SC013765,Dumfries and Galloway,DG8 9EH,54.86790146,-4.44238211,S02001411,S01007507
Wigtown Baptist Church,SC021346,Dumfries and Galloway,DG8 9ES,54.86679286,-4.44342162,S02001411,S01007507
Galloway Preservation Society,SC021787,Dumfries and Galloway,DG8 9HY,54.86972581,-4.44151052,S02001411,S01007507
Wigtown Players,SC023101,Dumfries and Galloway,DG8 9HY,54.86972581,-4.44151052,S02001411,S01007507
Machars Action Ltd,SC029710,Dumfries and Galloway,DG8 9EH,54.86790146,-4.44238211,S02001411,S01007507
The Wigtown & District October Club,SC030666,Dumfries and Galloway,DG8 9DZ,54.86454842,-4.44283386,S02001411,S01007507
1st Wigtown Brownie Unit,SC038707,Dumfries and Galloway,DG8 9EH,54.86790146,-4.44238211,S02001411,S01007507
1st Wigtown Guides,SC041215,Dumfries and Galloway,DG8 9JG,54.86759582,-4.44640033,S02001411,S01007507
Wigtown Riding of the Marches,SC046262,Dumfries and Galloway,DG8 9HP,54.86912196,-4.44069468,S02001411,S01007507
Cairnsmore Award Group,SC049718,Dumfries and Galloway,DG8 9JH,54.86856793,-4.44142491,S02001411,S01007507
Guild Of Players,SC001963,Dumfries and Galloway,DG1 2JH,55.06825104,-3.60753132,S02001430,S01007612
Cochran Trust,SC005091,Dumfries and Galloway,DG1 1EJ,55.07112109,-3.61341006,S02001430,S01007612
Presbytery Of Dumfries And Kirkcudbright,SC005477,Dumfries and Galloway,DG1 1EJ,55.07112109,-3.61341006,S02001430,S01007612
"St George's Church of Scotland, Dumfries",SC006404,Dumfries and Galloway,DG1 1EJ,55.07112109,-3.61341006,S02001430,S01007612
Dumfries Day Centre for Older People,SC014747,Dumfries and Galloway,DG1 2JX,55.06716892,-3.60576527,S02001430,S01007612
Dumfriesshire & Stewartry Women's Aid,SC017165,Dumfries and Galloway,DG1 2RR,55.06878229,-3.61560245,S02001430,S01007612
Carers Centres Project for Dumfries & Galloway,SC024103,Dumfries and Galloway,DG1 2PW,55.06583448,-3.61017492,S02001430,S01007612
South West Rape Crisis & Sexual Abuse Centre,SC024402,Dumfries and Galloway,DG1 1DF,55.0706384,-3.61185576,S02001430,S01007612
Dumfries & Galloway Befriending Project,SC024562,Dumfries and Galloway,DG1 2NX,55.06796417,-3.61223372,S02001430,S01007612
Dumfries Toy Library,SC025325,Dumfries and Galloway,DG1 1EA,55.07148253,-3.61394146,S02001430,S01007612
DG Voice,SC030187,Dumfries and Galloway,DG1 2BH,55.06889924,-3.61084616,S02001430,S01007612
First Base,SC033690,Dumfries and Galloway,DG1 2AH,55.06977841,-3.61435835,S02001430,S01007612
Dumfries And Galloway Advocacy Service,SC036075,Dumfries and Galloway,DG1 1DF,55.0706384,-3.61185576,S02001430,S01007612
Parents Inclusion Network ,SC037461,Dumfries and Galloway,DG1 2BH,55.06889924,-3.61084616,S02001430,S01007612
Independent Living Support,SC037633,Dumfries and Galloway,DG1 1HH,55.07067046,-3.61282809,S02001430,S01007612
Relationships Scotland (Dumfries and Galloway),SC038795,Dumfries and Galloway,DG1 1EF,55.07119878,-3.61568419,S02001430,S01007612
Nithsdale Amateur Rowing Club Limited,SC039249,Dumfries and Galloway,DG1 1EF,55.07119878,-3.61568419,S02001430,S01007612
Saint Bride's Church (Dumfries) Limited,SC040685,Dumfries and Galloway,DG1 2RX,55.06564224,-3.60976004,S02001430,S01007612
Electric Theatre Workshop Ltd,SC042897,Dumfries and Galloway,DG1 2BD,55.06713715,-3.61021158,S02001430,S01007612
Buddies (SCIO),SC042937,Dumfries and Galloway,DG1 2RL,55.06904158,-3.61367091,S02001430,S01007612
The Hub Dumfries and Galloway,SC043384,Dumfries and Galloway,DG1 2RL,55.06904158,-3.61367091,S02001430,S01007612
Dumfries and Galloway Third Sector Interface,SC043832,Dumfries and Galloway,DG1 2AH,55.06977841,-3.61435835,S02001430,S01007612
Dumfries and Galloway Hard of Hearing Group,SC044692,Dumfries and Galloway,DG1 1EG,55.07084659,-3.61581095,S02001430,S01007612
The Stove Network Limited,SC044947,Dumfries and Galloway,DG1 2BJ,55.06823839,-3.60984863,S02001430,S01007612
Loreburn Hall Trust,SC045023,Dumfries and Galloway,DG1 2NJ,55.06978837,-3.613607,S02001430,S01007612
Soul Soup,SC045304,Dumfries and Galloway,DG1 2NP,55.06848391,-3.61234859,S02001430,S01007612
Dumfries and Galloway Multicultural Association,SC046594,Dumfries and Galloway,DG1 2RL,55.06904158,-3.61367091,S02001430,S01007612
Dumfries Y Gymnastics Club,SC047496,Dumfries and Galloway,DG1 2DA,55.0691654,-3.60770894,S02001430,S01007612
The People's Project (SCIO),SC050335,Dumfries and Galloway,DG1 1HU,55.07003055,-3.6102495,S02001430,S01007612
Elizabeth Armstrong Charitable Trust,SC002180,Dumfries and Galloway,DG13 0JH,55.15167663,-2.99950548,S02001438,S01007648
Arthur Bell Of Langholm Trust,SC011691,Dumfries and Galloway,DG13 0AW,55.15338223,-3.0040991,S02001438,S01007648
Langholm And District Day Centre For Older People,SC014753,Dumfries and Galloway,DG13 0AA,55.15073193,-3.00073721,S02001438,S01007648
Langholm Playcare Ltd,SC024553,Dumfries and Galloway,DG13 0AA,55.15073193,-3.00073721,S02001438,S01007648
Eskdale Foundation,SC024602,Dumfries and Galloway,DG13 0BL,55.15371347,-3.00643,S02001438,S01007648
The Buccleuch Centre,SC036484,Dumfries and Galloway,DG13 0AW,55.15338223,-3.0040991,S02001438,S01007648
Langholm Archive Group,SC039816,Dumfries and Galloway,DG13 0AY,55.15151511,-3.00602941,S02001438,S01007648
2nd Dumfriesshire (Langholm) Scout Group,SC040216,Dumfries and Galloway,DG13 0AS,55.15158408,-3.00529361,S02001438,S01007648
Langholm Youth Rugby Club,SC044923,Dumfries and Galloway,DG13 0BB,55.15262193,-3.00693607,S02001438,S01007648
Langholm Common Riding,SC044989,Dumfries and Galloway,DG13 0JH,55.15167663,-2.99950548,S02001438,S01007648
Langholm Community Centre,SC046305,Dumfries and Galloway,DG13 0AA,55.15073193,-3.00073721,S02001438,S01007648
Dalbeattie and Kirkgunzeon Church of Scotland,SC002443,Dumfries and Galloway,DG5 4LS,54.93791883,-3.83097328,S02001416,S01007539
Dumfries & Galloway ME and Fibromyalgia Network,SC030641,Dumfries and Galloway,DG5 4JP,54.93556872,-3.82288979,S02001416,S01007539
Dalbeattie Community First Responders,SC046218,Dumfries and Galloway,DG5 4AN,54.93422734,-3.82423394,S02001416,S01007539
Dalbeattie Playgroup SCIO,SC047784,Dumfries and Galloway,DG5 4LQ,54.9373674,-3.834164,S02001416,S01007539
League Of Friends Of Moffat Hospital,SC002524,Dumfries and Galloway,DG10 9HQ,55.33361961,-3.43065471,S02001437,S01007644
St John the Evangelist Moffat,SC003183,Dumfries and Galloway,DG10 9JY,55.33105279,-3.43190215,S02001437,S01007644
1st Moffat Rainbow Unit,SC038390,Dumfries and Galloway,DG10 9JX,55.33507962,-3.43259921,S02001437,S01007644
Kirkmichael Parish Hall Committee - Dumfries,SC002814,Dumfries and Galloway,DG1 3NG,55.16790157,-3.49156159,S02001421,S01007566
South Of Scotland Wildlife Hospital Trust,SC025717,Dumfries and Galloway,DG1 3NE,55.16751754,-3.53051362,S02001421,S01007566
Jeff Brown Awards Trust,SC041356,Dumfries and Galloway,DG11 1TR,55.20170818,-3.49247975,S02001421,S01007566
Ae Development Group,SC050765,Dumfries and Galloway,DG1 1AG,55.18660799,-3.59897519,S02001421,S01007566
Dumfries Choral Society,SC002864,Dumfries and Galloway,DG2 0QX,55.09424612,-3.64758007,S02001422,S01007570
Dumfries & Galloway Duke Of Edinburghs Award Association,SC032701,Dumfries and Galloway,DG2 0HZ,55.09441291,-3.64920107,S02001422,S01007570
Holywood Village Hall,SC049773,Dumfries and Galloway,DG2 0QX,55.09424612,-3.64758007,S02001422,S01007570
Canonbie Public Hall & Playing Field Recreation Centre,SC002928,Dumfries and Galloway,DG14 0XA,55.08129488,-2.94779444,S02001438,S01007650
Gilnockie Public Hall Committee,SC003578,Dumfries and Galloway,DG14 0SD,55.11034659,-2.95028498,S02001438,S01007650
1st Canonbie Guide Unit,SC034428,Dumfries and Galloway,DG14 0TT,55.08023766,-2.95314227,S02001438,S01007650
The Reiver Trail,SC050399,Dumfries and Galloway,DG14 0XD,55.09468616,-2.9681688,S02001438,S01007650
1st Canonbie Brownies Unit,SC033958,Dumfries and Galloway,DG14 0UX,55.07895921,-2.95229735,S02001438,S01007650
Galloway Hospital Instrument Fund,SC002955,Dumfries and Galloway,DG9 8AT,54.9061805,-5.0136226,S02001406,S01007489
Stranraer Reformed Presbyterian Church,SC003280,Dumfries and Galloway,DG9 8AB,54.90330988,-5.01626317,S02001406,S01007489
Stranraer Bowling Club ,SC044491,Dumfries and Galloway,DG9 8BQ,54.90622141,-5.00871066,S02001406,S01007489
Ervie-Kirkcolm Church of Scotland,SC003122,Dumfries and Galloway,DG9 0NW,54.97352177,-5.0826864,S02001408,S01007494
Kirkcolm School Fund,SC010615,Dumfries and Galloway,DG9 0NS,54.96954969,-5.07800601,S02001408,S01007494
Kirkcolm Under 5's,SC028575,Dumfries and Galloway,DG9 0NS,54.96954969,-5.07800601,S02001408,S01007494
Kirkcolm Community Trust,SC047165,Dumfries and Galloway,DG9 0NW,54.97352177,-5.0826864,S02001408,S01007494
Dalbeattie Museum Trust,SC003247,Dumfries and Galloway,DG5 4BT,54.93008822,-3.8197544,S02001416,S01007542
Dalbeattie Congregation Of Jehovahs Witnesses,SC010426,Dumfries and Galloway,DG5 4BY,54.92966992,-3.82007887,S02001416,S01007542
Dalbeattie Unit (No 611) of the Sea Cadets Corps,SC030285,Dumfries and Galloway,DG5 4DT,54.92508821,-3.8181397,S02001416,S01007542
Dalbeattie Civic Daze,SC039656,Dumfries and Galloway,DG5 4ET,54.93056089,-3.81819934,S02001416,S01007542
Boreland Village Hall,SC003337,Dumfries and Galloway,DG11 2LH,55.20723831,-3.3116347,S02001439,S01007655
"Lockerbie Dryfesdale, Hutton and Corrie Church of Scotland",SC007116,Dumfries and Galloway,DG11 2LH,55.20723831,-3.3116347,S02001439,S01007655
Tundergarth Church of Scotland,SC013190,Dumfries and Galloway,DG11 2PY,55.12347455,-3.28023644,S02001439,S01007655
Lockerbie Guide District Upper Annandale Division,SC032443,Dumfries and Galloway,DG11 2QL,55.16747285,-3.1999176,S02001439,S01007655
Waterbeck Church,SC042225,Dumfries and Galloway,DG11 3HE,55.11549437,-3.14958303,S02001439,S01007655
Tundergarth Kirks (SCIO),SC049899,Dumfries and Galloway,DG11 2PY,55.12347455,-3.28023644,S02001439,S01007655
All Saints Church With St Ninians Fellowship,SC003582,Dumfries and Galloway,DG8 6AZ,54.93460783,-4.46116299,S02001411,S01007506
League of Friends of Newton Stewart Hospital and Community,SC003757,Dumfries and Galloway,DG8 9AH,54.83859768,-4.4610294,S02001411,S01007506
Newton Stewart And District Music Club,SC015499,Dumfries and Galloway,DG8 9DJ,54.8782143,-4.50316778,S02001411,S01007506
1st Kirkinner Brownie Unit,SC038939,Dumfries and Galloway,DG8 9BY,54.85053907,-4.477632,S02001411,S01007506
Kirkinner Community Hall,SC049272,Dumfries and Galloway,DG8 9BY,54.85053907,-4.477632,S02001411,S01007506
Wigtownshire Stuff,SC051090,Dumfries and Galloway,DG8 9TL,54.88050362,-4.45132985,S02001411,S01007506
Maxwelltown West Scout Group,SC003659,Dumfries and Galloway,DG2 0ND,55.08405856,-3.63461166,S02001423,S01007578
Dumfries Congregation Of Jehovahs Witnesses,SC008024,Dumfries and Galloway,DG2 0DZ,55.08193094,-3.63510452,S02001423,S01007578
10th Dumfriesshire Scout Group,SC030562,Dumfries and Galloway,DG2 0ND,55.08405856,-3.63461166,S02001423,S01007578
Parents Association Of The 57th Dumfriesshire Scout Group,SC003975,Dumfries and Galloway,DG2 7SF,55.06449012,-3.61531987,S02001425,S01007589
United Reformed Church Annan,SC004037,Dumfries and Galloway,DG12 6RD,55.00562654,-3.22830554,S02001442,S01007671
Tarff & Twynholm Church Of Scotland,SC004475,Dumfries and Galloway,DG7 1EW,54.93748835,-3.92625773,S02001415,S01007537
The Fullarton Theatre,SC006525,Dumfries and Galloway,DG7 1EU,54.93718794,-3.92989631,S02001415,S01007537
Castle Douglas Hospital & District League Of Friends,SC010015,Dumfries and Galloway,DG7 1ER,54.93778762,-3.93175154,S02001415,S01007537
Abbeyfield Stewartry Society Ltd,SC016446,Dumfries and Galloway,DG7 1EN,54.93774874,-3.9296734,S02001415,S01007537
The Bengairn Parishes (Church Of Scotland),SC016850,Dumfries and Galloway,DG7 1EX,54.93642305,-3.92598824,S02001415,S01007537
Galloway Mountain Rescue Team,SC020065,Dumfries and Galloway,DG7 1HH,54.93771997,-3.92525409,S02001415,S01007537
Alcohol And Drugs Support South West Scotland,SC022925,Dumfries and Galloway,DG7 1DT,54.93850418,-3.9324728,S02001415,S01007537
Royal Scottish Country Dance Society Kirkcudbright Branch,SC024815,Dumfries and Galloway,DG7 1EQ,54.93601115,-3.92418897,S02001415,S01007537
National Trust For Scotland Galloway Members Group,SC026207,Dumfries and Galloway,DG7 1TH,54.93144606,-3.9360208,S02001415,S01007537
Caring For Carers,SC031758,Dumfries and Galloway,DG7 1DS,54.93884372,-3.93259838,S02001415,S01007537
Castle Douglas Cubs,SC036300,Dumfries and Galloway,DG7 1HH,54.93771997,-3.92525409,S02001415,S01007537
Football First Foundation,SC044066,Dumfries and Galloway,DG7 1HF,54.93601088,-3.93496013,S02001415,S01007537
Caring for Carers (SCIO),SC049301,Dumfries and Galloway,DG7 1DS,54.93884372,-3.93259838,S02001415,S01007537
Dornock Parish Church Of Scotland,SC004542,Dumfries and Galloway,DG12 6AJ,54.98740737,-3.26366343,S02001441,S01007662
"Gretna Old, Gretna St Andrew's, Half Morton and Kirkpatrick Fleming Parish Church of Scotland",SC016747,Dumfries and Galloway,DG12 5DF,54.98930721,-3.26331678,S02001441,S01007662
Black & Gold Foundation ,SC046074,Dumfries and Galloway,DG12 5DQ,54.99308724,-3.26191937,S02001441,S01007662
Dalbeattie & District Community Day Centre For Older People,SC004912,Dumfries and Galloway,DG5 4AE,54.93188487,-3.82161491,S02001416,S01007540
Dalbeattie Forest Community Partnership,SC030281,Dumfries and Galloway,DG5 4AA,54.93242807,-3.82195165,S02001416,S01007540
Dalbeattie Community Initiative,SC033730,Dumfries and Galloway,DG5 4AA,54.93242807,-3.82195165,S02001416,S01007540
Dalbeattie Community Minibus,SC045164,Dumfries and Galloway,DG5 4AR,54.93282607,-3.82896241,S02001416,S01007540
Moffat Show Society,SC005105,Dumfries and Galloway,DG10 9QA,55.27952165,-3.4743017,S02001437,S01007641
Kirkpatrick Juxta Church of Scotland,SC005701,Dumfries and Galloway,DG10 9SG,55.31181524,-3.45597771,S02001437,S01007641
Beattock Hall Committee,SC047050,Dumfries and Galloway,DG10 9PE,55.30463841,-3.44812151,S02001437,S01007641
Lockerbie Wildlife Trust,SC005538,Dumfries and Galloway,DG11 2DZ,55.11872558,-3.35859419,S02001436,S01007636
Closeburn Parish Church of Scotland,SC005624,Dumfries and Galloway,DG3 5JP,55.20175702,-3.71686758,S02001421,S01007565
Thornhill Young Farmer's Club,SC012588,Dumfries and Galloway,DG3 5HQ,55.22317298,-3.71563607,S02001421,S01007565
Thornhill and District Community Transport,SC021023,Dumfries and Galloway,DG3 5JP,55.20175702,-3.71686758,S02001421,S01007565
1st Morton Brownie Unit,SC038530,Dumfries and Galloway,DG3 5JT,55.20386997,-3.71488422,S02001421,S01007565
Oldbridge Nursery,SC005683,Dumfries and Galloway,DG2 7JP,55.06133336,-3.61345464,S02001425,S01007591
Dumfries & Galloway Kidney Patient Association,SC010208,Dumfries and Galloway,DG2 7HY,55.06010684,-3.61241885,S02001425,S01007591
Dumfries Hospitals League Of Friends,SC005699,Dumfries and Galloway,DG2 0UP,55.13489591,-3.80970484,S02001421,S01007564
Dunscore Pre School Centre,SC014199,Dumfries and Galloway,DG2 0SY,55.13918851,-3.77511613,S02001421,S01007564
Lag Tower Preservation Trust Limited,SC037615,Dumfries and Galloway,DG2 0SS,55.15098586,-3.77902998,S02001421,S01007564
Glenriddell Hall Committee,SC048781,Dumfries and Galloway,DG2 0UT,55.143122,-3.84429904,S02001421,S01007564
All Saints Episcopal Church Lockerbie,SC005772,Dumfries and Galloway,DG11 1QH,55.13635681,-3.44233469,S02001435,S01007633
Enable Lockerbie & District Branch,SC021048,Dumfries and Galloway,DG11 1QL,55.13018128,-3.43866134,S02001435,S01007633
Castle Loch Lochmaben Community Trust,SC044045,Dumfries and Galloway,DG11 1QH,55.13635681,-3.44233469,S02001435,S01007633
Monigaff Church of Scotland,SC006014,Dumfries and Galloway,DG8 6NR,54.95962701,-4.48048591,S02001412,S01007518
Minnigaff Community Nursery,SC038717,Dumfries and Galloway,DG8 6PE,54.96128476,-4.475011,S02001412,S01007518
Croft Cat Sanctuary,SC045960,Dumfries and Galloway,DG8 6QS,54.95895259,-4.47961641,S02001412,S01007518
Auchencairn Community Council For Heughan Institute,SC006148,Dumfries and Galloway,DG7 1QZ,54.83524384,-3.84446139,S02001414,S01007531
Auchencairn History Society,SC030382,Dumfries and Galloway,DG7 1QZ,54.83524384,-3.84446139,S02001414,S01007531
Auchencairn Initiative,SC035413,Dumfries and Galloway,DG7 1QS,54.84180847,-3.87299616,S02001414,S01007531
Dalton and Hightae Parish Church of Scotland,SC006344,Dumfries and Galloway,DG1 4JR,55.05780692,-3.46819097,S02001434,S01007630
Kirkmichael Tinwald & Torthorwald Church of Scotland,SC030785,Dumfries and Galloway,DG1 4PU,55.05437113,-3.51966482,S02001434,S01007630
4th Dumfries Brownie Unit,SC036515,Dumfries and Galloway,DG1 4AZ,55.06737797,-3.52090952,S02001434,S01007630
Christian Care for the Homeless,SC036940,Dumfries and Galloway,DG1 4JS,55.0509149,-3.46884664,S02001434,S01007630
1st Calside Brownie Unit,SC039012,Dumfries and Galloway,DG1 4AZ,55.06737797,-3.52090952,S02001434,S01007630
St Michaels Cricket Club,SC042178,Dumfries and Galloway,DG1 4PU,55.05437113,-3.51966482,S02001434,S01007630
Gillespie Memorial Hall Management Committee,SC046963,Dumfries and Galloway,DG1 4JP,55.0616247,-3.49418215,S02001434,S01007630
Dumfries Station Trust,SC049916,Dumfries and Galloway,DG1 4JS,55.0509149,-3.46884664,S02001434,S01007630
Crossroads ( Annandale & Eskdale ) Care Attendant Scheme,SC006411,Dumfries and Galloway,DG12 6EF,54.98603895,-3.2604323,S02001441,S01007661
Annan Old Parish Church of Scotland,SC010555,Dumfries and Galloway,DG12 6AY,54.98479768,-3.26486289,S02001441,S01007661
Enable Annan & District Branch,SC021025,Dumfries and Galloway,DG12 6AW,54.98541653,-3.26152237,S02001441,S01007661
Annan Medical Nursing And Ambulance Fund,SC028407,Dumfries and Galloway,DG12 6AW,54.98541653,-3.26152237,S02001441,S01007661
1st Dumfriesshire Scout Group,SC036347,Dumfries and Galloway,DG12 6TT,54.98572726,-3.26879913,S02001441,S01007661
Absolute Classics,SC044584,Dumfries and Galloway,DG12 6AD,54.98700504,-3.26346325,S02001441,S01007661
Wigtownshire Women's Aid,SC006427,Dumfries and Galloway,DG9 8ED,54.90445776,-5.02288652,S02001406,S01007488
Lochryan Dog Training Club,SC028839,Dumfries and Galloway,DG9 7JB,54.90210711,-5.01871624,S02001406,S01007488
The Academy of the Rhins Educational Trust SCIO,SC048342,Dumfries and Galloway,DG9 8HB,54.90474128,-5.01980285,S02001406,S01007488
Galloway Action Team,SC049654,Dumfries and Galloway,DG9 7HJ,54.90223387,-5.01651029,S02001406,S01007488
Lindsay Memorial Fund Trust,SC006624,Dumfries and Galloway,DG7 1TJ,54.92968071,-3.95198099,S02001414,S01007533
Crossmichael Playgroup,SC016669,Dumfries and Galloway,DG7 2PA,54.95166964,-3.98501417,S02001414,S01007533
St Josephs College Past Pupils Association,SC006759,Dumfries and Galloway,DG2 9DL,55.06638178,-3.62646788,S02001424,S01007587
Maxwelltown West Church,SC015925,Dumfries and Galloway,DG2 7AJ,55.06722299,-3.62202308,S02001424,S01007587
Deep Green Space,SC048988,Dumfries and Galloway,DG2 7AJ,55.06722299,-3.62202308,S02001424,S01007587
Moffat Museum Trust,SC007106,Dumfries and Galloway,DG10 9EG,55.33192031,-3.44370941,S02001437,S01007642
Bankfoot House (Moffat) Limited,SC010316,Dumfries and Galloway,DG10 9RS,55.33813282,-3.44803478,S02001437,S01007642
Moffat Youth Theatre,SC012290,Dumfries and Galloway,DG10 9AH,55.33454115,-3.44246468,S02001437,S01007642
1st Moffat Brownie Unit,SC038817,Dumfries and Galloway,DG10 9AH,55.33454115,-3.44246468,S02001437,S01007642
"Space to Grow, Moffat",SC040255,Dumfries and Galloway,DG10 9HB,55.33177243,-3.44709336,S02001437,S01007642
Beechgrove Sports Partnership,SC045174,Dumfries and Galloway,DG10 9HT,55.33519494,-3.44417537,S02001437,S01007642
Moffat Community Woodlands ,SC046567,Dumfries and Galloway,DG10 9HX,55.33718039,-3.44574543,S02001437,S01007642
Moffat & District Men's Shed,SC047824,Dumfries and Galloway,DG10 9JG,55.33462387,-3.4461095,S02001437,S01007642
Moffat Museum,SC049752,Dumfries and Galloway,DG10 9EG,55.33192031,-3.44370941,S02001437,S01007642
Moffat Heritage Trust,SC050228,Dumfries and Galloway,DG10 9RS,55.33813282,-3.44803478,S02001437,S01007642
Kirkcowan Parish Church (Church of Scotland),SC007136,Dumfries and Galloway,DG8 0HN,54.91154243,-4.60466045,S02001410,S01007504
Kirkcowan Under 5's,SC010537,Dumfries and Galloway,DG8 0HH,54.91335151,-4.60707116,S02001410,S01007504
Kirkcowan Hall ,SC047563,Dumfries and Galloway,DG8 0HQ,54.91374828,-4.60868846,S02001410,S01007504
Kirkcowan Autumn Social Club,SC047616,Dumfries and Galloway,DG8 0HE,54.91636681,-4.61149524,S02001410,S01007504
Corsock & Kirkpatrick Durham Church Of Scotland,SC007152,Dumfries and Galloway,DG7 3HP,55.01373254,-3.89192163,S02001418,S01007547
Kirkpatrick Durham Community Hall Committee,SC023627,Dumfries and Galloway,DG7 3HP,55.01373254,-3.89192163,S02001418,S01007547
Kirkpatrick Durham Recreation Association,SC029178,Dumfries and Galloway,DG7 3HE,55.01270187,-3.89750351,S02001418,S01007547
Maxwell At Glenlair Trust,SC030868,Dumfries and Galloway,DG7 3DF,55.02913751,-3.94268529,S02001418,S01007547
Crocketford Community Initiative,SC036322,Dumfries and Galloway,DG2 8RA,55.03601197,-3.83031289,S02001418,S01007547
Dumfries and Galloway Recovery Network,SC043438,Dumfries and Galloway,DG2 8RL,55.01909812,-3.81585487,S02001418,S01007547
Imagine Community Network,SC048347,Dumfries and Galloway,DG7 3DQ,55.05290852,-3.92924523,S02001418,S01007547
Galloway House Gardens Trust,SC007298,Dumfries and Galloway,DG8 8HF,54.78127341,-4.36895902,S02001411,S01007508
Sorbie Church of Scotland,SC010621,Dumfries and Galloway,DG8 8HD,54.77577133,-4.40959645,S02001411,S01007508
Newton Stewart Rugby Football Club,SC039813,Dumfries and Galloway,DG8 8AQ,54.79022313,-4.41289859,S02001411,S01007508
Wigtown Community Shop,SC047666,Dumfries and Galloway,DG8 9DB,54.83015758,-4.43560155,S02001411,S01007508
Garlieston Village Hall Committee,SC048380,Dumfries and Galloway,DG8 8HF,54.78127341,-4.36895902,S02001411,S01007508
Stoneykirk Parish Church (Church of Scotland),SC007346,Dumfries and Galloway,DG9 9JH,54.80809494,-4.96174838,S02001409,S01007500
Sandhead Learning And Internet Centre,SC037227,Dumfries and Galloway,DG9 9JH,54.80809494,-4.96174838,S02001409,S01007500
Stranraer Happy Hooves RDA Group (SCIO),SC038834,Dumfries and Galloway,DG9 9ND,54.74425995,-4.95890251,S02001409,S01007500
1st Sandhead Brownies And Guides,SC040559,Dumfries and Galloway,DG9 9ND,54.74425995,-4.95890251,S02001409,S01007500
Sandhead Bowling and Community Club,SC045929,Dumfries and Galloway,DG9 9JP,54.81009702,-4.96075865,S02001409,S01007500
Ardwell Community Kirk,SC047377,Dumfries and Galloway,DG9 9LY,54.76643685,-4.95274728,S02001409,S01007500
"Penpont, Keir & Tynron Pre-School",SC007407,Dumfries and Galloway,DG3 4BH,55.23212235,-3.80968382,S02001420,S01007562
Thornhill Playgroup,SC008983,Dumfries and Galloway,DG3 4DH,55.21650145,-3.79086557,S02001420,S01007562
Tynron Parish Hall Committee,SC032112,Dumfries and Galloway,DG3 4LD,55.22157407,-3.89413416,S02001420,S01007562
Thornhill Scottish Country Dancers Association,SC041977,Dumfries and Galloway,DG3 4NH,55.28000367,-3.90441073,S02001420,S01007562
Keir Village Hall Group,SC047860,Dumfries and Galloway,DG3 4LZ,55.22730501,-3.82116367,S02001420,S01007562
KPT Development Trust,SC050980,Dumfries and Galloway,DG3 4BP,55.23240829,-3.81463476,S02001420,S01007562
Dumfriesshire & Galloway Natural History & Antiquarian Society,SC007444,Dumfries and Galloway,DG1 1SY,55.12076164,-3.62055478,S02001421,S01007568
Kirkmahoe Parish Hall Committee,SC009517,Dumfries and Galloway,DG1 1SY,55.12076164,-3.62055478,S02001421,S01007568
Duncow Parent Teachers Association,SC010002,Dumfries and Galloway,DG1 1ST,55.11694973,-3.60708808,S02001421,S01007568
Smithtown Animal Trust,SC033943,Dumfries and Galloway,DG1 1TE,55.14131731,-3.63252753,S02001421,S01007568
Nithsdale Federation of Halls,SC037572,Dumfries and Galloway,DG1 1TQ,55.11515475,-3.60894454,S02001421,S01007568
Dumfries & Galloway Youth Orchestra SCIO,SC048972,Dumfries and Galloway,DG1 1SX,55.12219474,-3.60803582,S02001421,S01007568
Kirkmahoe Parish Hall Committee SCIO,SC049860,Dumfries and Galloway,DG1 1SY,55.12076164,-3.62055478,S02001421,S01007568
Solway Sinfonia SCIO,SC050518,Dumfries and Galloway,DG1 1SX,55.12219474,-3.60803582,S02001421,S01007568
Locharbriggs & Heathhall Mother & Toddler Group,SC007458,Dumfries and Galloway,DG1 3RX,55.09728906,-3.58004793,S02001432,S01007621
Wamphray Church Of Scotland,SC007536,Dumfries and Galloway,DG10 9NG,55.23753088,-3.39755658,S02001437,S01007645
Moffat Water Valley Hall,SC034735,Dumfries and Galloway,DG10 9LF,55.33389924,-3.38850898,S02001437,S01007645
3rd Dumfriesshire Scout Group,SC036310,Dumfries and Galloway,DG10 9LE,55.32998503,-3.42098677,S02001437,S01007645
Kirkmaiden Parish Church (Church of Scotland),SC007708,Dumfries and Galloway,DG9 9PT,54.69161161,-4.89641648,S02001409,S01007501
The Mull of Galloway Trust,SC043557,Dumfries and Galloway,DG9 9PT,54.69161161,-4.89641648,S02001409,S01007501
1st Kirkcolm Brownie Unit,SC044417,Dumfries and Galloway,DG9 9PS,54.68988464,-4.89457073,S02001409,S01007501
1st Kirkcolm Guide Unit,SC044424,Dumfries and Galloway,DG9 9PS,54.68988464,-4.89457073,S02001409,S01007501
Kirkmaiden Community Harbour Trust,SC045430,Dumfries and Galloway,DG9 9QF,54.69187005,-4.88898524,S02001409,S01007501
Kirkmaiden Old Kirk,SC050895,Dumfries and Galloway,DG9 9QE,54.69376046,-4.89866498,S02001409,S01007501
South Rhins Community Development Trust,SC028349,Dumfries and Galloway,DG9 9QD,54.6902802,-4.89757866,S02001409,S01007501
Moniaive Playcare,SC008219,Dumfries and Galloway,DG3 4EJ,55.19638371,-3.92044978,S02001420,S01007563
Glencairn Memorial Institute,SC009179,Dumfries and Galloway,DG3 4HN,55.19745564,-3.92029712,S02001420,S01007563
Glencairn & Moniaive Parish Church of Scotland,SC014663,Dumfries and Galloway,DG3 4HH,55.19689737,-3.91579224,S02001420,S01007563
Cairnhead Community Forest Trust Limited,SC028483,Dumfries and Galloway,DG3 4EQ,55.19484036,-3.92314071,S02001420,S01007563
1st Cairn Valley Brownies,SC032675,Dumfries and Galloway,DG3 4HQ,55.196865,-3.91613635,S02001420,S01007563
Cairn Valley Community Transport,SC036985,Dumfries and Galloway,DG3 4EH,55.19524282,-3.91984495,S02001420,S01007563
Lockerbie Guides & Brownies Local Assoc,SC008458,Dumfries and Galloway,DG11 2AU,55.12494148,-3.35966782,S02001436,S01007638
Annandale Community Transport Services,SC029660,Dumfries and Galloway,DG11 2AA,55.12276311,-3.35595564,S02001436,S01007638
Mid-Annandale Playcare,SC030841,Dumfries and Galloway,DG11 2AH,55.12602872,-3.35645841,S02001436,S01007638
Lockerbie Town Hall Users Group,SC031957,Dumfries and Galloway,DG11 2ES,55.12139614,-3.35523503,S02001436,S01007638
2nd Lockerbie Guide Unit,SC038611,Dumfries and Galloway,DG11 2AX,55.12291239,-3.35868932,S02001436,S01007638
Lockerbie Scout Group 9th Dumfriesshire,SC047409,Dumfries and Galloway,DG11 2AR,55.12682835,-3.35970059,S02001436,S01007638
Clarebrand Village Hall,SC008463,Dumfries and Galloway,DG7 3AH,54.97295757,-3.92778392,S02001418,S01007549
Stewartry Agricultural Society,SC010703,Dumfries and Galloway,DG7 3BY,54.99321024,-3.92533156,S02001418,S01007549
2nd Castle Douglas Guide Unit,SC031141,Dumfries and Galloway,DG7 3BH,54.99908634,-4.00444477,S02001418,S01007549
Crossmichael Community Trust SCIO,SC045747,Dumfries and Galloway,DG7 3AU,54.98098869,-3.98721127,S02001418,S01007549
Caerlaverock Parish Church of Scotland,SC008648,Dumfries and Galloway,DG1 4RN,55.00282145,-3.51599495,S02001427,S01007597
"Cummertrees, Mouswald and Ruthwell Church of Scotland",SC015399,Dumfries and Galloway,DG1 4NF,55.00396283,-3.4214744,S02001427,S01007597
1st St Mary's Rainbow Guides,SC031822,Dumfries and Galloway,DG1 4RH,54.9869203,-3.54265243,S02001427,S01007597
Dumfries And Galloway Canine Rescue Centre,SC031991,Dumfries and Galloway,DG1 4RH,54.9869203,-3.54265243,S02001427,S01007597
Dalbeattie Playgroup,SC008748,Dumfries and Galloway,DG5 4HR,54.93350386,-3.81613128,S02001416,S01007541
2nd Dalbeattie Brownies,SC038024,Dumfries and Galloway,DG5 4RG,54.93564779,-3.8146045,S02001416,S01007541
3rd Dalbeattie Rainbows,SC038055,Dumfries and Galloway,DG5 4RG,54.93564779,-3.8146045,S02001416,S01007541
1st Dalbeattie Guides,SC045478,Dumfries and Galloway,DG5 4RG,54.93564779,-3.8146045,S02001416,S01007541
Dalbeattie Men's Shed,SC045783,Dumfries and Galloway,DG5 4HW,54.93098396,-3.81575235,S02001416,S01007541
Dalbeattie and District Lions Club,SC051235,Dumfries and Galloway,DG5 4HE,54.93328782,-3.81975844,S02001416,S01007541
Colvend Southwick & Kirkbean Church of Scotland,SC009384,Dumfries and Galloway,DG2 8AU,54.89039765,-3.63661172,S02001426,S01007596
James Mckune Mortification,SC011893,Dumfries and Galloway,DG2 8DW,54.91700486,-3.59508226,S02001426,S01007596
East Criffel Community Transport,SC039708,Dumfries and Galloway,DG2 8AE,54.90326868,-3.61573505,S02001426,S01007596
Kirkbean Village Hall  Management Committee ,SC048517,Dumfries and Galloway,DG2 8AU,54.89039765,-3.63661172,S02001426,S01007596
Carsethorn Community Development Group,SC050434,Dumfries and Galloway,DG2 8DS,54.92323903,-3.57326425,S02001426,S01007596
Leswalt Parish Church (Church of Scotland),SC009412,Dumfries and Galloway,DG9 7AQ,54.90035366,-5.02558977,S02001407,S01007490
Stranraer & District Old People's Welfare Organisation Limited,SC020221,Dumfries and Galloway,DG9 7AW,54.90073109,-5.02667897,S02001407,S01007490
Wigtownshire Community Transport Limited,SC030412,Dumfries and Galloway,DG9 7AL,54.89930198,-5.024138,S02001407,S01007490
Tiddly-Winks Tots & Toddlers,SC031172,Dumfries and Galloway,DG9 7QQ,54.89872888,-5.03125557,S02001407,S01007490
Stranraer YMCA,SC045531,Dumfries and Galloway,DG9 7AP,54.89961325,-5.02643905,S02001407,S01007490
Stranraer Brass,SC049589,Dumfries and Galloway,DG9 7AQ,54.90035366,-5.02558977,S02001407,S01007490
"St Mary's-Greyfriars' Parish Church, Dumfries (Church of Scotland)",SC009432,Dumfries and Galloway,DG1 4DZ,55.06060158,-3.57601845,S02001428,S01007604
Thornhill Friendship Club,SC009487,Dumfries and Galloway,DG3 5PJ,55.2424749,-3.76496225,S02001420,S01007560
Thornhill Parish Church of Scotland,SC012722,Dumfries and Galloway,DG3 5NB,55.24047492,-3.76094137,S02001420,S01007560
Durisdeer Church of Scotland,SC014783,Dumfries and Galloway,DG3 5NB,55.24047492,-3.76094137,S02001420,S01007560
1st Sanquhar Brownies,SC034074,Dumfries and Galloway,DG3 5PL,55.24205743,-3.76399997,S02001420,S01007560
Old School Thornhill,SC049355,Dumfries and Galloway,DG3 5LS,55.24094451,-3.76575954,S02001420,S01007560
New Abbey Charitable Fund,SC009652,Dumfries and Galloway,DG2 8DX,54.98121893,-3.62569418,S02001426,S01007595
New Abbey 65 Club,SC012398,Dumfries and Galloway,DG2 8HJ,54.99017583,-3.61042581,S02001426,S01007595
Lochend And New Abbey Church Of Scotland,SC014590,Dumfries and Galloway,DG2 8DQ,54.96215055,-3.58807718,S02001426,S01007595
Dumfries and Galloway Blood Bikes ,SC045453,Dumfries and Galloway,DG2 8ES,55.03868145,-3.61983644,S02001426,S01007595
New Abbey Playpark Project SCIO ,SC049404,Dumfries and Galloway,DG2 8DA,54.97675287,-3.61823228,S02001426,S01007595
New Abbey Village Hall,SC050051,Dumfries and Galloway,DG2 8BX,54.97983407,-3.62171595,S02001426,S01007595
Stranraer Parish Church (Church of Scotland),SC009905,Dumfries and Galloway,DG9 8LX,54.88387931,-5.02681799,S02001408,S01007496
Portpatrick Parish Church (Church of Scotland),SC015452,Dumfries and Galloway,DG9 9BN,54.84924989,-5.05577456,S02001408,S01007496
Stranraer Baptist Church: Stranraer,SC019633,Dumfries and Galloway,DG9 9BL,54.85516275,-5.06836165,S02001408,S01007496
St John The Evangelist Episcopal Church: Stranraer,SC023329,Dumfries and Galloway,DG9 8TN,54.87139855,-5.11114348,S02001408,S01007496
St Ninians Scottish Episcopal Church Portpatrick,SC035098,Dumfries and Galloway,DG9 8DN,54.84547666,-5.12064495,S02001408,S01007496
Portpatrick Community Development Trust (SCIO),SC051266,Dumfries and Galloway,DG9 8JN,54.84406739,-5.11495856,S02001408,S01007496
Holywood Trust,SC009942,Dumfries and Galloway,DG1 4TA,55.04788023,-3.59223597,S02001427,S01007599
Board Of Management Of Dumfries And Galloway College,SC021189,Dumfries and Galloway,DG1 4FD,55.04717371,-3.58508598,S02001427,S01007599
Crichton Foundation,SC024589,Dumfries and Galloway,DG1 4ZZ,55.04945664,-3.59333168,S02001427,S01007599
SHAX ,SC042940,Dumfries and Galloway,DG1 4TA,55.04788023,-3.59223597,S02001427,S01007599
Dumfries and Galloway Further Education Foundation,SC044622,Dumfries and Galloway,DG1 4FD,55.04717371,-3.58508598,S02001427,S01007599
Dumfries Community Radio,SC049160,Dumfries and Galloway,DG1 4TA,55.04788023,-3.59223597,S02001427,S01007599
Kingholm Quay Harbour Group,SC049671,Dumfries and Galloway,DG1 4SU,55.04635607,-3.60563652,S02001427,S01007599
Maxwell Memorial Hall Terregles,SC010065,Dumfries and Galloway,DG2 9RA,55.07851833,-3.67719831,S02001422,S01007572
Lodge Thistle No 62 Benevolent Fund,SC011087,Dumfries and Galloway,DG2 9TQ,55.08041536,-3.64752829,S02001422,S01007572
Robert Burns Commemoration 1996,SC023894,Dumfries and Galloway,DG2 9RA,55.07851833,-3.67719831,S02001422,S01007572
Irongray Lochrutton & Terregles Parish Church Of Scotland,SC033058,Dumfries and Galloway,DG2 9RX,55.07778172,-3.6758673,S02001422,S01007572
Dumfries Charity Choir,SC045592,Dumfries and Galloway,DG2 9HF,55.07296796,-3.63730755,S02001422,S01007572
Kirkmabreck Church of Scotland,SC010150,Dumfries and Galloway,DG8 7DT,54.8636168,-4.35349661,S02001412,S01007520
Wigtown Agricultural Society,SC014308,Dumfries and Galloway,DG8 7EN,54.90543029,-4.3858887,S02001412,S01007520
Creetown Mothers & Toddlers Group,SC020616,Dumfries and Galloway,DG8 7HN,54.90326675,-4.37427962,S02001412,S01007520
Creetown Heritage Museum Trust Limited,SC022750,Dumfries and Galloway,DG8 7BX,54.89690466,-4.38014382,S02001412,S01007520
Creetown Initiative Ltd,SC035389,Dumfries and Galloway,DG8 7JF,54.90029054,-4.37937656,S02001412,S01007520
1st Newton Stewart Rainbows,SC040656,Dumfries and Galloway,DG8 7JW,54.9021512,-4.37708412,S02001412,S01007520
1st Newton Stewart Guides,SC041054,Dumfries and Galloway,DG8 7JB,54.90037867,-4.37900741,S02001412,S01007520
Balloch Wood Community Venture,SC046678,Dumfries and Galloway,DG8 7JJ,54.89911338,-4.38027417,S02001412,S01007520
Newton Stewart Players,SC046979,Dumfries and Galloway,DG8 7JJ,54.89911338,-4.38027417,S02001412,S01007520
The 3 R's Horse Rescue Centre,SC047724,Dumfries and Galloway,DG7 2EZ,54.84992051,-4.3060568,S02001412,S01007520
Creetown Football Club,SC048404,Dumfries and Galloway,DG8 7HN,54.90326675,-4.37427962,S02001412,S01007520
Kirkmahoe Parish Church of Scotland,SC010508,Dumfries and Galloway,DG1 1TY,55.0946192,-3.58769983,S02001433,S01007622
15th Dumfriesshire St Andrews Scout Group,SC010666,Dumfries and Galloway,DG16 5LQ,54.99433511,-3.05755045,S02001444,S01007680
Dumfries Northwest Church Of Scotland,SC010748,Dumfries and Galloway,DG2 0RY,55.14643456,-3.71726791,S02001421,S01007569
Men's Shed Dumfries,SC045382,Dumfries and Galloway,DG2 0RR,55.1375824,-3.69024889,S02001421,S01007569
South of Scotland Beekeepers Association,SC048334,Dumfries and Galloway,DG2 0RL,55.12024725,-3.64883879,S02001421,S01007569
Robert Burns Ellisland Trust (SCIO),SC049973,Dumfries and Galloway,DG2 0RP,55.13179304,-3.68126708,S02001421,S01007569
"St Andrews Parish Church of Scotland, Annan",SC010891,Dumfries and Galloway,DG12 5QP,54.98635451,-3.27413252,S02001440,S01007659
Brydekirk And District Village Hall And Playing Field Association,SC034868,Dumfries and Galloway,DG12 5ND,55.0225472,-3.27989506,S02001440,S01007659
Castle Douglas Parish Church of Scotland,SC011037,Dumfries and Galloway,DG7 1HS,54.94108336,-3.92683559,S02001415,S01007536
Castle Douglas Toddlers,SC023554,Dumfries and Galloway,DG7 1AJ,54.94282171,-3.92887039,S02001415,S01007536
Galloway Youth Clubs Association,SC027776,Dumfries and Galloway,DG7 1JH,54.9414621,-3.91823562,S02001415,S01007536
Castle Douglas Community Information Technology Centre,SC028140,Dumfries and Galloway,DG7 1AJ,54.94282171,-3.92887039,S02001415,S01007536
2nd Castle Douglas Brownie Unit,SC031097,Dumfries and Galloway,DG7 1JG,54.94188419,-3.91939545,S02001415,S01007536
Castle Douglas Development Forum,SC043639,Dumfries and Galloway,DG7 1AD,54.94161576,-3.92896876,S02001415,S01007536
Better Lives Partnership,SC046597,Dumfries and Galloway,DG7 1AJ,54.94282171,-3.92887039,S02001415,S01007536
Castle Douglas Community Centre Development Trust ,SC049075,Dumfries and Galloway,DG7 1AJ,54.94282171,-3.92887039,S02001415,S01007536
St Ninians Church: Castle Douglas,SC011079,Dumfries and Galloway,DG7 3EG,54.95066928,-3.92256267,S02001415,S01007538
Stewarty Churches Youth Initiative,SC033741,Dumfries and Galloway,DG7 1QE,54.9052995,-3.89789062,S02001415,S01007538
Dumfries and Galloway Personality Disorder Support Group,SC043480,Dumfries and Galloway,DG7 3EN,54.95818793,-3.92396827,S02001415,S01007538
Performance Collective Stranraer,SC049147,Dumfries and Galloway,DG7 1NS,54.94125365,-3.87864842,S02001415,S01007538
Buittle Quest ,SC049978,Dumfries and Galloway,DG7 1PQ,54.89249486,-3.83985789,S02001415,S01007538
Annan Congregation Of Jehovahs Witnesses,SC011257,Dumfries and Galloway,DG16 5QA,54.99751547,-3.07406355,S02001444,S01007677
Langholm Library Trust,SC011403,Dumfries and Galloway,DG13 0JS,55.15084685,-2.99548328,S02001438,S01007647
The Thomas Hope Trust,SC012344,Dumfries and Galloway,DG13 0JS,55.15084685,-2.99548328,S02001438,S01007647
The Langholm Initiative,SC041085,Dumfries and Galloway,DG13 0ES,55.14842231,-2.99746272,S02001438,S01007647
The Muckle Toon Adventure,SC044700,Dumfries and Galloway,DG13 0ES,55.14842231,-2.99746272,S02001438,S01007647
Langholm Gets Active,SC044725,Dumfries and Galloway,DG13 0EQ,55.14527673,-2.98979038,S02001438,S01007647
OutPost Arts,SC048764,Dumfries and Galloway,DG13 0ES,55.14842231,-2.99746272,S02001438,S01007647
South West Scotland Regional Scout Council,SC011643,Dumfries and Galloway,DG1 3GA,55.09102413,-3.51289126,S02001434,S01007629
Dumfries Male Voice Choir,SC028810,Dumfries and Galloway,DG1 3GA,55.09102413,-3.51289126,S02001434,S01007629
8th Dumfriesshire Scout Group,SC035379,Dumfries and Galloway,DG1 3GA,55.09102413,-3.51289126,S02001434,S01007629
Collin Village Hall Management Committee,SC038102,Dumfries and Galloway,DG1 4JF,55.07060701,-3.52428966,S02001434,S01007629
Georgetown School Association,SC011757,Dumfries and Galloway,DG1 4RP,55.00181635,-3.52307087,S02001427,S01007598
Crichton University Campus Students' Association (CUCSA),SC033450,Dumfries and Galloway,DG1 4UQ,55.05122143,-3.58688961,S02001427,S01007598
Barbour Memorial Hall.,SC050203,Dumfries and Galloway,DG1 4QY,55.00324651,-3.57172,S02001427,S01007598
Dumfries Partnership Action Group,SC051000,Dumfries and Galloway,DG1 4UQ,55.05122143,-3.58688961,S02001427,S01007598
St Margarets Episcopal Church: New Galloway,SC012084,Dumfries and Galloway,DG7 3SF,55.09762137,-4.18520458,S02001418,S01007550
Carsphairn Church of Scotland,SC015242,Dumfries and Galloway,DG7 3PJ,55.10149579,-4.16151064,S02001418,S01007550
"Balmaclellan, Kells & Dalry Church of Scotland",SC016053,Dumfries and Galloway,DG7 3PJ,55.10149579,-4.16151064,S02001418,S01007550
Greyfriars Episcopal Church-St Francis Of Assisi,SC018260,Dumfries and Galloway,DG7 3RS,55.07725593,-4.14109011,S02001418,S01007550
Glenkens Community And Arts Trust Limited,SC032050,Dumfries and Galloway,DG7 3RN,55.07306833,-4.14103867,S02001418,S01007550
Friends Of Dalry School,SC032545,Dumfries and Galloway,DG7 3UX,55.1052142,-4.16014372,S02001418,S01007550
Glenkens Scout Group,SC036356,Dumfries and Galloway,DG7 3PJ,55.10149579,-4.16151064,S02001418,S01007550
Glenkens Community Shop,SC043944,Dumfries and Galloway,DG7 3UX,55.1052142,-4.16014372,S02001418,S01007550
St John's Town of Dalry Community Properties Trust,SC046005,Dumfries and Galloway,DG7 3UW,55.10652278,-4.16237786,S02001418,S01007550
Local Initiatives in New Galloway (LING),SC047553,Dumfries and Galloway,DG7 3RL,55.0730096,-4.14080057,S02001418,S01007550
Galloway Community Transport (SCIO),SC049421,Dumfries and Galloway,DG7 3RN,55.07306833,-4.14103867,S02001418,S01007550
St John's Town of Dalry Town Hall SCIO ,SC049437,Dumfries and Galloway,DG7 3UW,55.10652278,-4.16237786,S02001418,S01007550
"St Andrews Church of Scotland, Moffat",SC012236,Dumfries and Galloway,DG10 9AL,55.3362588,-3.44084013,S02001437,S01007643
Old Well Theatre Trust,SC012701,Dumfries and Galloway,DG10 9AP,55.33442172,-3.44192432,S02001437,S01007643
Moffat District Guide Association,SC031066,Dumfries and Galloway,DG10 9DB,55.33197268,-3.43850907,S02001437,S01007643
Moffat Guide Unit,SC038444,Dumfries and Galloway,DG10 9DB,55.33197268,-3.43850907,S02001437,S01007643
Moffat First Responders,SC043916,Dumfries and Galloway,DG10 9DS,55.33280425,-3.44191286,S02001437,S01007643
Music in Dumfries,SC012367,Dumfries and Galloway,DG5 4QW,54.881714,-3.79146132,S02001417,S01007544
Kippford Improvement Association & Village Hall,SC012840,Dumfries and Galloway,DG5 4LW,54.87464594,-3.81229828,S02001417,S01007544
Colvend Public Hall,SC047442,Dumfries and Galloway,DG5 4QD,54.87345435,-3.76629792,S02001417,S01007544
Brydekirk Parish Church of Scotland,SC012516,Dumfries and Galloway,DG11 3LN,55.03061571,-3.25067627,S02001439,S01007654
Ecclefechan Day Centre ,SC027553,Dumfries and Galloway,DG11 3DF,55.06022096,-3.26606646,S02001439,S01007654
Ecclefechan Village Hall ,SC048209,Dumfries and Galloway,DG11 3DG,55.0591701,-3.26427975,S02001439,S01007654
Haugh Of Urr Village Hall Fund,SC012531,Dumfries and Galloway,DG7 3LD,54.98258578,-3.85543294,S02001417,S01007545
Haugh of Urr Nursery,SC039690,Dumfries and Galloway,DG7 3LD,54.98258578,-3.85543294,S02001417,S01007545
Stewartry Community Sports Club,SC043061,Dumfries and Galloway,DG7 3YE,54.97652186,-3.85701269,S02001417,S01007545
Kirkgunzeon Community Wind Farm Fund (SCIO),SC046034,Dumfries and Galloway,DG2 8JT,54.97172114,-3.75484525,S02001417,S01007545
Maxwell Memorial Hall Kirkgunzeon,SC046664,Dumfries and Galloway,DG2 8LA,54.9832575,-3.77183644,S02001417,S01007545
Haugh Of Urr Village Hall SCIO,SC046939,Dumfries and Galloway,DG7 3JW,54.97720548,-3.85815371,S02001417,S01007545
Haugh of Urr Nursery SCIO,SC048178,Dumfries and Galloway,DG7 3LD,54.98258578,-3.85543294,S02001417,S01007545
Friends Of Broughton House And Garden,SC012686,Dumfries and Galloway,DG6 4LT,54.85902607,-4.0378125,S02001414,S01007530
Friends Of Kirkcudbright Swimming Pool,SC027836,Dumfries and Galloway,DG6 4XX,54.83985376,-4.02817145,S02001414,S01007530
2nd Kirkcudbright Brownies,SC038015,Dumfries and Galloway,DG6 4XB,54.82224561,-4.06494467,S02001414,S01007530
Galloway Wildlife Conservation Trust,SC042826,Dumfries and Galloway,DG6 4XX,54.83985376,-4.02817145,S02001414,S01007530
Loreburn School Parents Association,SC013163,Dumfries and Galloway,DG1 3AG,55.07103437,-3.60023481,S02001431,S01007615
Christian Brethren Bethany Hall,SC015761,Dumfries and Galloway,DG1 3AJ,55.07127387,-3.59773844,S02001431,S01007615
Dumfries & Galloway Deaf Children's Society,SC018400,Dumfries and Galloway,DG1 3AX,55.07273362,-3.59676289,S02001431,S01007615
Friends of Elmbank,SC041726,Dumfries and Galloway,DG1 3AP,55.07293661,-3.59841556,S02001431,S01007615
Locharbriggs Community Centre Association,SC013786,Dumfries and Galloway,DG1 1UH,55.10731903,-3.58279523,S02001432,S01007618
"Applegarth, Sibbaldbie & Johnstone Church of Scotland",SC013947,Dumfries and Galloway,DG11 2DF,55.11398635,-3.35645785,S02001436,S01007635
Lockerbie Old School Community Hub (SCIO),SC044998,Dumfries and Galloway,DG11 2EL,55.11591867,-3.36368864,S02001436,S01007635
RH Youth Organisation,SC049696,Dumfries and Galloway,DG11 2EL,55.11591867,-3.36368864,S02001436,S01007635
Stranraer Congregation Of Jehovahs Witnesses,SC014111,Dumfries and Galloway,DG9 7EL,54.90473068,-5.02420201,S02001406,S01007487
Kirkconnel Parish Church of Scotland,SC014150,Dumfries and Galloway,DG4 6PH,55.38700572,-4.00677307,S02001419,S01007552
Nith Valley Day Centre SCIO,SC020180,Dumfries and Galloway,DG4 6LU,55.38749375,-4.00057727,S02001419,S01007552
Enable Upper Nithsdale Branch,SC020780,Dumfries and Galloway,DG4 6PH,55.38700572,-4.00677307,S02001419,S01007552
Kirkconnel Parish Heritage Society,SC028585,Dumfries and Galloway,DG4 6NB,55.38730737,-4.00372547,S02001419,S01007552
1st Kelloholm Rainbow Unit,SC038982,Dumfries and Galloway,DG4 6NE,55.38781116,-4.00643496,S02001419,S01007552
Kirkconnel and Kelloholm Development Trust,SC045680,Dumfries and Galloway,DG4 6NB,55.38730737,-4.00372547,S02001419,S01007552
Kirkconnel Miners Memorial Centre Management Committee,SC047227,Dumfries and Galloway,DG4 6RP,55.38246469,-3.99978657,S02001419,S01007552
Stewartry Council Of Voluntary Service,SC014734,Dumfries and Galloway,DG6 4EG,54.83824621,-4.04629559,S02001414,S01007528
Kirkcudbright Academy Endowment Trust,SC027616,Dumfries and Galloway,DG6 4DN,54.83753223,-4.04865765,S02001414,S01007528
Kirkcudbright Summer Festivities,SC036111,Dumfries and Galloway,DG6 4DU,54.83736181,-4.04810397,S02001414,S01007528
Kirkcudbright Development Trust,SC046064,Dumfries and Galloway,DG6 4EG,54.83824621,-4.04629559,S02001414,S01007528
Dumfries And Galloway Care Trust ,SC015508,Dumfries and Galloway,DG1 2LA,55.06617578,-3.60542795,S02001430,S01007611
Sanquhar Congregational Church,SC015696,Dumfries and Galloway,DG4 6BZ,55.36901568,-3.92844229,S02001419,S01007555
Upper Nithsdale Elderly & Disablement Assoc,SC016726,Dumfries and Galloway,DG4 6DF,55.36865259,-3.92582086,S02001419,S01007555
Sanquhar Community Centre Management Committee,SC046582,Dumfries and Galloway,DG4 6BT,55.36901358,-3.92629604,S02001419,S01007555
Friends of Clark's Little Ark,SC048429,Dumfries and Galloway,DG4 6BS,55.37110138,-3.92384093,S02001419,S01007555
Sanquhar Senior Citizens,SC048657,Dumfries and Galloway,DG4 6BZ,55.36901568,-3.92844229,S02001419,S01007555
The Upper Nithsdale Medical Fund,SC050086,Dumfries and Galloway,DG4 6BT,55.36901358,-3.92629604,S02001419,S01007555
Sanquhar and District Silver Band,SC050450,Dumfries and Galloway,DG4 6BZ,55.36901568,-3.92844229,S02001419,S01007555
Lockerbie Drama Club,SC015957,Dumfries and Galloway,DG11 2SH,55.17393572,-3.3932573,S02001436,S01007640
Dumfries And District Music Festival Association,SC032820,Dumfries and Galloway,DG11 1TH,55.1780644,-3.45674938,S02001436,S01007640
River Annan Trust,SC041774,Dumfries and Galloway,DG11 1HQ,55.22235718,-3.46229801,S02001436,S01007640
Johnstonebridge Centre and Community Development Trust Ltd,SC043738,Dumfries and Galloway,DG11 1ES,55.21055594,-3.41674358,S02001436,S01007640
Oddsox,SC050477,Dumfries and Galloway,DG11 2JU,55.17626365,-3.34195936,S02001436,S01007640
St Columbas Playgroup,SC015995,Dumfries and Galloway,DG12 6JG,54.98646501,-3.25399119,S02001441,S01007663
7th Annan Brownies,SC031508,Dumfries and Galloway,DG12 6DX,54.98637594,-3.25739536,S02001441,S01007663
2nd Annan Rainbows,SC032444,Dumfries and Galloway,DG12 5LD,54.9882521,-3.25585988,S02001441,S01007663
Heston Rovers Football Club [SCIO],SC050301,Dumfries and Galloway,DG12 5AG,54.98853947,-3.25761931,S02001441,S01007663
"St Michael's & South Church of Scotland, Dumfries",SC016201,Dumfries and Galloway,DG1 1RP,55.08907368,-3.58842016,S02001433,S01007623
Dumfries & Galloway Mental Health Association,SC016401,Dumfries and Galloway,DG2 9PR,55.07978453,-3.64100116,S02001423,S01007574
Jericho Fly Fishers,SC050719,Dumfries and Galloway,DG2 9QJ,55.08123884,-3.642455,S02001423,S01007574
Whithorn: St Ninian's Priory Church of Scotland,SC016881,Dumfries and Galloway,DG8 8PP,54.73220433,-4.41438731,S02001411,S01007511
All Roads Lead To Whithorn,SC045000,Dumfries and Galloway,DG8 8NU,54.73262606,-4.41622985,S02001411,S01007511
South Machars Community Centre - Whithorn,SC049360,Dumfries and Galloway,DG8 8PN,54.73402504,-4.41233638,S02001411,S01007511
Whithorn Heritage,SC050320,Dumfries and Galloway,DG8 8NS,54.73374062,-4.4153331,S02001411,S01007511
West Galloway Voluntary Accident Service Committee,SC016896,Dumfries and Galloway,DG9 0PU,54.96388702,-5.07688509,S02001408,S01007495
3rd Stranraer Rainbow Unit,SC038755,Dumfries and Galloway,DG9 0JT,54.9313419,-5.09171293,S02001408,S01007495
Aldouran Wetland Garden,SC043559,Dumfries and Galloway,DG9 0LJ,54.93016165,-5.09710243,S02001408,S01007495
Stewartry Educational Trust Scheme,SC017079,Dumfries and Galloway,DG1 4AS,55.05816105,-3.60255499,S02001427,S01007600
User And Carer Involvement,SC031853,Dumfries and Galloway,DG1 4AL,55.0600865,-3.59965697,S02001427,S01007600
Dumfries Town Band,SC047043,Dumfries and Galloway,DG1 2RZ,55.06137238,-3.60370112,S02001427,S01007600
Port William Playgroup,SC017085,Dumfries and Galloway,DG8 9LP,54.74474973,-4.54461731,S02001411,S01007510
Port William First Response Team,SC034232,Dumfries and Galloway,DG8 9QH,54.76374865,-4.58478439,S02001411,S01007510
Port William Community Development Trust,SC037381,Dumfries and Galloway,DG8 9QP,54.76688649,-4.5860262,S02001411,S01007510
Port William Community Association,SC043830,Dumfries and Galloway,DG8 9QE,54.76724754,-4.58553617,S02001411,S01007510
Maxwell Hall Management,SC049537,Dumfries and Galloway,DG8 9SD,54.76115511,-4.58373292,S02001411,S01007510
Barfil Charitable Trust,SC018293,Dumfries and Galloway,DG2 8RW,55.03473268,-3.81069399,S02001417,S01007546
Lochfoot Village Hall Management Committee,SC047736,Dumfries and Galloway,DG2 8NP,55.04633921,-3.72634819,S02001417,S01007546
Newton Stewart Museum,SC018498,Dumfries and Galloway,DG8 6HJ,54.95986783,-4.48629638,S02001412,S01007515
Cree Valley Community Woodlands Trust,SC028549,Dumfries and Galloway,DG8 6JF,54.95763398,-4.4904697,S02001412,S01007515
Newton Stewart Initiative,SC029869,Dumfries and Galloway,DG8 6ER,54.95756019,-4.48573204,S02001412,S01007515
Parish Of Penninghame (Church of Scotland),SC031847,Dumfries and Galloway,DG8 6HY,54.95665437,-4.48914382,S02001412,S01007515
Galloway Forest Astronomical Society,SC035033,Dumfries and Galloway,DG8 6JT,54.95665936,-4.4924088,S02001412,S01007515
Galloway Thistle Youth Football Club ,SC045742,Dumfries and Galloway,DG8 6HE,54.95593812,-4.48988053,S02001412,S01007515
Machars Churches Basics Food Bank,SC049351,Dumfries and Galloway,DG8 6EL,54.96146205,-4.49140965,S02001412,S01007515
Stranraer Toddlers Group,SC018866,Dumfries and Galloway,DG9 7TG,54.89543263,-5.0340028,S02001407,S01007491
Wigtownshire Rugby Football Club,SC050239,Dumfries and Galloway,DG9 8LP,54.89906365,-5.03836338,S02001407,S01007491
Lockerbie Trust,SC019796,Dumfries and Galloway,DG1 3SJ,55.0925302,-3.57555084,S02001433,S01007625
The Care Training Consortium ,SC036101,Dumfries and Galloway,DG1 3SJ,55.0925302,-3.57555084,S02001433,S01007625
Scottish Community Drama Association Wigtown District,SC019856,Dumfries and Galloway,DG9 0HE,54.90963462,-5.03987809,S02001405,S01007482
Galloway Voices,SC037174,Dumfries and Galloway,DG9 0HE,54.90963462,-5.03987809,S02001405,S01007482
Westerkirk Parish Library Trust,SC020308,Dumfries and Galloway,DG13 0NF,55.18859809,-3.03016297,S02001438,S01007646
Westerkirk Parish Trust,SC025312,Dumfries and Galloway,DG13 0NF,55.18859809,-3.03016297,S02001438,S01007646
Eskdalemuir Ex-Servicemen's Public Hall,SC035866,Dumfries and Galloway,DG13 0QP,55.32596564,-3.20465535,S02001438,S01007646
Upper Eskdale Development Group,SC043890,Dumfries and Galloway,DG13 0QJ,55.27430999,-3.18185609,S02001438,S01007646
Pals of Penninghame,SC020491,Dumfries and Galloway,DG8 6LX,54.95289765,-4.49130118,S02001412,S01007513
1st Minnigaff Scout Group Committee,SC020569,Dumfries and Galloway,DG8 6LP,54.95462116,-4.49404759,S02001412,S01007513
Galloway Fisheries Trust,SC020751,Dumfries and Galloway,DG8 6ND,54.95396427,-4.48925859,S02001412,S01007513
2nd Newton Stewart Brownie Unit,SC041086,Dumfries and Galloway,DG8 6LW,54.9538691,-4.48600389,S02001412,S01007513
Dumfries Splash Club,SC020789,Dumfries and Galloway,DG1 4DD,55.06592424,-3.58277354,S02001429,S01007607
The LGS Community Trust,SC047088,Dumfries and Galloway,DG1 4DF,55.06461783,-3.58164146,S02001429,S01007607
The Mid Galloway Community Day Centre For Older People At Newton Stewart,SC020948,Dumfries and Galloway,DG8 6NG,54.95897255,-4.4826013,S02001412,S01007514
Portpatrick Harbour Community Benefit Society,SC035754,Dumfries and Galloway,DG8 6EQ,54.95621813,-4.48366538,S02001412,S01007514
Trad Music Trust,SC048610,Dumfries and Galloway,DG8 6BT,54.95834352,-4.48303113,S02001412,S01007514
Enable Wigtown & District Branch,SC021060,Dumfries and Galloway,DG8 6NP,54.96079774,-4.48126107,S02001412,S01007517
Scottish Community Drama Association Stewartry District,SC021375,Dumfries and Galloway,DG7 1LD,54.94632474,-3.92447879,S02001415,S01007535
Air Training Corps No 2329 Castle Douglas Squadron Non - Public Sports & Welfare Funds,SC024630,Dumfries and Galloway,DG7 1LN,54.94823773,-3.92627227,S02001415,S01007535
Royal Scottish Country Dance Society Castle Douglas & District Branch,SC024782,Dumfries and Galloway,DG7 1LQ,54.94852863,-3.92833179,S02001415,S01007535
Kelton Nursery SCIO,SC048483,Dumfries and Galloway,DG7 1GF,54.9449767,-3.91479624,S02001415,S01007535
Stranraer Drama Club,SC021407,Dumfries and Galloway,DG9 0EG,54.90954567,-5.04091689,S02001405,S01007481
Galloway Talking Newspaper Association For The Blind,SC022436,Dumfries and Galloway,DG9 0JP,54.91462322,-5.05032068,S02001405,S01007481
West Galloway Cancer Drop In Centre,SC028856,Dumfries and Galloway,DG9 0JP,54.91462322,-5.05032068,S02001405,S01007481
Stranraer and Galloway Visual Arts Society,SC045903,Dumfries and Galloway,DG9 0JA,54.91099741,-5.04397581,S02001405,S01007481
Wigtownshire Antiquarian & Natural History Society,SC021441,Dumfries and Galloway,DG9 9BB,54.86375061,-4.99196863,S02001408,S01007497
1st Lochinch Brownies,SC041129,Dumfries and Galloway,DG9 8RU,54.90159791,-4.96274751,S02001408,S01007497
Potters Garden,SC044457,Dumfries and Galloway,DG9 8BS,54.90333265,-5.01172467,S02001408,S01007497
1st Lochinch Rainbow Unit,SC044701,Dumfries and Galloway,DG9 8RU,54.90159791,-4.96274751,S02001408,S01007497
1st Lochinch Guide Unit,SC047970,Dumfries and Galloway,DG9 8SA,54.89701082,-4.95545315,S02001408,S01007497
Georgetown Over 60's Club,SC021536,Dumfries and Galloway,DG1 4SQ,55.06447445,-3.57537205,S02001429,S01007605
Lincluden After School Group,SC021582,Dumfries and Galloway,DG2 0BX,55.08201306,-3.62089847,S02001424,S01007582
KGV Trust,SC047994,Dumfries and Galloway,DG2 0BQ,55.07689034,-3.61616428,S02001424,S01007582
Vajrasattva Kadampa Meditation Centre,SC021647,Dumfries and Galloway,DG11 2AD,55.13180647,-3.35652888,S02001436,S01007639
2nd Lockerbie Brownie Unit,SC038512,Dumfries and Galloway,DG11 2QP,55.13140952,-3.35019435,S02001436,S01007639
Lockerbie Men's Shed,SC047507,Dumfries and Galloway,DG11 2NB,55.12741101,-3.35013779,S02001436,S01007639
University Of The Third Age In Dumfries - U3a In Dumfries,SC021683,Dumfries and Galloway,DG1 4EZ,55.0595442,-3.58477638,S02001428,S01007603
"Bump,Baby and Beyond  (Dumfries and Galloway)",SC045122,Dumfries and Galloway,DG1 4XX,55.05715882,-3.57884223,S02001428,S01007603
Dumfries Get Together ,SC050092,Dumfries and Galloway,DG1 4XD,55.05887682,-3.58426463,S02001428,S01007603
Borgue Public Hall,SC022365,Dumfries and Galloway,DG6 4ST,54.8215528,-4.13866454,S02001413,S01007524
Twynholm Public Hall,SC023077,Dumfries and Galloway,DG6 4PB,54.86430611,-4.08521775,S02001413,S01007524
Southwest Community Woodlands Trust,SC025438,Dumfries and Galloway,DG6 4SP,54.83173783,-4.15941413,S02001413,S01007524
Kirkandrews Kirk Trust,SC027744,Dumfries and Galloway,DG6 4UB,54.8084944,-4.17946248,S02001413,S01007524
Twynholm Action Group SCIO,SC033520,Dumfries and Galloway,DG6 4NT,54.86713594,-4.08163923,S02001413,S01007524
Twynholm Scout Group,SC036569,Dumfries and Galloway,DG6 4SW,54.81902503,-4.15806615,S02001413,S01007524
Kirkcudbright Skatepark,SC046405,Dumfries and Galloway,DG6 4SP,54.83173783,-4.15941413,S02001413,S01007524
Rhins Peninsular Musical Heritage Trust,SC022864,Dumfries and Galloway,DG9 8RB,54.9740307,-5.02595831,S02001408,S01007498
Balmaghie Public Hall Committee,SC023330,Dumfries and Galloway,DG7 2PJ,54.96053005,-4.04690099,S02001413,S01007523
Riding for the Disabled Nithsdale and Stewarty Group,SC028651,Dumfries and Galloway,DG7 2PB,54.94619353,-4.00432485,S02001413,S01007523
Galloway R.D.A.,SC028667,Dumfries and Galloway,DG7 2PW,54.96097419,-4.0594512,S02001413,S01007523
Glenlochar Community Centre,SC047629,Dumfries and Galloway,DG7 2LS,54.95995817,-3.98326742,S02001413,S01007523
Royal Scottish Country Dance Society Dumfries Branch,SC023375,Dumfries and Galloway,DG1 4BJ,55.06948878,-3.58993056,S02001431,S01007616
Dumfries & Galloway Advanced Motorists & Motorcyclists,SC023511,Dumfries and Galloway,DG2 7JX,55.06123142,-3.61977646,S02001425,S01007590
Talking Newspaper Association For Dumfries & Galloway K/A Solway Sound,SC024971,Dumfries and Galloway,DG2 7RJ,55.06315769,-3.61684775,S02001425,S01007590
Tundergarth Parish Hall,SC023635,Dumfries and Galloway,DG11 2PP,55.11636446,-3.31580416,S02001440,S01007656
Royal Scottish Country Dance Society Gatehouse Of Fleet Local Association,SC024909,Dumfries and Galloway,DG6 4BS,54.83065819,-4.04960171,S02001414,S01007527
Kirkcudbright Guides,SC035252,Dumfries and Galloway,DG6 4AN,54.83276424,-4.05528284,S02001414,S01007527
Kirkcudbright Jazz Festival,SC038200,Dumfries and Galloway,DG6 4DB,54.82953859,-4.05043243,S02001414,S01007527
Loch Arthur Ruth,SC048871,Dumfries and Galloway,DG6 4AH,54.83398574,-4.05268222,S02001414,S01007527
The Furniture Project (Stranraer) Ltd,SC026981,Dumfries and Galloway,DG9 7UD,54.89771715,-5.01375439,S02001407,S01007492
Galloway Community Training Project Limited,SC032688,Dumfries and Galloway,DG9 7UD,54.89771715,-5.01375439,S02001407,S01007492
Stranraer Town and Rural Trust SCIO,SC045665,Dumfries and Galloway,DG9 7BH,54.89680378,-5.02697695,S02001407,S01007492
Fed Up Community Cafe,SC049452,Dumfries and Galloway,DG9 7UD,54.89771715,-5.01375439,S02001407,S01007492
Eastriggs + Dornock Early Years,SC028113,Dumfries and Galloway,DG12 6QF,54.985323,-3.18228685,S02001443,S01007673
Moorside NucleUS SCIO,SC042647,Dumfries and Galloway,DG12 6QB,54.98591794,-3.18210117,S02001443,S01007673
Gretna Day Centre,SC028292,Dumfries and Galloway,DG16 5AQ,54.99441151,-3.06732182,S02001444,S01007678
Richard Greenhow Community Centre Management Committee,SC031770,Dumfries and Galloway,DG16 5AQ,54.99441151,-3.06732182,S02001444,S01007678
2nd Gretna Rainbows,SC036870,Dumfries and Galloway,DG16 5DB,54.99217139,-3.06657462,S02001444,S01007678
1st Gretna Brownies,SC036871,Dumfries and Galloway,DG16 5DG,54.99520324,-3.06926549,S02001444,S01007678
Irongray Community Trust,SC028684,Dumfries and Galloway,DG2 9SF,55.08432818,-3.74344869,S02001422,S01007571
Speddoch Community Association,SC046503,Dumfries and Galloway,DG2 9TX,55.10130252,-3.76796564,S02001422,S01007571
Kelloholm Community Food Initiatives Group,SC029259,Dumfries and Galloway,DG4 6RB,55.38045413,-3.9924712,S02001419,S01007553
Kirkconnel Coalfield Trust,SC038111,Dumfries and Galloway,DG4 6PW,55.38602833,-4.00170311,S02001419,S01007553
Loreburn Housing Association Limited,SC029917,Dumfries and Galloway,DG1 1NN,55.07439844,-3.59933535,S02001431,S01007614
The Bridge Educational Trust,SC048045,Dumfries and Galloway,DG1 1PB,55.07748788,-3.5988164,S02001431,S01007614
Home-Start Wigtownshire,SC030693,Dumfries and Galloway,DG9 7NW,54.90210335,-5.03113487,S02001405,S01007486
Dick's Hill Crche Limited,SC033378,Dumfries and Galloway,DG9 7NW,54.90210335,-5.03113487,S02001405,S01007486
Castle Douglas Rainbow Guide Unit,SC031120,Dumfries and Galloway,DG7 1BP,54.94269916,-3.93318932,S02001415,S01007534
Castle Douglas Beavers,SC036301,Dumfries and Galloway,DG7 1AP,54.9414053,-3.92977053,S02001415,S01007534
2nd Castle Douglas Rainbow Unit,SC047817,Dumfries and Galloway,DG7 1BP,54.94269916,-3.93318932,S02001415,S01007534
Eastriggs And Gretna Heritage Group (SCIO),SC031616,Dumfries and Galloway,DG12 6TF,54.98443104,-3.16107002,S02001443,S01007675
The Melbourne Park Playing Field Trust,SC046441,Dumfries and Galloway,DG12 6TB,54.98879936,-3.17966962,S02001443,S01007675
"Lighthouse Church, Dumfries",SC032271,Dumfries and Galloway,DG11 1JU,55.12629239,-3.43387924,S02001435,S01007634
Three Streams SCIO,SC049826,Dumfries and Galloway,DG11 1LY,55.14962037,-3.45903925,S02001435,S01007634
1st Annan Rainbow Brownies,SC032415,Dumfries and Galloway,DG12 5HF,54.99607239,-3.25133644,S02001442,S01007666
Voluntary Organisations Influencing Childcare Environments,SC038631,Dumfries and Galloway,DG12 5EX,54.9961088,-3.255652,S02001442,S01007666
Durisdeer Village Hall And Social Committee,SC032863,Dumfries and Galloway,DG3 5BQ,55.31459355,-3.76274463,S02001420,S01007559
6th Dumfries Maxwelltown West B Pack Brownies,SC034395,Dumfries and Galloway,DG2 9BA,55.06998124,-3.62545496,S02001424,S01007586
Summerhill Community Centre,SC044966,Dumfries and Galloway,DG2 9EF,55.0685771,-3.63098905,S02001424,S01007586
Solway Boys Brigade Battalion,SC034797,Dumfries and Galloway,DG12 6DE,54.98252807,-3.26619792,S02001441,S01007660
Annan Harbour Action Group,SC046732,Dumfries and Galloway,DG12 6BT,54.98266441,-3.27035894,S02001441,S01007660
6th Dumfries Maxwest Guides,SC034805,Dumfries and Galloway,DG2 7NX,55.06500326,-3.62807189,S02001425,S01007588
Stranraer And District Pipe Band,SC035309,Dumfries and Galloway,DG9 7ND,54.90159419,-5.03747759,S02001405,S01007485
Dumfriesshire Social Club For The Blind,SC035548,Dumfries and Galloway,DG1 3RH,55.09830973,-3.57618572,S02001432,S01007620
Prostate Buddies D & G (SCIO),SC049385,Dumfries and Galloway,DG1 3UX,55.09712903,-3.57505787,S02001432,S01007620
Rft Under Fives Group,SC036066,Dumfries and Galloway,DG11 1JN,55.0952385,-3.42272206,S02001435,S01007631
Royal Four Towns Hall Association ,SC046011,Dumfries and Galloway,DG11 1JN,55.0952385,-3.42272206,S02001435,S01007631
Medieval Bruce Heritage Trust,SC049156,Dumfries and Galloway,DG11 1JS,55.09491971,-3.41846392,S02001435,S01007631
Glenluce Cubs,SC036259,Dumfries and Galloway,DG8 0PY,54.88148391,-4.80195677,S02001410,S01007503
Glen of Luce Community Association SCIO,SC047427,Dumfries and Galloway,DG8 0JR,54.83345542,-4.75265218,S02001410,S01007503
Old Luce Development Trust,SC049400,Dumfries and Galloway,DG8 0PR,54.87871752,-4.8104024,S02001410,S01007503
Cargenbridge Brownie Unit,SC036261,Dumfries and Galloway,DG2 8LJ,55.05241981,-3.64021019,S02001426,S01007594
Annan & District Day Centre,SC036727,Dumfries and Galloway,DG12 5JX,54.98849177,-3.25266342,S02001442,S01007668
Dumfriesshire District Scout Council,SC037029,Dumfries and Galloway,DG2 0PR,55.08370712,-3.62931753,S02001423,S01007580
3rd Castle Douglas Brownie Unit,SC038035,Dumfries and Galloway,DG7 1SJ,54.90715765,-3.92204758,S02001414,S01007532
Kindred Spirits,SC038042,Dumfries and Galloway,DG2 7LB,55.05787012,-3.62045485,S02001426,S01007593
Dumfries Rugby Football Club,SC043544,Dumfries and Galloway,DG2 7LU,55.05923822,-3.6223264,S02001426,S01007593
Gretna Community Church,SC038204,Dumfries and Galloway,DG16 5JE,54.99132373,-3.11008116,S02001444,S01007676
Gretna Landmark Trust,SC041910,Dumfries and Galloway,DG11 3BG,55.01714649,-3.1272479,S02001444,S01007676
Alive Christian Media Limited,SC038224,Dumfries and Galloway,DG1 3AD,55.07023979,-3.59846464,S02001430,S01007610
Dumfries Evangelical Church (Independent Reformed Baptist),SC038268,Dumfries and Galloway,DG1 3HS,55.07005333,-3.57831641,S02001434,S01007628
Islamic Society Dumfries,SC042594,Dumfries and Galloway,DG1 3HB,55.06939975,-3.5843516,S02001434,S01007628
Galloway Nature And Heritage Trust,SC038470,Dumfries and Galloway,DG8 6DQ,54.96395458,-4.48601774,S02001412,S01007516
1st Kelloholm Brownie Unit,SC038520,Dumfries and Galloway,DG4 6QP,55.37944406,-3.98771651,S02001419,S01007554
2nd Stranraer Brownie Unit,SC039000,Dumfries and Galloway,DG9 7SZ,54.89216432,-5.02987305,S02001407,S01007493
5th Stranraer Brownie Unit,SC040760,Dumfries and Galloway,DG9 7SZ,54.89216432,-5.02987305,S02001407,S01007493
Creetown Building Preservation Trust Limited,SC040208,Dumfries and Galloway,DG8 6QE,54.94007832,-4.48914959,S02001410,S01007505
Galloway Music Festival,SC046956,Dumfries and Galloway,DG8 6QE,54.94007832,-4.48914959,S02001410,S01007505
Langlands School Parent Council-Dumfries,SC040743,Dumfries and Galloway,DG2 9DF,55.07990618,-3.63463025,S02001423,S01007577
Learners Together,SC047899,Dumfries and Galloway,DG2 9JU,55.07733893,-3.63640528,S02001423,S01007577
1st Lochmaben Brownies,SC041877,Dumfries and Galloway,DG11 1RZ,55.13867457,-3.49313809,S02001421,S01007567
Shambellie House Trust,SC045782,Dumfries and Galloway,DG1 3LL,55.12802441,-3.56758516,S02001421,S01007567
Glentrool & Bargrennan Community Trust,SC042009,Dumfries and Galloway,DG8 6SY,55.07232261,-4.57311724,S02001412,S01007519
The River Cree Hatchery and Habitat Trust,SC042355,Dumfries and Galloway,DG8 7AA,55.00071429,-4.45087136,S02001412,S01007519
Restore Community Projects,SC042841,Dumfries and Galloway,DG2 0ED,55.08573308,-3.63840893,S02001423,S01007575
Lochside Community Association SCIO  ,SC048400,Dumfries and Galloway,DG2 0HE,55.08660224,-3.64193849,S02001423,S01007575
Alive Community Radio (SCIO),SC049392,Dumfries and Galloway,DG2 0ED,55.08573308,-3.63840893,S02001423,S01007575
Xcel Youth Trust,SC043536,Dumfries and Galloway,DG13 0BG,55.15134642,-3.0079553,S02001438,S01007649
3rd Annan Brownies,SC043875,Dumfries and Galloway,DG12 5LQ,54.99531436,-3.24551349,S02001442,S01007667
Lincluden Community Centre Management Committee (SCIO),SC045982,Dumfries and Galloway,DG2 0DH,55.08289023,-3.6225163,S02001423,S01007581
The Birchvale Players,SC048107,Dumfries and Galloway,DG2 0DD,55.08270112,-3.61984531,S02001423,S01007581
The Rhins Men's Shed,SC046393,Dumfries and Galloway,DG9 8PL,54.87739497,-4.87986278,S02001410,S01007502
Kirkpatrick Durham Community Hall ,SC048352,Dumfries and Galloway,DG7 3HQ,55.01161942,-3.89487183,S02001418,S01007548
Sanquhar Town Hall SCIO,SC048508,Dumfries and Galloway,DG4 6AQ,55.36490163,-3.92431321,S02001419,S01007557
Sanquhar Enterprise Company,SC049742,Dumfries and Galloway,DG4 6BA,55.36581331,-3.91834559,S02001419,S01007557
Springfield and Gretna Green Community Asset Trust,SC048554,Dumfries and Galloway,DG16 5DU,55.0017541,-3.06521863,S02001444,S01007681
Kirkpatrick Fleming Play Park Association SCIO ,SC049152,Dumfries and Galloway,DG11 3AT,55.02665687,-3.14622468,S02001439,S01007652
Kirkpatrick Fleming Village Hall SCIO,SC049695,Dumfries and Galloway,DG11 3AU,55.02468706,-3.13682965,S02001439,S01007652
Stranraer Water Sports Association,SC049268,Dumfries and Galloway,DG9 7JZ,54.90646711,-5.03424042,S02001405,S01007484
Corberry Park Pipers (SCIO),SC049529,Dumfries and Galloway,DG2 7EZ,55.05933578,-3.61024277,S02001425,S01007592
Glen Aros Church (SCIO),SC049626,Dumfries and Galloway,DG2 0AB,55.07157835,-3.61958373,S02001424,S01007583
The Royal Burgh of Dumfries Tattoo,SC049884,Dumfries and Galloway,DG1 3RU,55.09576365,-3.57986237,S02001433,S01007624
Lockerbie Squash & Racketball Club (SCIO),SC049958,Dumfries and Galloway,DG12 6HH,54.97988862,-3.25553623,S02001443,S01007672
Dumfries Model Car Club,SC050387,Dumfries and Galloway,DG1 4EQ,55.06473038,-3.57920302,S02001429,S01007606
Kilsture Forest Community Group,SC050634,Dumfries and Galloway,DG8 8NB,54.71892742,-4.45375455,S02001411,S01007509
Dalton Village Community Hall,SC051086,Dumfries and Galloway,DG11 1DS,55.05283265,-3.38657438,S02001440,S01007657
Annan Town Band,SC051248,Dumfries and Galloway,DG12 6PT,54.98565547,-3.17487343,S02001443,S01007674
