Name,Charity Number,Local authority,Postcode,Latitude,Longitude,IntermediateZone2011Code,DataZone2011Code
Kirk Session Of The Parish Of Cabrach for MacMillan Ferguson Bequest,SC000480,Moray,AB55 4FH,57.44581652,-3.12166918,S02002073,S01011049
Mortlach and Cabrach Church of Scotland,SC010193,Moray,AB55 4FH,57.44581652,-3.12166918,S02002073,S01011049
Friends of The Stephen Hospital Dufftown and Rinnes Medical Group,SC013923,Moray,AB55 4FS,57.44902836,-3.13018262,S02002073,S01011049
Dufftown and District Community Association,SC023622,Moray,AB55 4AZ,57.4464774,-3.12412213,S02002073,S01011049
Speyside Youth,SC047212,Moray,AB55 4BF,57.44715683,-3.12750884,S02002073,S01011049
Mortlach Memorial Hall Dufftown,SC047468,Moray,AB55 4FH,57.44581652,-3.12166918,S02002073,S01011049
Dufftown Community Centre,SC048668,Moray,AB55 4EF,57.44854766,-3.12466889,S02002073,S01011049
True Jesus Church In Elgin,SC000544,Moray,IV30 4HP,57.65904369,-3.30663685,S02002088,S01011124
Moray Women's Aid,SC012866,Moray,IV30 4GB,57.65913715,-3.30280212,S02002088,S01011124
Dyke and Edinkillie Parish Church of Scotland,SC000585,Moray,IV36 2QN,57.53398983,-3.66091171,S02002096,S01011168
Dallas Village Hall (Known As Houldsworth Institute),SC000992,Moray,IV36 2SA,57.55319508,-3.46675281,S02002096,S01011168
Edinkillie Public Hall Trustees,SC009368,Moray,IV36 2QW,57.51396317,-3.64454191,S02002096,S01011168
"St Michael's Parish Church of Scotland, Dallas",SC015881,Moray,IV36 2SB,57.55396035,-3.4650622,S02002096,S01011168
Presleyhill Trust,SC030957,Moray,IV36 2QN,57.53398983,-3.66091171,S02002096,S01011168
Lighthouse Church Forres,SC031223,Moray,IV36 2RR,57.58961725,-3.60332202,S02002096,S01011168
River Findhorn Interpretative Trust,SC033541,Moray,IV36 2QN,57.53398983,-3.66091171,S02002096,S01011168
Finderne Development Trust,SC049191,Moray,IV36 2QN,57.53398983,-3.66091171,S02002096,S01011168
"St Laurence Parish Church of Scotland, Forres",SC000711,Moray,IV36 1DG,57.60626075,-3.60996303,S02002094,S01011158
"St John the Evangelist Scottish Episcopal Church, Forres.",SC010346,Moray,IV36 1DR,57.60697015,-3.60716582,S02002094,S01011158
Forres Academy Enrichment Fund,SC016372,Moray,IV36 1FG,57.60360502,-3.61180367,S02002094,S01011158
James Gillan's Trust,SC016739,Moray,IV36 1DR,57.60697015,-3.60716582,S02002094,S01011158
Rafford Parish Church Of Scotland,SC022567,Moray,IV36 1DR,57.60697015,-3.60716582,S02002094,S01011158
Royal British Legion Scotland Forres Branch,SC030827,Moray,IV36 1DG,57.60626075,-3.60996303,S02002094,S01011158
Forres Heritage Trust,SC041891,Moray,IV36 1DJ,57.60593618,-3.60864321,S02002094,S01011158
The Cabin,SC000839,Moray,AB55 5QB,57.506074,-2.98761625,S02002075,S01011055
Drummuir 21,SC030342,Moray,AB55 5JE,57.4859733,-3.0440694,S02002075,S01011055
Dufftown Kids Cabin,SC048762,Moray,AB55 5QB,57.506074,-2.98761625,S02002075,S01011055
St James Church Of Scotland: Lossiemouth,SC000880,Moray,IV31 6BY,57.72153667,-3.28855732,S02002090,S01011132
Lossiemouth Town Hall Management Committee,SC035968,Moray,IV31 6AW,57.72113001,-3.2887947,S02002090,S01011132
"Action Marine Park, SCIO",SC043530,Moray,IV31 6QP,57.72234345,-3.29400899,S02002090,S01011132
Lossiemouth Friends of Guiding,SC049200,Moray,IV31 6AP,57.72124456,-3.28636438,S02002090,S01011132
Keith Grammar School Fund,SC000946,Moray,AB55 5GS,57.5450169,-2.94518163,S02002076,S01011060
Thomas & Margaret Dick Fund,SC010896,Moray,AB55 5BL,57.54218117,-2.94958531,S02002076,S01011060
Friends Of The Turner Memorial Hospital Keith,SC020128,Moray,AB55 5GH,57.54979644,-2.95227315,S02002076,S01011060
Keith North Newmill Boharm & Rothiemay Church Of Scotland,SC033804,Moray,AB55 5BQ,57.54269134,-2.94983246,S02002076,S01011060
Parents & Friends of Keith Play Centre,SC049090,Moray,AB55 5GT,57.54567328,-2.94509839,S02002076,S01011060
Urquhart Parish Hall Committee,SC001131,Moray,IV30 8LG,57.64819065,-3.19790855,S02002083,S01011097
Speyside Community Car Sharing Scheme,SC035246,Moray,IV30 8XQ,57.64993596,-3.19573756,S02002083,S01011097
1st Lhanbryde and Urquhart Rainbow Unit,SC047898,Moray,IV30 8LQ,57.64991903,-3.19372632,S02002083,S01011097
Moray Baby Bank,SC049253,Moray,IV30 8LG,57.64819065,-3.19790855,S02002083,S01011097
Buckie North Church Of Scotland,SC001235,Moray,AB56 1FE,57.66922327,-2.97357457,S02002079,S01011082
Aberlour Senior Citizens Association,SC001305,Moray,AB38 9LT,57.4616688,-3.24089113,S02002073,S01011047
Edinvillie Community Hall Council,SC002527,Moray,AB38 9ND,57.43216133,-3.20351507,S02002073,S01011047
Mount Stephen Old Age Pension Trust,SC003948,Moray,AB55 4AX,57.45138044,-3.13035518,S02002073,S01011047
Alice Littler Memorial Trust,SC010063,Moray,AB38 9PJ,57.46729174,-3.22996143,S02002073,S01011047
Friends Of Ben Rinnes,SC034370,Moray,AB38 9NJ,57.41882701,-3.20287764,S02002073,S01011047
Cabrach Community Association,SC044513,Moray,AB54 4EU,57.36697839,-3.02916424,S02002073,S01011047
Aberlour Parish Church of Scotland,SC001336,Moray,AB38 9PE,57.47127561,-3.21842357,S02002074,S01011052
Aberlour Community Association SCIO,SC009817,Moray,AB38 9QP,57.4705969,-3.22727133,S02002074,S01011052
PlayAberlour,SC047670,Moray,AB38 9PL,57.46913762,-3.22675556,S02002074,S01011052
Archiestown Village Council,SC001696,Moray,AB38 7QL,57.48080827,-3.28702211,S02002074,S01011050
Knockando Playgroup,SC014667,Moray,AB38 7RX,57.46803196,-3.36076639,S02002074,S01011050
Carron Community Hall Council,SC025996,Moray,AB38 7QP,57.45718384,-3.29994252,S02002074,S01011050
Knockando Woolmill Trust,SC030167,Moray,AB38 7RP,57.45815836,-3.34828159,S02002074,S01011050
Knockando Athletic Group,SC038579,Moray,AB38 7SA,57.46963891,-3.34748731,S02002074,S01011050
"Tomintoul, Glenlivet and Inveravon Church Of Scotland",SC001802,Moray,AB37 9DN,57.33259944,-3.3154548,S02002073,S01011046
Knockando Elchies & Archieston Parish Church of Scotland,SC014428,Moray,AB37 9BQ,57.42485167,-3.37198633,S02002073,S01011046
Glenlivet Public Hall,SC015211,Moray,AB37 9JA,57.31896131,-3.31123128,S02002073,S01011046
Glenrinnes Community Centre,SC032765,Moray,AB55 4DB,57.38887774,-3.21580433,S02002073,S01011046
Inveravon School Parent Council,SC046415,Moray,AB37 9BA,57.42175534,-3.35426956,S02002073,S01011046
Moray District Scout Council,SC001936,Moray,IV32 7JQ,57.62496561,-3.12194595,S02002080,S01011087
Speymouth Hall Association,SC015172,Moray,IV32 7JR,57.62507862,-3.11831597,S02002080,S01011087
Fochabers Babies & Toddlers,SC024125,Moray,IV32 7JN,57.62494809,-3.11986915,S02002080,S01011087
1st Fochabers Scout Group,SC039357,Moray,IV32 7JQ,57.62496561,-3.12194595,S02002080,S01011087
Moray Council On Addiction,SC002163,Moray,IV30 1JZ,57.64787408,-3.31476365,S02002088,S01011121
Moray Leisure Limited,SC023033,Moray,IV30 1AP,57.65146991,-3.3205575,S02002088,S01011121
Third Sector Interface Moray,SC042954,Moray,IV30 1BD,57.64823537,-3.31802723,S02002088,S01011121
Moray Food Plus,SC042997,Moray,IV30 1DJ,57.64838741,-3.31895429,S02002088,S01011121
Elgin Town Hall for the Community,SC048440,Moray,IV30 1UL,57.65007103,-3.31687061,S02002088,S01011121
Strathspey Farmers Club,SC002207,Moray,IV30 4NS,57.65874802,-3.32383883,S02002089,S01011129
Hopeman Community Association,SC003406,Moray,IV30 5SG,57.70719983,-3.43704396,S02002092,S01011144
Lossiemouth High School Parent Partnership,SC039711,Moray,IV30 5RZ,57.70790504,-3.43822995,S02002092,S01011144
1st Hopeman Scout Group,SC047363,Moray,IV30 5SG,57.70719983,-3.43704396,S02002092,S01011144
Lossiemouth Baptist Church,SC003472,Moray,IV30 4NN,57.6555613,-3.3321691,S02002087,S01011120
"St Andrews Lhanbryd & Urquhart Parish Church of Scotland, Elgin",SC008850,Moray,IV30 4NB,57.65353135,-3.33043568,S02002087,S01011120
Elgin City Band,SC041045,Moray,IV30 4NF,57.65523205,-3.32674403,S02002087,S01011120
Elgin Musical Theatre,SC003769,Moray,IV30 6XF,57.63287517,-3.31790601,S02002086,S01011114
Elgin Baptist Church,SC005321,Moray,IV30 6UF,57.63477207,-3.32035311,S02002086,S01011114
"St Giles & St Columbas Church of Scotland, Elgin",SC015164,Moray,IV30 6XF,57.63287517,-3.31790601,S02002086,S01011114
Laich Of Moray Trust Fund,SC016625,Moray,IV30 6UG,57.63406849,-3.32062904,S02002086,S01011114
Fogwatt Public Hall,SC003992,Moray,IV30 6EN,57.63663351,-3.30110807,S02002085,S01011111
Keith and Strathisla Regeneration Partnership,SC004505,Moray,AB55 6NX,57.55891471,-2.94861699,S02002075,S01011057
Newmill Community Association,SC017921,Moray,AB55 6NX,57.55891471,-2.94861699,S02002075,S01011057
"Kirk of Keith: St Rufus, Botriphnie and Grange (Church of Scotland)",SC031791,Moray,AB55 6LE,57.55225138,-2.91549119,S02002075,S01011057
Keith & District Sports Development,SC047743,Moray,AB55 6UR,57.55834512,-2.94910357,S02002075,S01011057
Garmouth & Kingston Amenities Assoc,SC004777,Moray,IV32 7NQ,57.6653104,-3.10949671,S02002080,S01011085
Garmouth & Kingston Playgroup,SC010021,Moray,IV32 7NJ,57.66651695,-3.10609713,S02002080,S01011085
Garmouth & Kingston Hall Committee,SC020371,Moray,IV32 7LT,57.66468867,-3.1086899,S02002080,S01011085
The Garmouth and Kingston Heritage Trust,SC045887,Moray,IV32 7NJ,57.66651695,-3.10609713,S02002080,S01011085
1st Fochabers Rainbow Unit,SC047238,Moray,IV32 7NW,57.67432276,-3.11330984,S02002080,S01011085
Garmouth and Kingston Community Association,SC050545,Moray,IV32 7NQ,57.6653104,-3.10949671,S02002080,S01011085
Duffus Spynie & Hopeman Church Of Scotland,SC004853,Moray,IV30 5SR,57.70632198,-3.42888649,S02002092,S01011143
Hopeman Baptist Church,SC005986,Moray,IV30 5SY,57.7046086,-3.43660566,S02002092,S01011143
Moray Befriending Voluntary Service,SC029550,Moray,IV30 5TS,57.70729934,-3.42665931,S02002092,S01011143
Friends Of The Biblical Garden,SC035997,Moray,IV30 5SY,57.7046086,-3.43660566,S02002092,S01011143
1st Elgin Beaver Cub Scouts,SC036959,Moray,IV30 5SY,57.7046086,-3.43660566,S02002092,S01011143
Hopeman Community Minibus  (SCIO),SC046512,Moray,IV30 5SY,57.7046086,-3.43660566,S02002092,S01011143
"RDA Forres, Nairn and District SCIO",SC047420,Moray,IV30 5RU,57.70802108,-3.43512965,S02002092,S01011143
Moray Supports Refugees (SCIO),SC049341,Moray,IV30 5RU,57.70802108,-3.43512965,S02002092,S01011143
Elgin High Church Of Scotland,SC005240,Moray,IV30 4GA,57.65672298,-3.29820736,S02002083,S01011096
Moray Guide Association,SC015686,Moray,IV30 8NB,57.66142458,-3.25062266,S02002083,S01011096
1st Lhanbryde And Urquhart Guides,SC031821,Moray,IV30 8NB,57.66142458,-3.25062266,S02002083,S01011096
The Orkney Sheep Foundation,SC045392,Moray,IV30 5JB,57.65702151,-3.3032458,S02002083,S01011096
Lossiemouth Fisheries & Community Museum,SC005252,Moray,IV30 1SU,57.64262308,-3.33663704,S02002087,S01011119
Elgin Sports Community Trust,SC047984,Moray,IV30 1SU,57.64262308,-3.33663704,S02002087,S01011119
Bellie And Speymouth Parish Church Of Scotland,SC005310,Moray,IV32 7ES,57.61113551,-3.08968471,S02002081,S01011089
Fochabers Heritage Committee,SC028752,Moray,IV32 7EP,57.61241474,-3.09238437,S02002081,S01011089
Swiss Cottage Management Committee,SC039275,Moray,IV32 7ES,57.61113551,-3.08968471,S02002081,S01011089
Rothiemay & District Playgroup,SC005450,Moray,AB54 7LT,57.5221289,-2.75734047,S02002075,S01011059
Rothiemay Public Hall,SC009330,Moray,AB54 7NA,57.51688086,-2.73951965,S02002075,S01011059
King George V Memorial Playing Field Rothiemay Trust,SC014575,Moray,AB54 7LT,57.5221289,-2.75734047,S02002075,S01011059
Elgin & District Pipe Band,SC030783,Moray,AB54 7LX,57.52437525,-2.75573403,S02002075,S01011059
Royal Air Forces Association - Moray Branch,SC006781,Moray,IV30 8PE,57.63361479,-3.21446135,S02002083,S01011100
Dufftown Over Sixties Club,SC007151,Moray,AB55 4FB,57.44795682,-3.13246573,S02002073,S01011048
Dufftown 2000 Limited,SC024756,Moray,AB55 4AE,57.44478595,-3.12943526,S02002073,S01011048
Speyside Footpath Network Group,SC029217,Moray,AB55 4EH,57.44362854,-3.12425131,S02002073,S01011048
Mortlach Area Leisure Trails (MALT),SC035715,Moray,AB55 4AR,57.44343305,-3.1270277,S02002073,S01011048
1st Dufftown Brownie Unit,SC038653,Moray,AB55 4AE,57.44478595,-3.12943526,S02002073,S01011048
Dufftown & District Games Ltd,SC047843,Moray,AB55 4AR,57.44343305,-3.1270277,S02002073,S01011048
Buckie Baptist Church,SC007446,Moray,AB56 1XJ,57.6779433,-2.97270169,S02002079,S01011079
Buckie & District Fishing Heritage Centre Ltd,SC009924,Moray,AB56 1HB,57.67616066,-2.96737224,S02002079,S01011079
Moray Reach Out,SC024726,Moray,AB56 1ET,57.67716011,-2.96235179,S02002079,S01011079
Royal British Legion Scotland - Buckie Branch,SC033339,Moray,AB56 1AX,57.67329415,-2.96161223,S02002079,S01011079
1st Buckie Company Boys Brigade,SC034612,Moray,AB56 1HL,57.6752931,-2.96922702,S02002079,S01011079
Portessie Methodist Church,SC037952,Moray,AB56 1XJ,57.6779433,-2.97270169,S02002079,S01011079
Church of Christ Portknockie,SC039127,Moray,AB56 1HT,57.67605325,-2.9708402,S02002079,S01011079
Radio Buckie (Bck),SC044654,Moray,AB56 1QB,57.67335626,-2.97112018,S02002079,S01011079
Buckie Community High School - School Fund,SC044833,Moray,AB56 1QB,57.67335626,-2.97112018,S02002079,S01011079
Fishermen's Hall Trust ,SC048459,Moray,AB56 1HT,57.67605325,-2.9708402,S02002079,S01011079
Grant Hall (Rothes) Limited,SC007513,Moray,AB38 7BJ,57.52995304,-3.20833963,S02002074,S01011053
Rothes Council,SC030145,Moray,AB38 7BJ,57.52995304,-3.20833963,S02002074,S01011053
Rothes Community Limited,SC034359,Moray,AB38 7BJ,57.52995304,-3.20833963,S02002074,S01011053
Rothes Tennis Club,SC038883,Moray,AB38 7BD,57.52892365,-3.2023102,S02002074,S01011053
Rothes Tennis Club 2021,SC051268,Moray,AB38 7BD,57.52892365,-3.2023102,S02002074,S01011053
Portessie Playgroup,SC007769,Moray,AB56 1TN,57.68371426,-2.94008633,S02002078,S01011073
Rathven Parish Church of Scotland,SC015906,Moray,AB56 4DD,57.67767909,-2.93263602,S02002078,S01011073
Portessie Public Hall Management Committee,SC026701,Moray,AB56 1SQ,57.68544208,-2.93845393,S02002078,S01011073
6th Buckie Brownie Unit,SC032621,Moray,AB56 4DJ,57.68993301,-2.92754984,S02002078,S01011073
1st Lossiemouth Rainbow Unit,SC037223,Moray,AB56 4DJ,57.68993301,-2.92754984,S02002078,S01011073
1st Aberlour Brownie Unit,SC038519,Moray,AB56 4DJ,57.68993301,-2.92754984,S02002078,S01011073
4th Buckie Rainbow Unit,SC039509,Moray,AB56 4DJ,57.68993301,-2.92754984,S02002078,S01011073
4th Lossiemouth Brownie Unit,SC039565,Moray,AB56 4DJ,57.68993301,-2.92754984,S02002078,S01011073
1st Buckie Guides,SC040841,Moray,AB56 4DJ,57.68993301,-2.92754984,S02002078,S01011073
Friends of Buckie Guiding,SC040889,Moray,AB56 4DJ,57.68993301,-2.92754984,S02002078,S01011073
1st Eastern Senior Section,SC043448,Moray,AB56 4DJ,57.68993301,-2.92754984,S02002078,S01011073
2nd Buckie Rainbows,SC043449,Moray,AB56 4DJ,57.68993301,-2.92754984,S02002078,S01011073
Portessie Primary School Parent Support Group,SC049643,Moray,AB56 1TN,57.68371426,-2.94008633,S02002078,S01011073
Chapel Street Meeting Room Trust,SC046865,Moray,AB56 1SY,57.6852967,-2.93382126,S02002078,S01011073
Elgin Fund,SC008410,Moray,IV30 8UN,57.64496132,-3.36498674,S02002082,S01011094
Elgin High School Fund,SC016072,Moray,IV30 8UN,57.64496132,-3.36498674,S02002082,S01011094
Spynie Hall Committee,SC023321,Moray,IV30 8XJ,57.66301479,-3.37025786,S02002082,S01011094
Moray Road Runners,SC049049,Moray,IV30 8TE,57.63824976,-3.34411461,S02002082,S01011094
Inchberry & District Community Association,SC008680,Moray,IV32 7QD,57.58412024,-3.16357173,S02002082,S01011091
Spey Bay Hall,SC009022,Moray,IV32 7PS,57.65993298,-3.05342105,S02002080,S01011084
Friends Of Ardach,SC037212,Moray,IV32 7PJ,57.67009904,-3.08350675,S02002080,S01011084
Enzie Crossroads Community Woodland Association,SC043607,Moray,AB56 5BR,57.64789843,-3.01577703,S02002080,S01011084
Speyfest Association SCIO ,SC046959,Moray,IV32 7PY,57.66029807,-3.07620868,S02002080,S01011084
Moray Beekeepers Association SCIO,SC050177,Moray,IV32 7PJ,57.67009904,-3.08350675,S02002080,S01011084
Buckie Welfare Fund,SC009087,Moray,AB56 1BB,57.67117334,-2.95935987,S02002079,S01011078
Buckie Methodist Church,SC018440,Moray,AB56 4HE,57.6689691,-2.95863109,S02002079,S01011078
Portgordon Village Hall,SC019818,Moray,AB56 1BZ,57.67079705,-2.96159641,S02002079,S01011078
Findochty Methodist Church,SC021942,Moray,AB56 4HR,57.66749561,-2.96103963,S02002079,S01011078
1st Cullen Guides,SC040692,Moray,AB56 1BH,57.67261684,-2.96444445,S02002079,S01011078
1st Buckie Rainbows,SC040985,Moray,AB56 1LJ,57.67324605,-2.95966611,S02002079,S01011078
Miss Winifred Theresa Agnes Shee's Trust,SC041501,Moray,AB56 1BQ,57.6744436,-2.97106542,S02002079,S01011078
Millbank Parent Council - Buckie,SC045734,Moray,AB56 1BB,57.67117334,-2.95935987,S02002079,S01011078
Moray District Talking Newspaper Association,SC009605,Moray,IV30 1NQ,57.64587932,-3.31826014,S02002087,S01011117
Moray Citizens Advice Bureau,SC018026,Moray,IV30 1LU,57.64714378,-3.31242508,S02002087,S01011117
Elgin Youth Development Group,SC028216,Moray,IV30 1LQ,57.64755558,-3.31342849,S02002087,S01011117
Jamia Islamic Centre Trust Fund,SC029044,Moray,IV30 1JG,57.64676676,-3.31844311,S02002087,S01011117
Hospice In Moray Ltd,SC031801,Moray,IV30 1JR,57.64687532,-3.31578307,S02002087,S01011117
Moray Group Of Advanced Motorists,SC033561,Moray,IV30 1LS,57.64574071,-3.31172102,S02002087,S01011117
Clochan Community Centre,SC009611,Moray,AB56 5EQ,57.63369703,-3.00219987,S02002081,S01011090
Keith And District Local Heritage Group,SC033492,Moray,IV32 7AE,57.61229859,-3.08814614,S02002081,S01011090
1st Keith Brownies Unit,SC033564,Moray,AB55 6QR,57.55436116,-2.98947459,S02002081,S01011090
Friends of Keith & District Multiple Sclerosis Group,SC039120,Moray,IV32 7AE,57.61229859,-3.08814614,S02002081,S01011090
Moray Cricket Association,SC040661,Moray,IV32 7QN,57.61071635,-3.10485298,S02002081,S01011090
1st Keith Guides,SC042794,Moray,AB55 6QR,57.55436116,-2.98947459,S02002081,S01011090
2nd Fochabers Brownie Unit,SC049030,Moray,AB56 5HQ,57.64191497,-3.01700024,S02002081,S01011090
"St Gerardine's High Church of Scotland, Lossiemouth",SC009793,Moray,IV31 6TD,57.71562301,-3.3028673,S02002091,S01011137
1st Lossiemouth Brownies,SC039371,Moray,IV31 6QT,57.71804273,-3.30167841,S02002091,S01011137
The Lossiemouth Heritage Association,SC039520,Moray,IV31 6TD,57.71562301,-3.3028673,S02002091,S01011137
Findochty Parish Church of Scotland,SC010045,Moray,AB56 4PJ,57.69693824,-2.90036605,S02002077,S01011069
Findochty Town Hall,SC048650,Moray,AB56 4PN,57.69793757,-2.90257188,S02002077,S01011069
Alves & Burghead Parish Church of Scotland,SC010330,Moray,IV36 2RB,57.63779341,-3.47835478,S02002093,S01011148
Cantare Ladies Choir,SC036817,Moray,IV30 8TS,57.57689087,-3.38096525,S02002093,S01011148
Pluscarden District Community Association,SC040836,Moray,IV30 8TZ,57.5980344,-3.41698858,S02002093,S01011148
Boharm Public Hall,SC010339,Moray,AB38 9RN,57.51624012,-3.10391427,S02002075,S01011056
Keith & District Young Farmers' Club,SC021949,Moray,AB55 5QH,57.52849043,-2.99057705,S02002075,S01011056
Drummuir & Botriphnie Community Trust,SC035924,Moray,AB55 5PJ,57.50022311,-2.95652139,S02002075,S01011056
Newmill Hall Committee,SC039503,Moray,AB55 6RS,57.54607772,-2.98961754,S02002075,S01011056
Portknockie Playgroup,SC010736,Moray,AB56 4NX,57.70077629,-2.85997489,S02002077,S01011071
Portknockie Parish Church of Scotland,SC014485,Moray,AB56 4LW,57.70186379,-2.86384304,S02002077,S01011071
Ian Wilson Ski Fund,SC026750,Moray,AB56 4NX,57.70077629,-2.85997489,S02002077,S01011071
Portknockie Community Association,SC030090,Moray,AB56 4LX,57.7033314,-2.85672989,S02002077,S01011071
Buckie & District Cancer Support Group,SC033602,Moray,AB56 4LG,57.70262359,-2.85778704,S02002077,S01011071
Christian Brethren Trust Portknockie,SC046581,Moray,AB56 4LN,57.70271292,-2.8605074,S02002077,S01011071
Tomintoul Richmond Public Memorial Hall Association,SC010944,Moray,AB37 9EX,57.24956917,-3.37603906,S02002073,S01011045
Kirkmichael Ex-Servicemens Community Hall Council,SC018017,Moray,AB37 9AQ,57.31248722,-3.41215874,S02002073,S01011045
Glenlivet & Inveravon Pensioner's Fund,SC020763,Moray,AB37 9JT,57.28334009,-3.25765896,S02002073,S01011045
Tomintoul & Glenlivet Outdoor Bowling Club,SC033619,Moray,AB37 9EZ,57.24874579,-3.37657187,S02002073,S01011045
Kirkmichael and Tomintoul Community Association,SC038679,Moray,AB37 9ET,57.25143118,-3.3799207,S02002073,S01011045
Tomintoul and Glenlivet Development Trust,SC050269,Moray,AB37 9ET,57.25143118,-3.3799207,S02002073,S01011045
Cullen & Deskford Church Of Scotland,SC011231,Moray,AB56 4XQ,57.67488423,-2.81303598,S02002077,S01011065
Deskford & District Community Assoc,SC016250,Moray,AB56 5YD,57.63888019,-2.84343565,S02002077,S01011065
Cullen Methodist Church,SC038079,Moray,AB56 4RW,57.68512635,-2.81692149,S02002077,S01011065
Cullen Community Allotment Association ,SC043932,Moray,AB56 4RW,57.68512635,-2.81692149,S02002077,S01011065
Cullen Deskford & Portknockie Heritage Group SCIO,SC048162,Moray,AB56 5YJ,57.64110167,-2.84839518,S02002077,S01011065
General Anderson Trust Scheme 1982,SC011277,Moray,IV30 1RP,57.6479108,-3.30601882,S02002084,S01011104
St Sylvesters Nursery,SC022157,Moray,IV30 1DA,57.64731763,-3.31038727,S02002084,S01011104
Friends Of Anderson's,SC029936,Moray,IV30 1RP,57.6479108,-3.30601882,S02002084,S01011104
Healthy Happy Homes Moray,SC047702,Moray,IV30 1BU,57.64886462,-3.31280557,S02002084,S01011104
Moray Fresh Start SCIO  ,SC047769,Moray,IV30 1QP,57.64331785,-3.3079982,S02002084,S01011104
Linkwood Primary School Parent Council ,SC049053,Moray,IV30 1RP,57.6479108,-3.30601882,S02002084,S01011104
The General Anderson Trust,SC050117,Moray,IV30 1RP,57.6479108,-3.30601882,S02002084,S01011104
The Ladybird Development Group,SC012779,Moray,IV31 6JX,57.71877531,-3.29154811,S02002091,S01011136
4th Lossiemouth Guide Unit,SC036987,Moray,IV31 6LW,57.71832366,-3.29530922,S02002091,S01011136
2nd Lossiemouth Rainbow Unit,SC037222,Moray,IV31 6LW,57.71832366,-3.29530922,S02002091,S01011136
2nd Lossiemouth Brownies,SC041498,Moray,IV31 6LW,57.71832366,-3.29530922,S02002091,S01011136
St Gerardine Primary School Parent Council,SC045113,Moray,IV31 6JX,57.71877531,-3.29154811,S02002091,S01011136
Buckie Community Theatre,SC012886,Moray,AB56 1NG,57.67076432,-2.95167081,S02002077,S01011072
James Milne Institute,SC013756,Moray,IV36 3YE,57.66069062,-3.61373208,S02002093,S01011152
Findhorn Village Centre,SC029923,Moray,IV36 3YR,57.65745403,-3.6068674,S02002093,S01011152
Findhorn Dunes Trust,SC032209,Moray,IV36 3YN,57.65820597,-3.60849293,S02002093,S01011152
Moray Inshore Rescue Organisation,SC036999,Moray,IV36 3YJ,57.65934504,-3.61005187,S02002093,S01011152
The Findhorn Village Conservation Company ,SC044408,Moray,IV36 3YR,57.65745403,-3.6068674,S02002093,S01011152
Duffus Village Hall & Playing Field Association,SC014059,Moray,IV30 5RR,57.69977379,-3.39500277,S02002092,S01011142
Grange Community Association,SC014060,Moray,AB55 6LJ,57.54547503,-2.8793008,S02002075,S01011058
1st Keith Rainbow Unit,SC038624,Moray,AB55 6SP,57.54871169,-2.82292097,S02002075,S01011058
Elgin Amateur Dramatic Society,SC014108,Moray,IV30 6GT,57.63351897,-3.299975,S02002082,S01011093
Birnie Public Hall,SC015917,Moray,IV30 8GZ,57.60023124,-3.32033878,S02002082,S01011093
Lossiemouth Fisherman's Benevolent Association Limited,SC028412,Moray,IV30 8RF,57.63701888,-3.28979885,S02002082,S01011093
3rd New Elgin Brownie Pack,SC031212,Moray,IV30 8ST,57.59797196,-3.3199055,S02002082,S01011093
Rothes Way Association,SC050593,Moray,IV30 8SA,57.60802202,-3.2879178,S02002082,S01011093
Kinloss & Findhorn Parish Church Of Scotland,SC014557,Moray,IV36 2JZ,57.58020529,-3.55711544,S02002096,S01011167
Rafford Village Public Hall,SC015233,Moray,IV36 2WD,57.57855316,-3.55849984,S02002096,S01011167
St Margarets Church: Aberlour,SC014728,Moray,AB38 9QS,57.5145868,-3.18898433,S02002074,S01011054
Arndilly Trust,SC015017,Moray,AB38 9SW,57.48983971,-3.18496001,S02002074,S01011054
Craigellachie Village Council,SC018399,Moray,AB38 9SR,57.48974248,-3.18861026,S02002074,S01011054
Rothes Primary School Enrichment Fund,SC034519,Moray,AB38 9QT,57.49263031,-3.17474001,S02002074,S01011054
Craigellachie Parent Partnership ,SC044537,Moray,AB38 9SR,57.48974248,-3.18861026,S02002074,S01011054
Friends of Craigellachie Bridge,SC046509,Moray,AB38 9SR,57.48974248,-3.18861026,S02002074,S01011054
Enzie Parish Church of Scotland,SC015093,Moray,AB56 5GA,57.66467919,-3.0123239,S02002080,S01011083
Portgordon Community Harbour Group,SC040805,Moray,AB56 5RG,57.6639044,-3.01372705,S02002080,S01011083
Keith Cancer Link,SC015787,Moray,AB55 5ED,57.54615222,-2.96490915,S02002076,S01011064
Fife-Keith Childrens Picnic Fund,SC025836,Moray,AB55 5DG,57.54371711,-2.96735072,S02002076,S01011064
Keith and District Men's Shed,SC047849,Moray,AB55 5DW,57.54394328,-2.95771708,S02002076,S01011064
Friends Of Seafield Hospital (Including Community Patients),SC016032,Moray,AB56 1AH,57.67607567,-2.96438541,S02002078,S01011076
Portgordon Community Village Hall,SC047094,Moray,AB56 1AL,57.67576338,-2.96410885,S02002078,S01011076
Rothes Parish Church of Scotland,SC016116,Moray,AB38 7AA,57.52668196,-3.21033549,S02002074,S01011051
Aberlour Primary School Enrichment Fund,SC044423,Moray,AB38 7AW,57.51555628,-3.20985005,S02002074,S01011051
Moray School Bank,SC047459,Moray,AB38 7BA,57.52549371,-3.2068395,S02002074,S01011051
R-evolution For Good Limited,SC050392,Moray,AB38 7BA,57.52549371,-3.2068395,S02002074,S01011051
Birnie and Pluscarden Church of Scotland,SC016720,Moray,IV30 6BN,57.63495428,-3.31061173,S02002086,S01011113
The Moray Society,SC017546,Moray,IV30 1EQ,57.64907648,-3.31056797,S02002084,S01011103
Shopmobility Moray Limited,SC023320,Moray,IV30 1EE,57.64907035,-3.31202549,S02002084,S01011103
VIP Childcare Moray,SC038949,Moray,IV30 1UE,57.65109168,-3.31806379,S02002084,S01011103
Elgin Duellist Fencing Club,SC039192,Moray,IV30 1HA,57.64843149,-3.30431174,S02002084,S01011103
Moray Rape Crisis,SC050532,Moray,IV30 1EE,57.64907035,-3.31202549,S02002084,S01011103
Forres Community Patients Trust,SC018814,Moray,IV36 1JG,57.60316982,-3.62194283,S02002095,S01011163
1st Kinloss RAF Scout Group,SC040354,Moray,IV36 1FX,57.60253058,-3.62554589,S02002095,S01011163
Moray Mental Health,SC020830,Moray,IV30 1RX,57.6455736,-3.30181338,S02002084,S01011105
New Elgin And Ashgrove Public Hall,SC034565,Moray,IV30 6HX,57.64365924,-3.28698536,S02002084,S01011105
Moray Handyperson Services,SC035888,Moray,IV30 1RQ,57.64679053,-3.30053335,S02002084,S01011105
Step by Step in Moray SCIO,SC042246,Moray,IV30 1RQ,57.64679053,-3.30053335,S02002084,S01011105
Holistic Health Care Ltd,SC021152,Moray,IV36 1NU,57.60889953,-3.61297542,S02002094,S01011154
Applegrove Parent Teacher Association,SC021557,Moray,IV36 1PJ,57.60794177,-3.61199568,S02002094,S01011154
Forres Community Woodlands Trust,SC029987,Moray,IV36 1PH,57.6093446,-3.61189041,S02002094,S01011154
Forres Groups Action Ltd,SC034874,Moray,IV36 1PH,57.6093446,-3.61189041,S02002094,S01011154
Transition Town Forres Ltd,SC040314,Moray,IV36 1PH,57.6093446,-3.61189041,S02002094,S01011154
1st Forres Scout Group,SC043071,Moray,IV36 1NU,57.60889953,-3.61297542,S02002094,S01011154
Forres Area Community Trust,SC044953,Moray,IV36 1PB,57.61076239,-3.61202015,S02002094,S01011154
Findhorn Bay Arts Ltd,SC049867,Moray,IV36 1NX,57.60968923,-3.61304389,S02002094,S01011154
Trees For Life,SC021303,Moray,IV36 3TH,57.65449801,-3.59269261,S02002093,S01011149
Moray Duke of Edinburgh's Award Committee,SC043423,Moray,IV36 2UB,57.65246885,-3.50078703,S02002093,S01011149
Quasar Hockey Club,SC045384,Moray,IV36 3UA,57.64266023,-3.54320358,S02002093,S01011149
Findhorn Hinterland Trust ,SC045806,Moray,IV36 3TB,57.65495276,-3.58939421,S02002093,S01011149
Noahs Ark Developmental Playgroup,SC021525,Moray,IV36 2SX,57.59636089,-3.63581191,S02002096,S01011169
1st Forres Guide Company,SC031572,Moray,IV36 2HE,57.59722108,-3.62833753,S02002096,S01011169
Buckie Choral Union,SC022330,Moray,IV30 8QZ,57.63679528,-3.20785094,S02002083,S01011099
Lhanbryde Community Challenge,SC029433,Moray,IV30 8QQ,57.63665595,-3.21020801,S02002083,S01011099
Fochabers Men's Shed,SC047322,Moray,IV30 8QZ,57.63679528,-3.20785094,S02002083,S01011099
Bishopmill Mutual Improvement Association (B M I A),SC023470,Moray,IV30 4EF,57.65620526,-3.31786381,S02002089,S01011130
Moray Jazz Club Committee,SC028421,Moray,IV30 4DT,57.65550392,-3.32222913,S02002089,S01011130
Elgin & District Men's Shed,SC048460,Moray,IV30 4DZ,57.65558131,-3.3242765,S02002089,S01011130
Friends Of The Falconer Museum,SC023649,Moray,IV36 2WE,57.59977787,-3.61953267,S02002095,S01011164
5th Forres Brownie Unit,SC031569,Moray,IV36 2UG,57.59837142,-3.62621364,S02002095,S01011164
3rd Forres Guide Unit,SC033295,Moray,IV36 2WE,57.59977787,-3.61953267,S02002095,S01011164
Air Training Corps No 0423 Elgin Squadron Non Public Sports & Welfare Funds,SC024732,Moray,IV30 6YQ,57.64006607,-3.31404577,S02002086,S01011116
2nd Elgin Scout Group,SC029605,Moray,IV30 6JL,57.63910535,-3.30880148,S02002086,S01011116
Air Training Corps No 0446 Forres Squadron Non Public Sports & Welfare Funds,SC024733,Moray,IV36 3YA,57.63542726,-3.55063516,S02002093,S01011150
Kinloss Crafty Cool Kids Club Limited,SC033493,Moray,IV36 3XZ,57.63571027,-3.5480677,S02002093,S01011150
Park Ecovillage Trust,SC041279,Moray,IV36 3XZ,57.63571027,-3.5480677,S02002093,S01011150
Royal British Legion Scotland Keith & District Branch,SC024865,Moray,AB55 5EN,57.54062891,-2.94695566,S02002076,S01011061
Burghead Amenities Association,SC027691,Moray,IV30 5HA,57.69945556,-3.47689009,S02002092,S01011146
1st Burghead Brownie Unit,SC039114,Moray,IV30 5UT,57.70011089,-3.48307493,S02002092,S01011146
1st Burghead Rainbows,SC041499,Moray,IV30 5UT,57.70011089,-3.48307493,S02002092,S01011146
Dyke Pre-School Centre,SC028014,Moray,IV36 2TF,57.60498135,-3.692735,S02002096,S01011170
Varis Players,SC030214,Moray,IV36 2JH,57.59101209,-3.65263629,S02002096,S01011170
Kintessack Residents Association,SC034255,Moray,IV36 2TG,57.62175387,-3.67795984,S02002096,S01011170
Moray Youth Pipes and Drums Tuition Scheme,SC047077,Moray,IV36 2LP,57.60357087,-3.69474468,S02002096,S01011170
Leanchoil Trust,SC050975,Moray,IV36 2TG,57.62175387,-3.67795984,S02002096,S01011170
Teddy Bear Development Playgroup,SC029458,Moray,AB56 4SE,57.6912181,-2.82084954,S02002077,S01011066
Cullen Play Centre,SC037089,Moray,AB56 4AF,57.68834837,-2.81595412,S02002077,S01011066
Cullen Community Town Hall,SC037729,Moray,AB56 4RR,57.69084773,-2.81978441,S02002077,S01011066
The Three Kings Cullen Association ,SC048529,Moray,AB56 4AF,57.68834837,-2.81595412,S02002077,S01011066
Burghead Community Hall,SC029503,Moray,IV30 5XF,57.70314322,-3.49106926,S02002092,S01011147
The Journey Home,SC047493,Moray,IV30 5UA,57.70212004,-3.49555798,S02002092,S01011147
2nd Forres Brownies,SC031124,Moray,IV30 4GJ,57.66057427,-3.30543483,S02002088,S01011125
1st New Elgin Brownie Pack,SC031208,Moray,IV30 6YS,57.6355532,-3.31694784,S02002086,S01011115
2nd New Elgin Rainbow Guide Unit,SC031209,Moray,IV30 6JH,57.63226081,-3.31046443,S02002086,S01011112
1st New Elgin Rainbow Guide Unit,SC031210,Moray,IV30 6JH,57.63226081,-3.31046443,S02002086,S01011112
1st New Elgin Guide Company,SC031214,Moray,IV30 6JH,57.63226081,-3.31046443,S02002086,S01011112
2nd New Elgin Guide Company,SC031215,Moray,IV30 6JH,57.63226081,-3.31046443,S02002086,S01011112
Moray Sports Foundation,SC046059,Moray,IV30 6GR,57.63712671,-3.29419119,S02002086,S01011112
3rd Elgin Rainbow Unit,SC047348,Moray,IV30 6LF,57.63396227,-3.29617216,S02002086,S01011112
2nd Elgin Brownie Unit,SC048687,Moray,IV30 6LF,57.63396227,-3.29617216,S02002086,S01011112
2nd New Elgin Brownie Pack,SC031211,Moray,IV30 6HQ,57.64210914,-3.29539043,S02002085,S01011109
Elgin Town Centre Benevolent Trust,SC032766,Moray,IV30 6DJ,57.64145137,-3.29908596,S02002085,S01011109
5th New Elgin Brownie Pack,SC031213,Moray,IV30 4HJ,57.65909448,-3.31040973,S02002088,S01011123
Cooper Park Bowling Club,SC049425,Moray,IV30 4HD,57.65629612,-3.30824746,S02002088,S01011123
4th Keith Brownie Pack,SC031517,Moray,AB55 5FT,57.53826033,-2.96436645,S02002076,S01011063
2nd Keith Scout Group,SC035846,Moray,AB55 5EG,57.54147903,-2.96400045,S02002076,S01011063
2nd Kinloss Brownie Unit,SC031547,Moray,IV36 1HX,57.60481244,-3.63321256,S02002095,S01011162
1st Kinloss Guide Unit,SC038757,Moray,IV36 1HX,57.60481244,-3.63321256,S02002095,S01011162
Moray Heritage Connections,SC042471,Moray,IV36 2HL,57.60396373,-3.63006162,S02002095,S01011162
1st Nairn Brownie Unit,SC049215,Moray,IV36 1HX,57.60481244,-3.63321256,S02002095,S01011162
Duffus Rainbow Unit,SC031709,Moray,IV30 4DN,57.65496373,-3.31976276,S02002088,S01011122
6th Elgin Guide Unit,SC035763,Moray,IV30 4DW,57.65582731,-3.31878859,S02002088,S01011122
1st Forres Brownie Unit,SC031737,Moray,IV36 1LG,57.60730345,-3.6134403,S02002095,S01011159
Osprey Housing Moray Limited,SC031841,Moray,IV31 6DJ,57.71930946,-3.28318993,S02002090,S01011134
4th Elgin Brownie Unit,SC032124,Moray,IV30 4EP,57.66009457,-3.31963067,S02002089,S01011128
1st & 2nd Elgin Rainbows,SC033372,Moray,IV30 4EP,57.66009457,-3.31963067,S02002089,S01011128
Loft Youth Project SCIO,SC033680,Moray,AB55 5AF,57.53911343,-2.95019038,S02002076,S01011062
Forres Youth Caf√© Limited,SC034187,Moray,IV36 1BU,57.61206788,-3.60968422,S02002094,S01011155
Forres Area Soccer 7's,SC046780,Moray,IV36 1DE,57.61010109,-3.60963072,S02002094,S01011155
Moray Unit (No 630) of the Sea Cadet Corps,SC035044,Moray,IV31 6PZ,57.72289857,-3.28271257,S02002090,S01011131
Outf!t-Moray,SC037127,Moray,IV31 6PB,57.72407333,-3.28468502,S02002090,S01011131
Lossiemouth Youth Cafe Development Group,SC038376,Moray,IV31 6AA,57.72172934,-3.28196605,S02002090,S01011131
The Lossiemouth Community Development Trust,SC045972,Moray,IV31 6AE,57.7209387,-3.28375127,S02002090,S01011131
"Parker Linden Arts, Theatre Education & Development",SC050574,Moray,IV31 6AA,57.72172934,-3.28196605,S02002090,S01011131
LAICH OF MORAY ACTIVE TRAVEL ROUTES SCIO,SC050571,Moray,IV31 6DD,57.72137208,-3.28442139,S02002090,S01011131
Buckie Skatepark,SC036752,Moray,AB56 1NN,57.67672559,-2.95449308,S02002078,S01011075
Forres In Bloom,SC036949,Moray,IV36 1GF,57.61250859,-3.59405208,S02002094,S01011157
Speymouth Juniors Football Club,SC037004,Moray,IV32 7LP,57.62553179,-3.13199323,S02002080,S01011086
Moray Hydrotherapy Pool,SC037019,Moray,IV36 2XH,57.60045722,-3.60925461,S02002095,S01011166
Miltonduff Public Hall,SC040679,Moray,IV30 8TN,57.61774675,-3.35616436,S02002082,S01011095
Alves Hall,SC040767,Moray,IV30 8FE,57.64351534,-3.44891696,S02002082,S01011095
Oasis Church of the Nations,SC041970,Moray,IV30 1XY,57.64824785,-3.29596105,S02002084,S01011102
Three Harbours Association,SC042834,Moray,AB56 4SY,57.69252322,-2.82044292,S02002077,S01011067
1st Cullen Rainbow Unit,SC045614,Moray,AB56 4RQ,57.69302726,-2.82028657,S02002077,S01011067
1st Cullen Brownie Unit,SC045693,Moray,AB56 4RQ,57.69302726,-2.82028657,S02002077,S01011067
Covesea Lighthouse Community Company Limited,SC043532,Moray,IV30 5XN,57.69884836,-3.48502003,S02002092,S01011145
The Greyfriars Club,SC047586,Moray,IV30 5XL,57.69897931,-3.48534419,S02002092,S01011145
Roseisle and District Hall,SC049594,Moray,IV30 5YF,57.67928155,-3.44787892,S02002092,S01011145
Moray Concert Brass SCIO,SC050031,Moray,IV30 5QP,57.69198254,-3.40174902,S02002092,S01011145
Roseisle Hall,SC050481,Moray,IV30 5YF,57.67928155,-3.44787892,S02002092,S01011145
Fochabers Village Association,SC044569,Moray,IV32 7DU,57.61367725,-3.09597088,S02002081,S01011088
PedalStrokes,SC046469,Moray,IV36 1EH,57.60667564,-3.63085253,S02002095,S01011161
1st Lossiemouth Scout Group,SC047422,Moray,IV31 6NA,57.71521919,-3.29494651,S02002091,S01011138
Portknockie Bowling and Tennis Club,SC047619,Moray,AB56 4NB,57.70319508,-2.855636,S02002077,S01011068
Portgordon Community Church,SC048303,Moray,AB56 1BY,57.67228275,-2.97521578,S02002079,S01011080
Elgin Amateur  Athletic Club,SC049165,Moray,IV30 6DQ,57.63847114,-3.2944903,S02002085,S01011110
Buckies Roots,SC049178,Moray,AB56 1DJ,57.67241226,-2.97822029,S02002079,S01011081
Coastal Creations (SCIO),SC049812,Moray,AB56 1TR,57.68258188,-2.94377998,S02002078,S01011074
