Name,Charity Number,Local authority,Postcode,Latitude,Longitude,IntermediateZone2011Code,DataZone2011Code
"Newlands South Church of Scotland, Glasgow",SC000042,Glasgow City,G43 2EG,55.82252241,-4.28029764,S02001877,S01009957
Cathcart United Free Church,SC001573,Glasgow City,G43 2HW,55.82089528,-4.27498207,S02001877,S01009957
Queen's Park Arena,SC042014,Glasgow City,G43 2HW,55.82089528,-4.27498207,S02001877,S01009957
Sir John Maxwell School Trust  ,SC049283,Glasgow City,G43 2HW,55.82089528,-4.27498207,S02001877,S01009957
Kennyhill Bequest Fund,SC000122,Glasgow City,G2 6TS,55.86105111,-4.26086935,S02001934,S01010275
Duncan Campbell's Junior Trust,SC001326,Glasgow City,G2 5EZ,55.86085584,-4.2573103,S02001934,S01010275
Incorporation Of Maltmen In Glasgow,SC002427,Glasgow City,G1 3HL,55.85925504,-4.2549163,S02001934,S01010275
Grand Antiquity Society Of Glasgow,SC003224,Glasgow City,G1 3HL,55.85925504,-4.2549163,S02001934,S01010275
Clappers Trust,SC004471,Glasgow City,G2 4TB,55.86458528,-4.26075511,S02001934,S01010275
"St Georges Tron Church of Scotland, Glasgow",SC004931,Glasgow City,G1 2JX,55.86167868,-4.25409791,S02001934,S01010275
Baillie's Institution ,SC005097,Glasgow City,G2 6PH,55.86089271,-4.25823932,S02001934,S01010275
Martin Scott Prize Fund,SC006077,Glasgow City,G2 2SG,55.86344568,-4.26065692,S02001934,S01010275
North Parish Washing Green Society,SC006597,Glasgow City,G2 6PH,55.86089271,-4.25823932,S02001934,S01010275
Friends Of Glasgow Museums,SC008995,Glasgow City,G2 4HU,55.86442835,-4.26293554,S02001934,S01010275
James Alexander Paterson's Bursary Trust,SC009001,Glasgow City,G1 3PL,55.86024085,-4.25506932,S02001934,S01010275
Weavers Society Of Anderston,SC009763,Glasgow City,G2 6PH,55.86089271,-4.25823932,S02001934,S01010275
Association Of Deacons Of The Fourteen Incorporated Trades Of Glasgow,SC014595,Glasgow City,G2 6PH,55.86089271,-4.25823932,S02001934,S01010275
Christina Gould Trust,SC027122,Glasgow City,G2 5QY,55.86206617,-4.2633415,S02001934,S01010275
Scottish Detainee Visitors,SC033781,Glasgow City,G2 5AH,55.86113796,-4.25711892,S02001934,S01010275
Al-Meezan,SC034182,Glasgow City,G2 5SG,55.86226254,-4.26097172,S02001934,S01010275
293rd City of Glasgow Rainbow Unit,SC037199,Glasgow City,G2 1PB,55.86205371,-4.25570178,S02001934,S01010275
Church Street Practice Research Fund,SC043050,Glasgow City,G2 6HJ,55.85937254,-4.26075584,S02001934,S01010275
Scottish Muslim Heritage Trust,SC044443,Glasgow City,G1 2JA,55.86097255,-4.25437662,S02001934,S01010275
City of Glasgow College Foundation,SC044620,Glasgow City,G2 5SG,55.86226254,-4.26097172,S02001934,S01010275
The Wild Olive Tree,SC045792,Glasgow City,G1 2JX,55.86167868,-4.25409791,S02001934,S01010275
The Misses Nisbet Educational Trust,SC047190,Glasgow City,G2 5AP,55.86127449,-4.25653555,S02001934,S01010275
Glasgow Street Pastors (SCIO),SC050255,Glasgow City,G1 2JX,55.86167868,-4.25409791,S02001934,S01010275
"Eastwood Parish Church of Scotland, Glasgow",SC000277,Glasgow City,G43 1TW,55.81699075,-4.30126833,S02001876,S01009954
St Andrew and St Nicholas Church of Scotland Glasgow,SC011527,Glasgow City,G43 1DD,55.81609332,-4.30215713,S02001876,S01009954
"Wellington Church of Scotland, Glasgow",SC000289,Glasgow City,G12 8LE,55.87304601,-4.28682414,S02001952,S01010379
Queen Margaret Union,SC001239,Glasgow City,G12 8QN,55.87376005,-4.29143815,S02001952,S01010379
The Church in Glasgow,SC046490,Glasgow City,G12 8BT,55.87557336,-4.29010619,S02001952,S01010379
Drumchapel Community Business Ltd,SC000299,Glasgow City,G15 8TE,55.90617358,-4.36811634,S02001974,S01010489
Drumchapel St Andrews Parish Church of Scotland. Glasgow,SC022128,Glasgow City,G15 6QB,55.90504573,-4.36132787,S02001974,S01010489
Drumchapel Heritage Group,SC029181,Glasgow City,G15 6BT,55.90696325,-4.35741243,S02001974,S01010489
Men Matter Scotland,SC049483,Glasgow City,G15 6QE,55.90595176,-4.36282292,S02001974,S01010489
Orchard Community Trust [SCIO],SC051125,Glasgow City,G15 6PR,55.90683889,-4.36436489,S02001974,S01010489
Volunteer Tutors Organisation Ltd,SC000403,Glasgow City,G20 6BG,55.87962291,-4.27966441,S02001951,S01010369
"Carmyle Church of Scotland, Glasgow",SC000532,Glasgow City,G32 9NT,55.84262218,-4.14626322,S02001899,S01010080
Glasgow Shettleston New Church Of Scotland,SC004642,Glasgow City,G32 9NB,55.84647871,-4.14826496,S02001899,S01010080
The Glasgow Care Foundation ,SC000906,Glasgow City,G51 2BX,55.86127211,-4.30848946,S02001859,S01009860
Glasgow Govan And Linthouse Parish Church Of Scotland,SC004153,Glasgow City,G51 2YL,55.86282845,-4.31080326,S02001859,S01009860
Money Matters Money Advice Centre,SC017868,Glasgow City,G51 2BX,55.86127211,-4.30848946,S02001859,S01009860
Govan Youth Information Project,SC030358,Glasgow City,G51 3UW,55.86309744,-4.31179413,S02001859,S01009860
Govan Home and Education Link Project ,SC034834,Glasgow City,G51 3UU,55.86362946,-4.31265681,S02001859,S01009860
Glasgow Churches Social Action Alliance,SC034853,Glasgow City,G51 2YL,55.86282845,-4.31080326,S02001859,S01009860
The Pearce Institute,SC037617,Glasgow City,G51 3UU,55.86362946,-4.31265681,S02001859,S01009860
Tea In The Pot,SC038663,Glasgow City,G51 3UU,55.86362946,-4.31265681,S02001859,S01009860
Govan Community Project,SC042012,Glasgow City,G51 3UU,55.86362946,-4.31265681,S02001859,S01009860
Beachcombers,SC043333,Glasgow City,G51 2BX,55.86127211,-4.30848946,S02001859,S01009860
Community Veterans Support,SC045047,Glasgow City,G51 3UU,55.86362946,-4.31265681,S02001859,S01009860
Govan Docks Regeneration Trust,SC046875,Glasgow City,G51 3UW,55.86309744,-4.31179413,S02001859,S01009860
The Glasgow Barons,SC047454,Glasgow City,G51 2BX,55.86127211,-4.30848946,S02001859,S01009860
SWAYED SCIO,SC047652,Glasgow City,G51 2BX,55.86127211,-4.30848946,S02001859,S01009860
Billboard Junction SCIO,SC048181,Glasgow City,G51 2BX,55.86127211,-4.30848946,S02001859,S01009860
Ubuntu Women Shelter,SC048645,Glasgow City,G51 3UU,55.86362946,-4.31265681,S02001859,S01009860
Friends of Househill Park SCIO,SC049735,Glasgow City,G51 2BX,55.86127211,-4.30848946,S02001859,S01009860
Tea in the Pot SCIO,SC050210,Glasgow City,G51 3UU,55.86362946,-4.31265681,S02001859,S01009860
Inclusive Homework Club,SC050226,Glasgow City,G51 2LP,55.86240601,-4.30601568,S02001859,S01009860
Bridgeton Citizens Advice Bureau,SC000930,Glasgow City,G40 1HA,55.84812722,-4.22687387,S02001892,S01010043
Bridgeton Citizens Advice Bureau SCIO,SC049586,Glasgow City,G40 1QB,55.84729021,-4.22644258,S02001892,S01010043
Parkhead Congregational Church,SC001033,Glasgow City,G31 5EU,55.85174348,-4.19418467,S02001894,S01010052
Parkhead Citizens Advice Bureau,SC014413,Glasgow City,G31 4DN,55.85222059,-4.19967566,S02001894,S01010052
Connect 2 Out of School Care Services,SC028538,Glasgow City,G31 4DN,55.85222059,-4.19967566,S02001894,S01010052
NRPC - (New Revelation Pentecostal Church),SC046768,Glasgow City,G31 5BJ,55.85132152,-4.1951674,S02001894,S01010052
Langside & Shawlands United Free Church,SC001110,Glasgow City,G41 3SQ,55.83024011,-4.29203896,S02001869,S01009918
Castlemilk Citizens Advice Centre,SC001279,Glasgow City,G45 9AD,55.80724682,-4.23460804,S02001882,S01009980
Glasgow: Castlemilk Parish Church Of Scotland,SC015309,Glasgow City,G45 9NP,55.80514218,-4.23172673,S02001882,S01009980
The Senior Centre Castlemilk,SC027449,Glasgow City,G45 9AH,55.80610917,-4.23637802,S02001882,S01009980
Castlemilk Law & Money Advice Centre,SC027619,Glasgow City,G45 9UG,55.80547291,-4.23083606,S02001882,S01009980
Second Opportunities,SC028441,Glasgow City,G45 9AD,55.80724682,-4.23460804,S02001882,S01009980
Waves (Women Against Violent Environments),SC033076,Glasgow City,G45 9UG,55.80547291,-4.23083606,S02001882,S01009980
The Daisy Project ,SC034381,Glasgow City,G45 9UG,55.80547291,-4.23083606,S02001882,S01009980
Castlemilk Community Timebank SCIO,SC047406,Glasgow City,G45 9UG,55.80547291,-4.23083606,S02001882,S01009980
Auldhouse Community Church,SC001443,Glasgow City,G43 2NY,55.81924729,-4.28291559,S02001876,S01009951
Glasgow Dental Educational Trust,SC008984,Glasgow City,G43 2NY,55.81924729,-4.28291559,S02001876,S01009951
29th Glasgow (1st Newlands) Scout Group,SC022392,Glasgow City,G43 2RX,55.81533099,-4.28037167,S02001876,S01009951
Cameron Charitable Trust,SC049559,Glasgow City,G43 2RX,55.81533099,-4.28037167,S02001876,S01009951
East End Team Ministry,SC001473,Glasgow City,G32 9AL,55.85086853,-4.15830063,S02001910,S01010139
Glasgow East End Community Carers,SC022118,Glasgow City,G32 9AT,55.85127256,-4.15832303,S02001910,S01010139
Tictacs After School Services Limited,SC029501,Glasgow City,G32 9AL,55.85086853,-4.15830063,S02001910,S01010139
Fuse Youth Cafe Glasgow,SC037434,Glasgow City,G32 9AS,55.85110191,-4.15677985,S02001910,S01010139
Glasgow City Mission,SC001499,Glasgow City,G2 8PW,55.8579401,-4.26533862,S02001934,S01010273
Principal Maclean's Memorial Fund,SC011788,Glasgow City,G2 8JX,55.85830868,-4.26240385,S02001934,S01010273
Wayside Club Centre,SC021137,Glasgow City,G1 4PR,55.8577267,-4.2593499,S02001934,S01010273
Durisdeer Foundation,SC023584,Glasgow City,G2 8JX,55.85830868,-4.26240385,S02001934,S01010273
Chanan (Glasgow),SC040518,Glasgow City,G2 8LY,55.85895668,-4.26186625,S02001934,S01010273
Glasgow West Housing Association Limited,SC001667,Glasgow City,G3 7SL,55.86595473,-4.28247544,S02001936,S01010288
Incorporation Of Gardeners Of Glasgow,SC004606,Glasgow City,G3 7SL,55.86595473,-4.28247544,S02001936,S01010288
Broomhill Community Church Of The Nazarene,SC001701,Glasgow City,G11 7BL,55.87586096,-4.3250868,S02001959,S01010418
2nd Milngavie Rainbow Unit,SC046714,Glasgow City,G11 7LA,55.8761774,-4.31975,S02001959,S01010418
Look Who's Learning Ltd,SC001919,Glasgow City,G44 5UW,55.81834499,-4.25486315,S02001884,S01009998
Air Training Corps No 32F 1st Glasgow Squadron Non Public Sports & Welfare Funds,SC024720,Glasgow City,G44 5SS,55.81756411,-4.25186483,S02001884,S01009998
Spiritual Assembly Of The Baha'is Of Glasgow,SC001967,Glasgow City,G44 5DQ,55.81058331,-4.24681717,S02001879,S01009968
Friends of the King's Park Glasgow,SC039324,Glasgow City,G44 5BD,55.81462972,-4.2476889,S02001879,S01009968
G15 Youth Project,SC002034,Glasgow City,G15 7HA,55.91662228,-4.36832154,S02001976,S01010496
3DDrumchapel,SC025820,Glasgow City,G15 7HA,55.91662228,-4.36832154,S02001976,S01010496
Cernach Housing Association Limited,SC036607,Glasgow City,G15 7AJ,55.91539776,-4.37170362,S02001976,S01010496
Drumchapel Arts Workshop,SC041525,Glasgow City,G15 7EP,55.91081082,-4.36673495,S02001976,S01010496
Drumchapel High School Learning Community Charitable Association,SC044838,Glasgow City,G15 7SQ,55.91397729,-4.36705599,S02001976,S01010496
The Gaelic Society of Glasgow,SC002042,Glasgow City,G14 9HA,55.87870404,-4.34623351,S02001962,S01010429
Scotstoun Parish Church of Scotland,SC030418,Glasgow City,G14 9DR,55.87836605,-4.34840351,S02001962,S01010429
263rd Scotstoun Rainbow Unit,SC047076,Glasgow City,G14 9DU,55.87918301,-4.34750953,S02001962,S01010429
"Maryhill Parish Church of Scotland, Glasgow",SC002102,Glasgow City,G20 0EF,55.89742742,-4.29993598,S02001946,S01010346
"Gorbals Parish Church of Scotland, Glasgow",SC002214,Glasgow City,G5 0RA,55.84856335,-4.24982372,S02001889,S01010027
Givin' it Laldie,SC043406,Glasgow City,G5 0RA,55.84856335,-4.24982372,S02001889,S01010027
Glasgow: Mure Memorial Church of Scotland,SC002220,Glasgow City,G69 6HX,55.85120359,-4.12408211,S02001902,S01010099
Annexe Communities,SC002491,Glasgow City,G11 5PE,55.87120973,-4.30479529,S02001953,S01010386
"Partick South Church of Scotland, Glasgow",SC008315,Glasgow City,G11 6AB,55.87057919,-4.30391073,S02001953,S01010386
Baillieston Evangelical Church,SC002559,Glasgow City,G69 7EX,55.85012179,-4.10860653,S02001901,S01010090
144th Glasgow (1st Baillieston) Scout Troop,SC032585,Glasgow City,G69 7XY,55.84833742,-4.1057462,S02001901,S01010090
Celestial Church of Christ - House of Prayer Parish,SC050230,Glasgow City,G69 7XY,55.84833742,-4.1057462,S02001901,S01010090
"Hillington Park Church of Scotland, Glasgow",SC002614,Glasgow City,G52 2UD,55.84636078,-4.34322933,S02001851,S01009814
John Marnoch's Educational Trust,SC002693,Glasgow City,G1 3DN,55.859646,-4.25172695,S02001932,S01010265
Volunteer Centre -The Centre For Volunteering Community Action And Employment Initiatives Ltd,SC005462,Glasgow City,G1 1UZ,55.858728,-4.24934078,S02001932,S01010265
Incorporation Of Tailors In Glasgow,SC007955,Glasgow City,G1 1UH,55.85960791,-4.24889626,S02001932,S01010265
Incorporation Of Weavers Of Glasgow,SC008691,Glasgow City,G1 1UH,55.85960791,-4.24889626,S02001932,S01010265
Alexander Williams Davie Trust Fund,SC024169,Glasgow City,G1 3DN,55.859646,-4.25172695,S02001932,S01010265
Cockburn Trust For Future Education,SC028324,Glasgow City,G1 3DN,55.859646,-4.25172695,S02001932,S01010265
Coalition for Racial Equality and Rights,SC029007,Glasgow City,G1 1JQ,55.86003672,-4.24756272,S02001932,S01010265
The Chalmers Charitable Trust,SC047103,Glasgow City,G1 3BX,55.86038687,-4.25151414,S02001932,S01010265
Thriving Survivors Ltd,SC047181,Glasgow City,G1 1DT,55.85921755,-4.25058356,S02001932,S01010265
United Glasgow Football Club [SCIO],SC047338,Glasgow City,G1 1DT,55.85921755,-4.25058356,S02001932,S01010265
Weekday Wow Factor,SC050760,Glasgow City,G1 1DT,55.85921755,-4.25058356,S02001932,S01010265
Pollokshields Burgh Hall Trust Ltd,SC002793,Glasgow City,G41 4LL,55.8385912,-4.28615782,S02001869,S01009914
"Kinning Park Parish Church of Scotland, Glasgow",SC014895,Glasgow City,G41 4RR,55.83787005,-4.30072929,S02001869,S01009914
The Friends of Maxwell Park,SC038570,Glasgow City,G41 4DG,55.83685277,-4.29215666,S02001869,S01009914
"Easterhouse Parish Church of Scotland, Glasgow",SC003021,Glasgow City,G69 7AH,55.84634163,-4.1204303,S02001900,S01010084
Braehead United Free Church,SC039036,Glasgow City,G69 7BT,55.84763589,-4.12459033,S02001900,S01010084
Tollcross YMCA,SC003047,Glasgow City,G32 8HB,55.84320972,-4.16963221,S02001896,S01010061
"Ruchazie Parish Church of Scotland, Glasgow",SC003149,Glasgow City,G33 3QN,55.86930722,-4.17124757,S02001916,S01010178
Riddrie Congregation Of Jehovahs Witnesses,SC007923,Glasgow City,G33 2TA,55.8698558,-4.1737717,S02001916,S01010178
Hope Connections Ltd,SC028928,Glasgow City,G33 3QN,55.86930722,-4.17124757,S02001916,S01010178
Ruchazie Housing Association Limited,SC041911,Glasgow City,G33 3QS,55.87085805,-4.17350803,S02001916,S01010178
Drumchapel Essenside United Reformed Church,SC003193,Glasgow City,G15 6TP,55.90374741,-4.36668851,S02001973,S01010486
204th Glasgow Scout Group,SC037186,Glasgow City,G15 6TA,55.90451459,-4.36745522,S02001973,S01010486
Drumchapel Lawn Tennis Club,SC041727,Glasgow City,G15 6TR,55.90368696,-4.36609288,S02001973,S01010486
"Possilpark Parish Church of Scotland, Glasgow",SC003241,Glasgow City,G22 5AP,55.881101,-4.25407269,S02001940,S01010311
Comfort Zone Alternative Therapies SCIO,SC044014,Glasgow City,G22 5BS,55.88142283,-4.25367564,S02001940,S01010311
Glasgow Somaliland Community Centre,SC046330,Glasgow City,G22 5JN,55.88285335,-4.25457404,S02001940,S01010311
Jamia Islamia (Islamic & Community Centre) Trust,SC003342,Glasgow City,G41 3JW,55.82542392,-4.28279853,S02001872,S01009932
"Langside Parish Church of Scotland, Glasgow",SC007055,Glasgow City,G41 3JW,55.82542392,-4.28279853,S02001872,S01009932
The Reidvale Neighbourhood Centre,SC003460,Glasgow City,G31 1QW,55.85817774,-4.21627941,S02001929,S01010244
Reidvale Housing Association,SC044023,Glasgow City,G31 1QW,55.85817774,-4.21627941,S02001929,S01010244
Dennistoun After School Care,SC026532,Glasgow City,G31 1QW,55.85817774,-4.21627941,S02001929,S01010244
Craigton Congregation Of Jehovahs Witnesses,SC003631,Glasgow City,G52 3BY,55.84403139,-4.34708265,S02001852,S01009815
Knightswood United Free Church,SC003693,Glasgow City,G13 2AA,55.8997517,-4.34724858,S02001972,S01010480
Temple/St Ninians After School Care,SC025060,Glasgow City,G13 2AB,55.90128482,-4.35121266,S02001972,S01010480
Cranhill Arts Project,SC003739,Glasgow City,G33 3HA,55.86686256,-4.17684894,S02001914,S01010156
"St Andrews East Parish Church, Glasgow (Church of Scotland)",SC009600,Glasgow City,G33 3AZ,55.86472289,-4.17891873,S02001914,S01010156
Greater Easterhouse Supporting Hands,SC003758,Glasgow City,G33 5EG,55.87197519,-4.14415834,S02001915,S01010171
Garthamlock Community  Group,SC042344,Glasgow City,G33 5EE,55.87296053,-4.14589111,S02001915,S01010171
Kelvin Congregation Of Jehovahs Witnesses,SC003824,Glasgow City,G3 6DR,55.86943019,-4.272913,S02001937,S01010296
Shia Asna Ashri Islamic Centre,SC024132,Glasgow City,G3 6DR,55.86943019,-4.272913,S02001937,S01010296
Dar Al-Falaah Community Education Limited,SC033961,Glasgow City,G3 6HS,55.86918874,-4.27090087,S02001937,S01010296
Glasgow Esol Forum Limited,SC035775,Glasgow City,G3 6JA,55.868283,-4.27127955,S02001937,S01010296
Charing Cross Housing Association Limited,SC042842,Glasgow City,G3 6DR,55.86943019,-4.272913,S02001937,S01010296
Shakespeare Street Youth Club,SC003997,Glasgow City,G20 8LE,55.88507953,-4.28638071,S02001941,S01010320
Maryhill Mobile Childrenâ€™s Services,SC026243,Glasgow City,G20 8TS,55.88492398,-4.28314144,S02001941,S01010320
Chinese Community Development Partnership Limited,SC032399,Glasgow City,G20 8TS,55.88492398,-4.28314144,S02001941,S01010320
Home-Start Glasgow North,SC032736,Glasgow City,G20 8TS,55.88492398,-4.28314144,S02001941,S01010320
Maryhill Integration Network SCIO,SC037300,Glasgow City,G20 8TS,55.88492398,-4.28314144,S02001941,S01010320
North Kelvin Sports Development Group (SCIO),SC040027,Glasgow City,G20 8TS,55.88492398,-4.28314144,S02001941,S01010320
Glasgow Afghan United,SC044077,Glasgow City,G20 8ND,55.88549715,-4.28373479,S02001941,S01010320
"Merrylea Parish Church of Scotland Newlands, Glasgow",SC004016,Glasgow City,G43 2SU,55.81331158,-4.28167407,S02001878,S01009959
Newlands District Ranger Unit,SC046895,Glasgow City,G43 2QZ,55.81404737,-4.27494945,S02001878,S01009959
Girlguiding Glasgow South Division,SC046923,Glasgow City,G43 2QZ,55.81404737,-4.27494945,S02001878,S01009959
Knightswood Baptist Church,SC004075,Glasgow City,G13 3LP,55.89480276,-4.34802127,S02001969,S01010461
Rotary Residential And Care Centres,SC004202,Glasgow City,G41 5RP,55.84287901,-4.27885418,S02001863,S01009877
The Wednesday Club (Glasgow),SC047035,Glasgow City,G41 5EJ,55.84433725,-4.27873188,S02001863,S01009877
"Springburn Parish Church of Scotland, Glasgow",SC004397,Glasgow City,G21 1TU,55.88225869,-4.22950014,S02001922,S01010212
North Glasgow Housing Association,SC030635,Glasgow City,G21 4LS,55.88350626,-4.22611788,S02001922,S01010212
Spirit of Springburn SCIO,SC050744,Glasgow City,G21 1TS,55.88352168,-4.22824542,S02001922,S01010212
Clyde Maritime Trust Ltd,SC004608,Glasgow City,G3 8RS,55.86473359,-4.30746422,S02001953,S01010387
Parant Is Paisde Phartaig,SC023528,Glasgow City,G11 6EL,55.86968786,-4.3121379,S02001953,S01010387
Four Acres Charitable Trust,SC004689,Glasgow City,G11 5JE,55.87405702,-4.30056782,S02001952,S01010380
"Partick Trinity Church of Scotland, Glasgow",SC007632,Glasgow City,G11 5HG,55.87325819,-4.29810668,S02001952,S01010380
West End Festival (Glasgow),SC024263,Glasgow City,G11 5JE,55.87405702,-4.30056782,S02001952,S01010380
Candlish Wynd United Free Church,SC004737,Glasgow City,G42 0NN,55.82920412,-4.25130818,S02001867,S01009902
Hampden Bowling Club SCIO,SC050931,Glasgow City,G42 8BU,55.83089863,-4.25643615,S02001867,S01009902
"St Enoch's - Hogganfield Parish Church of Scotland, Glasgow",SC004918,Glasgow City,G33 1BX,55.87440104,-4.19213783,S02001917,S01010179
Glasgow Foundry Boys Religious Society,SC004961,Glasgow City,G21 2JF,55.86927486,-4.22536722,S02001926,S01010232
Rosemount Lifelong Learning,SC028909,Glasgow City,G21 2NU,55.86918115,-4.22905416,S02001926,S01010232
Spire View Housing Association Limited,SC033266,Glasgow City,G21 2JF,55.86927486,-4.22536722,S02001926,S01010232
Copperworks Housing Association Limited ,SC045357,Glasgow City,G21 2JF,55.86927486,-4.22536722,S02001926,S01010232
Easterhouse Citizens Advice Bureau,SC005001,Glasgow City,G34 9DT,55.8684597,-4.12195554,S02001907,S01010122
Womens Centre Information & Support Project,SC024682,Glasgow City,G34 9BN,55.86688561,-4.12099063,S02001907,S01010122
"Assemblies of God, Easterhouse",SC042698,Glasgow City,G34 9DT,55.8684597,-4.12195554,S02001907,S01010122
The Glasgow East Sunshine Club,SC048094,Glasgow City,G34 9BN,55.86688561,-4.12099063,S02001907,S01010122
Gingerbread East End,SC005209,Glasgow City,G31 2TL,55.86307538,-4.21580728,S02001927,S01010237
Shettleston Methodist Church Community Project,SC018274,Glasgow City,G31 2QE,55.86186936,-4.21540299,S02001927,S01010237
Glasgow Women's Aid,SC005227,Glasgow City,G1 1LG,55.85797261,-4.24543009,S02001932,S01010263
Lodge Union Glasgow No 332 Benevolent Fund,SC009772,Glasgow City,G1 1HE,55.85918168,-4.24319875,S02001932,S01010263
Culture and Sport Glasgow,SC037844,Glasgow City,G1 1LH,55.85751221,-4.24455662,S02001932,S01010263
Glasgow City Heritage Trust,SC038640,Glasgow City,G1 1LQ,55.85772861,-4.2440258,S02001932,S01010263
Church Of God In Glasgow,SC005340,Glasgow City,G13 1TU,55.8824686,-4.33827389,S02001958,S01010410
Glasgow Tree Lovers Society,SC005385,Glasgow City,G11 7QJ,55.87552224,-4.31445121,S02001956,S01010398
Friends Of Glasgow West,SC024748,Glasgow City,G12 9SB,55.87743638,-4.31255069,S02001956,S01010398
Victoria Park Community Trust,SC049118,Glasgow City,G11 7JW,55.87689118,-4.31621138,S02001956,S01010398
Glasgow Artists' Moving Image Studios SCIO,SC050332,Glasgow City,G11 5AY,55.87603195,-4.31315461,S02001956,S01010398
Glasgow North West Citizens Advice Service Ltd,SC005641,Glasgow City,G20 9AA,55.89028853,-4.2899657,S02001949,S01010359
Abbeyfield Glasgow Society Ltd,SC005661,Glasgow City,G41 4NL,55.83712624,-4.28083331,S02001869,S01009915
3rd Glasgow Scout Group,SC030858,Glasgow City,G41 4NG,55.83646079,-4.279884,S02001869,S01009915
"Colston Wellpark Church of Scotland, Glasgow",SC005709,Glasgow City,G22 7QX,55.89688881,-4.24539125,S02001943,S01010330
Baillieston Christian Brethren,SC005723,Glasgow City,G32 0RA,55.84886099,-4.14513748,S02001899,S01010081
"Kenmuir Mount Vernon Church of Scotland, Glasgow",SC008980,Glasgow City,G32 9JL,55.84578201,-4.14389755,S02001899,S01010081
"Sandyhills Church of Scotland, Glasgow",SC009460,Glasgow City,G32 0QQ,55.84942894,-4.14555219,S02001899,S01010081
Mount Vernon Community Hall,SC022802,Glasgow City,G32 0RA,55.84886099,-4.14513748,S02001899,S01010081
Mount Vernon Community Hall SCIO,SC051006,Glasgow City,G32 0RA,55.84886099,-4.14513748,S02001899,S01010081
Darnley United Free Church,SC005732,Glasgow City,G53 7GT,55.80896308,-4.34369394,S02001843,S01009764
Scallywags Toddler Group,SC031997,Glasgow City,G53 7BB,55.80799106,-4.34282157,S02001843,S01009764
Easterhouse Project,SC005813,Glasgow City,G34 9JL,55.86566775,-4.11290122,S02001905,S01010112
St George's & St Peter's Community Association,SC020329,Glasgow City,G34 9JE,55.86674019,-4.11377458,S02001905,S01010112
Pavillion (Greater Easterhouse),SC028534,Glasgow City,G34 9HX,55.86668158,-4.11457052,S02001905,S01010112
Blairtummock Housing Association,SC036997,Glasgow City,G34 9JL,55.86566775,-4.11290122,S02001905,S01010112
Blairtummock and Rogerfield Opportunities Limited,SC037657,Glasgow City,G34 9JL,55.86566775,-4.11290122,S02001905,S01010112
Association of Spiritualists Glasgow,SC005881,Glasgow City,G3 7JT,55.86628531,-4.27773191,S02001937,S01010289
Bridgeton Burns Club,SC015476,Glasgow City,G3 7QF,55.8670646,-4.27301452,S02001937,S01010289
Jewish Lads & Girls Brigade,SC017139,Glasgow City,G3 7LW,55.86676054,-4.2777917,S02001937,S01010289
Institute Of The Franciscan Sisters Minoresses Of The Third Order - St Francis Nursing Home,SC023725,Glasgow City,G3 7QF,55.8670646,-4.27301452,S02001937,S01010289
The Millar Foundation,SC048377,Glasgow City,G3 7LW,55.86676054,-4.2777917,S02001937,S01010289
Glasgow Action For Pensioners,SC006333,Glasgow City,G51 3BB,55.86296564,-4.31402375,S02001856,S01009844
Southern Sound Hospital Broadcasting Service,SC007884,Glasgow City,G51 3BA,55.86326694,-4.31472889,S02001856,S01009844
Starter Packs Glasgow,SC029961,Glasgow City,G51 3LB,55.86309763,-4.31369598,S02001856,S01009844
Elderpark Housing Association,SC032823,Glasgow City,G51 3EW,55.863806,-4.31712632,S02001856,S01009844
Safety Awareness Glasgow,SC045812,Glasgow City,G51 3BU,55.86235855,-4.31667253,S02001856,S01009844
"St Columbas Gaelic Church of Scotland, Glasgow",SC006342,Glasgow City,G11 7ED,55.87978099,-4.32215546,S02001959,S01010417
Highlanders Institute - Aitreabh Nan Gaidhael,SC007362,Glasgow City,G11 7ED,55.87978099,-4.32215546,S02001959,S01010417
Royston Youth Action,SC006351,Glasgow City,G21 2BS,55.87119155,-4.22125691,S02001925,S01010225
The Rosemount Development Trust Limited,SC009569,Glasgow City,G21 2QA,55.87202799,-4.22669167,S02001925,S01010225
Rosemount (Workspace) Ltd,SC026096,Glasgow City,G21 2QA,55.87202799,-4.22669167,S02001925,S01010225
Roystonhill Spire And Park Limited,SC027848,Glasgow City,G21 2QA,55.87202799,-4.22669167,S02001925,S01010225
St Rochs Childcare Service,SC030280,Glasgow City,G21 2QA,55.87202799,-4.22669167,S02001925,S01010225
Lodge Progress No 873 Benevolent Fund,SC006470,Glasgow City,G44 4SN,55.82247015,-4.25388854,S02001886,S01010007
Society of Friends of Glasgow Cathedral,SC006471,Glasgow City,G44 4HU,55.82030214,-4.247617,S02001885,S01010004
Drumchapel Women's Aid,SC006501,Glasgow City,G15 6DX,55.90672033,-4.35131771,S02001974,S01010488
"Kelvinside Hillhead Parish Church of Scotland, Glasgow",SC006629,Glasgow City,G12 9XU,55.88069662,-4.30740428,S02001957,S01010403
St Brides Episcopal Church: Glasgow,SC012625,Glasgow City,G12 9UX,55.88043569,-4.30454277,S02001957,S01010403
David Cargill House,SC018250,Glasgow City,G12 0UP,55.88129088,-4.30110781,S02001957,S01010403
Partick Free Church of Scotland (Continuing),SC048928,Glasgow City,G12 9PY,55.87904536,-4.30679466,S02001957,S01010403
Glasgow International Jazz Festival Ltd,SC006649,Glasgow City,G52 1BD,55.84949602,-4.33148376,S02001857,S01009851
5th Cardonald Brownie Unit,SC033440,Glasgow City,G52 1AS,55.84888463,-4.33007319,S02001857,S01009851
3rd Cardonald Guide Unit,SC033441,Glasgow City,G52 1AS,55.84888463,-4.33007319,S02001857,S01009851
1st And 2nd Cardonald Rainbow Unit,SC034709,Glasgow City,G52 1AS,55.84888463,-4.33007319,S02001857,S01009851
4th Cardonald Brownie Unit,SC034711,Glasgow City,G52 1AS,55.84888463,-4.33007319,S02001857,S01009851
3rd Cardonald Brownie Unit,SC034712,Glasgow City,G52 1AS,55.84888463,-4.33007319,S02001857,S01009851
"Carntyne Parish Church of Scotland, Glasgow",SC006729,Glasgow City,G32 6LW,55.86150191,-4.18064004,S02001913,S01010155
FARE Scotland Ltd,SC006807,Glasgow City,G34 0JF,55.86892001,-4.09773383,S02001904,S01010109
Lochfield Park Housing Association Limited,SC037694,Glasgow City,G34 0JF,55.86892001,-4.09773383,S02001904,S01010109
Lochend Community Gardens,SC045298,Glasgow City,G34 0DD,55.87065836,-4.09856286,S02001904,S01010109
Queens Cross Workspace Ltd,SC006821,Glasgow City,G20 7BE,55.88006251,-4.26998508,S02001940,S01010314
1st Glasgow Boys Brigade Company,SC010057,Glasgow City,G20 7SH,55.88361752,-4.27166376,S02001940,S01010314
Garscube Community Foundation,SC035538,Glasgow City,G20 7BE,55.88006251,-4.26998508,S02001940,S01010314
Queens Cross Housing Association Limited,SC036434,Glasgow City,G20 7BE,55.88006251,-4.26998508,S02001940,S01010314
SiMY Community Development,SC043184,Glasgow City,G20 7BE,55.88006251,-4.26998508,S02001940,S01010314
Tap O' The Toon,SC050712,Glasgow City,G20 7BE,55.88006251,-4.26998508,S02001940,S01010314
"Calton Parkhead Parish Church of Scotland, Glasgow",SC006958,Glasgow City,G32 8QG,55.84015376,-4.17778325,S02001896,S01010065
Yoker Enterprises Ltd,SC007006,Glasgow City,G14 0LL,55.88867912,-4.37813309,S02001964,S01010440
Yoker Resource Centre,SC010367,Glasgow City,G14 0LL,55.88867912,-4.37813309,S02001964,S01010440
Yoker Community Campus Development Company,SC036761,Glasgow City,G14 0LL,55.88867912,-4.37813309,S02001964,S01010440
We Step Together,SC039713,Glasgow City,G14 0LL,55.88867912,-4.37813309,S02001964,S01010440
North West Glasgow Voluntary Sector Network,SC040005,Glasgow City,G14 0LL,55.88867912,-4.37813309,S02001964,S01010440
North West Glasgow Voluntary Sector Network SCIO,SC049815,Glasgow City,G14 0LL,55.88867912,-4.37813309,S02001964,S01010440
The DRC Youth Project (SCIO),SC050035,Glasgow City,G14 0LL,55.88867912,-4.37813309,S02001964,S01010440
Glasgow Street Aid (SCIO),SC050704,Glasgow City,G13 4DJ,55.89196075,-4.37900567,S02001964,S01010440
Yoker Resource Centre SCIO,SC050764,Glasgow City,G14 0LL,55.88867912,-4.37813309,S02001964,S01010440
Drumchapel & District Sports Centre Development Fund,SC007007,Glasgow City,G15 8NS,55.90808387,-4.37439305,S02001977,S01010503
Drumchapel Citizens Advice Bureau,SC015207,Glasgow City,G15 8NS,55.90808387,-4.37439305,S02001977,S01010503
Drumchapel Table Tennis Development Scheme,SC047351,Glasgow City,G15 8NS,55.90808387,-4.37439305,S02001977,S01010503
Drumchapel & District Sports Centre,SC050353,Glasgow City,G15 8NS,55.90808387,-4.37439305,S02001977,S01010503
Glasgow Chinese Christian Church,SC007237,Glasgow City,G4 9BJ,55.8714151,-4.27055132,S02001937,S01010295
Woodlands Community Development Trust,SC008741,Glasgow City,G3 6HW,55.87065222,-4.27244094,S02001937,S01010295
Govan Reminiscence Group,SC007532,Glasgow City,G51 4RA,55.86432721,-4.32855279,S02001856,S01009847
Linthouse Housing Association Limited,SC028161,Glasgow City,G51 4RB,55.86462942,-4.32873071,S02001856,S01009847
Preshal Trust,SC033632,Glasgow City,G51 4QX,55.86446273,-4.32709052,S02001856,S01009847
North West Women's Centre,SC007670,Glasgow City,G20 9DA,55.88866704,-4.28678366,S02001941,S01010321
Common Wheel,SC031798,Glasgow City,G20 9BD,55.88764358,-4.28478843,S02001941,S01010321
Maryhill Housing Association Limited,SC032468,Glasgow City,G20 8RG,55.88718616,-4.28764003,S02001941,S01010321
Glasgow Access Panel,SC036531,Glasgow City,G20 9BQ,55.88801099,-4.28436226,S02001941,S01010321
Greater Maryhill Foodbank,SC044256,Glasgow City,G20 9BD,55.88764358,-4.28478843,S02001941,S01010321
Maryhill Mini Multis Residents Association,SC045352,Glasgow City,G20 8RG,55.88718616,-4.28764003,S02001941,S01010321
Oromo Community in Scotland,SC050737,Glasgow City,G20 8SF,55.88585004,-4.28796117,S02001941,S01010321
"Knightswood St Margarets Parish Church of Scotland, Glasgow",SC007757,Glasgow City,G13 4QA,55.89561492,-4.36755273,S02001966,S01010448
Victory Christian Centre,SC007962,Glasgow City,G51 4AS,55.86046408,-4.32562082,S02001855,S01009840
Arden Community Hall Association,SC008006,Glasgow City,G46 8BG,55.80462551,-4.32932637,S02001842,S01009762
Easthall Residents Association,SC008077,Glasgow City,G34 9AN,55.86271143,-4.12643629,S02001907,S01010119
Social Action Group,SC015684,Glasgow City,G34 9AZ,55.86365449,-4.12751064,S02001907,S01010119
Glasgow North East Carers Centre,SC024647,Glasgow City,G34 9AX,55.8642765,-4.12947842,S02001907,S01010119
Glasgow East Alcohol Awareness Project Limited,SC029951,Glasgow City,G34 9AX,55.8642765,-4.12947842,S02001907,S01010119
Trondra Community Centre SCIO,SC048947,Glasgow City,G34 9AX,55.8642765,-4.12947842,S02001907,S01010119
Kelvin Hall Sports Education Trust,SC008179,Glasgow City,G4 0QW,55.86011629,-4.23925756,S02001931,S01010257
Lodging House Mission,SC017283,Glasgow City,G1 5DT,55.85603485,-4.23734494,S02001931,S01010257
Jobs and Business Glasgow,SC023930,Glasgow City,G4 0UW,55.85953781,-4.23548494,S02001931,S01010257
Glasgow's Golden Generation,SC008200,Glasgow City,G42 9RA,55.82469865,-4.26808337,S02001867,S01009900
Talbot Association Limited,SC008277,Glasgow City,G5 8RE,55.85388032,-4.27785263,S02001890,S01010031
Croftfoot Playgroup,SC008571,Glasgow City,G44 5NS,55.81440124,-4.23310284,S02001884,S01009994
77th Glasgow Disabled Scout Group,SC008726,Glasgow City,G11 7SW,55.87254016,-4.31483322,S02001955,S01010393
Herbert Ross Charitable Trust,SC008770,Glasgow City,G31 2DA,55.86145297,-4.22602247,S02001930,S01010252
Dennistoun Conservation Society,SC040901,Glasgow City,G31 2HZ,55.86025265,-4.22331705,S02001930,S01010252
ReTune (SCIO),SC047291,Glasgow City,G31 2LF,55.85883041,-4.22045532,S02001930,S01010252
Glasgow Dennistoun New Parish Church Of Scotland,SC008824,Glasgow City,G31 2UU,55.85891257,-4.21689653,S02001930,S01010250
The Everlasting Foodbank SCIO,SC047458,Glasgow City,G31 2LJ,55.85890612,-4.21874981,S02001930,S01010250
Glasgow Wallacewell Church of Scotland New Charge,SC008840,Glasgow City,G21 3QT,55.89440565,-4.2052779,S02001919,S01010198
St Silas Episcopal Church: Glasgow,SC008894,Glasgow City,G4 9JE,55.87251383,-4.27966328,S02001937,S01010291
Otago Lane Conservation Trust,SC049672,Glasgow City,G12 8PB,55.87276539,-4.28209186,S02001937,S01010291
"St Silas Episcopal Church, Glasgow (SCIO)",SC050307,Glasgow City,G4 9JE,55.87251383,-4.27966328,S02001937,S01010291
St Margarets Episcopal Church: Newlands,SC008953,Glasgow City,G43 2DS,55.82244637,-4.28632796,S02001876,S01009952
The Brunswick Community Development Trust,SC008978,Glasgow City,G21 3NN,55.88926579,-4.21123919,S02001919,S01010195
Friends of Springburn Park SCIO,SC051279,Glasgow City,G21 3NN,55.88926579,-4.21123919,S02001919,S01010195
Govan Housing Association Ltd,SC009055,Glasgow City,G51 3AQ,55.86488961,-4.31685523,S02001856,S01009845
Sunny Govan Community Media Group,SC031526,Glasgow City,G51 3AJ,55.86409512,-4.31656818,S02001856,S01009845
Plantation Productions (SCIO),SC042866,Glasgow City,G51 3AJ,55.86409512,-4.31656818,S02001856,S01009845
Moving Horizons Trust,SC009322,Glasgow City,G51 2JA,55.85574483,-4.31087794,S02001859,S01009861
Mainstay Trust Ltd,SC020110,Glasgow City,G51 2JA,55.85574483,-4.31087794,S02001859,S01009861
ACVC,SC051219,Glasgow City,G51 2HF,55.85575464,-4.31226867,S02001859,S01009861
"Toryglen Church of Scotland, Glasgow",SC009399,Glasgow City,G76 9AS,55.78713,-4.23377471,S02001880,S01009969
Carmunnock Village Community Association (Castlemilk Hall),SC031380,Glasgow City,G76 9BJ,55.78596974,-4.2486055,S02001880,S01009969
Carmunnock Primary School Parent  Council,SC042776,Glasgow City,G76 9BT,55.7918145,-4.23761627,S02001880,S01009969
Castlemilk Hall (SCIO),SC050278,Glasgow City,G76 9DT,55.79150639,-4.23578005,S02001880,S01009969
New Glasgow Society,SC009743,Glasgow City,G3 8TL,55.8669247,-4.29073178,S02001936,S01010282
Yorkhill Green Spaces,SC047785,Glasgow City,G3 8RW,55.86608032,-4.291673,S02001936,S01010282
"Cranhill Parish Church of Scotland, Glasgow",SC009874,Glasgow City,G33 3HE,55.86624045,-4.16779997,S02001914,S01010160
Cranhill Development Trust,SC033396,Glasgow City,G33 3HE,55.86624045,-4.16779997,S02001914,S01010160
Glasgow Clincarthill Church of Scotland,SC010138,Glasgow City,G42 9EU,55.82369108,-4.25886055,S02001887,S01010011
Western Club Staff Benevolent Fund,SC010241,Glasgow City,G1 3AB,55.86053523,-4.25273725,S02001934,S01010274
Glasgow Educational And Marshall Trust,SC012582,Glasgow City,G2 1BA,55.86162319,-4.25172952,S02001934,S01010274
Glasgow Dean Of Guild Court Trust,SC014851,Glasgow City,G2 1BA,55.86162319,-4.25172952,S02001934,S01010274
Enable Glasgow Branch,SC021077,Glasgow City,G2 1BA,55.86162319,-4.25172952,S02001934,S01010274
"Cardonald Parish Church of Scotland, Glasgow",SC010265,Glasgow City,G52 3PF,55.84558378,-4.35708062,S02001852,S01009820
Arcadia Theatre Company,SC046430,Glasgow City,G52 3JR,55.84427227,-4.35610665,S02001852,S01009820
Association Of Ehi-I-Sunnah & Jummat (Glasgow),SC010303,Glasgow City,G3 8LZ,55.86418561,-4.28288307,S02001936,S01010285
Amma Birth Companions (SCIO),SC049280,Glasgow City,G3 8LD,55.86348043,-4.28213848,S02001936,S01010285
Yorkhill and Kelvingrove Development Trust,SC050253,Glasgow City,G3 8LD,55.86348043,-4.28213848,S02001936,S01010285
Govanhill Housing Association Ltd,SC010307,Glasgow City,G42 7JG,55.83983288,-4.26080313,S02001865,S01009892
Glasgow Islamic Educational Trust,SC031343,Glasgow City,G42 7JG,55.83983288,-4.26080313,S02001865,S01009892
Dixon Community,SC010374,Glasgow City,G42 8AA,55.83462565,-4.25658821,S02001865,S01009889
Govanhill Parents Group,SC042563,Glasgow City,G42 8HH,55.83550149,-4.25783673,S02001865,S01009889
Kelvin Amatuer Boxing Club,SC043899,Glasgow City,G42 8HL,55.83501502,-4.25740927,S02001865,S01009889
Reformed Baptist Church Anniesland,SC010397,Glasgow City,G13 1SJ,55.88565548,-4.33136551,S02001958,S01010411
"Jordanhill Parish Church of Scotland, Glasgow",SC015683,Glasgow City,G13 1QT,55.88512559,-4.3294468,S02001958,S01010411
Jordanhill Out of School Service Limited,SC022310,Glasgow City,G13 1QT,55.88512559,-4.3294468,S02001958,S01010411
West End Road Runners,SC050055,Glasgow City,G13 1QE,55.88389096,-4.33199524,S02001958,S01010411
Knightswood Playgroup,SC010774,Glasgow City,G13 3EL,55.88688661,-4.35966478,S02001967,S01010453
Croftfoot United Free Church,SC010932,Glasgow City,G44 5JS,55.81028687,-4.2423792,S02001883,S01009989
The Institute of Neurological Sciences Research Trust,SC011199,Glasgow City,G12 0FA,55.89148206,-4.31933605,S02001970,S01010468
The Whitehill School Sports Trust,SC011232,Glasgow City,G13 1DB,55.89409224,-4.3267534,S02001971,S01010473
St Andrew's West Parish Church of Scotland Glasgow,SC011423,Glasgow City,G2 4JP,55.86537025,-4.26791296,S02001933,S01010267
93rd Glasgow Company Boys Brigade,SC018482,Glasgow City,G2 4JP,55.86537025,-4.26791296,S02001933,S01010267
Renfield Centre,SC022996,Glasgow City,G2 4JP,55.86537025,-4.26791296,S02001933,S01010267
Bill Taylor Trust,SC027198,Glasgow City,G2 4PS,55.86429114,-4.26892085,S02001933,S01010267
124th Glasgow Guide Company,SC032587,Glasgow City,G2 4PB,55.86368683,-4.26854999,S02001933,S01010267
248th Glasgow Guides,SC034199,Glasgow City,G2 4PB,55.86368683,-4.26854999,S02001933,S01010267
201st Glasgow Brownie Pack,SC034739,Glasgow City,G2 4PB,55.86368683,-4.26854999,S02001933,S01010267
354th City of Glasgow Guide Unit,SC040336,Glasgow City,G2 4PB,55.86368683,-4.26854999,S02001933,S01010267
Girlguiding Bellahouston Sense Joint Unit,SC047656,Glasgow City,G2 4PB,55.86368683,-4.26854999,S02001933,S01010267
"The Nigerian Society of Engineers, Glasgow Branch",SC050880,Glasgow City,G2 4JR,55.86547651,-4.26897401,S02001933,S01010267
Bellahouston Bequest Fund,SC011781,Glasgow City,G1 2AD,55.86244451,-4.25006705,S02001932,S01010260
County Of The City Of Glasgow Guides Association,SC015650,Glasgow City,G2 1BP,55.86210745,-4.25325977,S02001932,S01010260
The Greater Pollok Barratt Community Development Trust,SC026091,Glasgow City,G1 1RX,55.86100705,-4.24659601,S02001932,S01010260
2nd Glasgow Brownie Guide Unit,SC030963,Glasgow City,G2 1BP,55.86210745,-4.25325977,S02001932,S01010260
2nd Kelvin/Maryhill Rainbow Guide Unit,SC031423,Glasgow City,G2 1BP,55.86210745,-4.25325977,S02001932,S01010260
163rd Glasgow Brownie Guides,SC031690,Glasgow City,G2 1BP,55.86210745,-4.25325977,S02001932,S01010260
25th Glasgow Brownie Pack,SC032007,Glasgow City,G2 1BP,55.86210745,-4.25325977,S02001932,S01010260
25th Glasgow Guide Company,SC032008,Glasgow City,G2 1BP,55.86210745,-4.25325977,S02001932,S01010260
46th A Brownie Pack - Glasgow,SC032643,Glasgow City,G2 1BP,55.86210745,-4.25325977,S02001932,S01010260
301 St Glasgow Brownies,SC034001,Glasgow City,G2 1BP,55.86210745,-4.25325977,S02001932,S01010260
The Glasgow Housing Association Limited,SC034054,Glasgow City,G1 1HL,55.86038037,-4.24842954,S02001932,S01010260
248th Glasgow Brownies,SC034700,Glasgow City,G2 1BP,55.86210745,-4.25325977,S02001932,S01010260
Zuill Charitable Trust,SC035070,Glasgow City,G1 2AD,55.86244451,-4.25006705,S02001932,S01010260
46th Glasgow Guide Company,SC035079,Glasgow City,G2 1BP,55.86210745,-4.25325977,S02001932,S01010260
W G Hetherington Family Wood Charitable Trust,SC035191,Glasgow City,G1 2AD,55.86244451,-4.25006705,S02001932,S01010260
131st A Glasgow Brownie Pack,SC036634,Glasgow City,G2 1BP,55.86210745,-4.25325977,S02001932,S01010260
1st Botanic Gardens Rainbows,SC036749,Glasgow City,G2 1BP,55.86210745,-4.25325977,S02001932,S01010260
242nd Glasgow Brownie Pack,SC036801,Glasgow City,G2 1BP,55.86210745,-4.25325977,S02001932,S01010260
201st Glasgow Guide Company,SC036912,Glasgow City,G2 1BP,55.86210745,-4.25325977,S02001932,S01010260
47th A Glasgow Guide Unit,SC037021,Glasgow City,G2 1BP,55.86210745,-4.25325977,S02001932,S01010260
97th Glasgow Girl Guide Company,SC037119,Glasgow City,G2 1BP,55.86210745,-4.25325977,S02001932,S01010260
47th City of Glasgow Brownie Unit,SC037144,Glasgow City,G2 1BP,55.86210745,-4.25325977,S02001932,S01010260
293rd B City of Glasgow Brownie Unit,SC037200,Glasgow City,G2 1BP,55.86210745,-4.25325977,S02001932,S01010260
242nd City of Glasgow Rainbow Unit,SC038879,Glasgow City,G2 1BP,55.86210745,-4.25325977,S02001932,S01010260
2nd Kelvinside Rainbow Unit,SC039026,Glasgow City,G2 1BP,55.86210745,-4.25325977,S02001932,S01010260
Girl Guiding Glasgow West Division,SC040243,Glasgow City,G2 1BP,55.86210745,-4.25325977,S02001932,S01010260
Girl Guiding Glasgow 310th Rainbow Unit,SC040244,Glasgow City,G2 1BP,55.86210745,-4.25325977,S02001932,S01010260
Girl Guiding Glasgow West Division Camp Account,SC040245,Glasgow City,G2 1BP,55.86210745,-4.25325977,S02001932,S01010260
Girl Guiding Glasgow 310th Guide Unit,SC040257,Glasgow City,G2 1BP,55.86210745,-4.25325977,S02001932,S01010260
Shettleston 'B' Rainbow Unit,SC040331,Glasgow City,G2 1BP,55.86210745,-4.25325977,S02001932,S01010260
10th Rainbow Unit,SC040520,Glasgow City,G2 1BP,55.86210745,-4.25325977,S02001932,S01010260
242nd Guide Unit,SC040781,Glasgow City,G2 1BP,55.86210745,-4.25325977,S02001932,S01010260
48th Glasgow Guides,SC040822,Glasgow City,G2 1BP,55.86210745,-4.25325977,S02001932,S01010260
1st Kelvinside Rainbow Guides,SC040982,Glasgow City,G2 1BP,55.86210745,-4.25325977,S02001932,S01010260
10th Brownie Unit,SC041005,Glasgow City,G2 1BP,55.86210745,-4.25325977,S02001932,S01010260
199th Glasgow Brownies,SC041023,Glasgow City,G2 1BP,55.86210745,-4.25325977,S02001932,S01010260
The Reid Law Endowment Fund,SC041187,Glasgow City,G1 2AD,55.86244451,-4.25006705,S02001932,S01010260
25th A City of Glasgow Brownie Unit,SC041802,Glasgow City,G2 1BP,55.86210745,-4.25325977,S02001932,S01010260
Cross Ethnic,SC041922,Glasgow City,G2 1BP,55.86210745,-4.25325977,S02001932,S01010260
Lord Provost's Children's Fund,SC042267,Glasgow City,G1 1RX,55.86100705,-4.24659601,S02001932,S01010260
Lord Provost's Fund for Vulnerable Citizens,SC042268,Glasgow City,G1 1RX,55.86100705,-4.24659601,S02001932,S01010260
310th A Glasgow Brownies,SC043218,Glasgow City,G2 1BP,55.86210745,-4.25325977,S02001932,S01010260
Transforming Communities:Glasgow,SC045741,Glasgow City,G1 1QU,55.86100867,-4.24503,S02001932,S01010260
60th City of Glasgow Rainbow Unit,SC047229,Glasgow City,G2 1BP,55.86210745,-4.25325977,S02001932,S01010260
Provan Hall Community Management Trust ,SC047978,Glasgow City,G1 1RX,55.86100705,-4.24659601,S02001932,S01010260
The Royal Incorporation of Hutchesons' Hospital in the City of Glasgow,SC048030,Glasgow City,G1 2AD,55.86244451,-4.25006705,S02001932,S01010260
Merchant City Park Limited,SC050824,Glasgow City,G1 1EX,55.85950601,-4.24364891,S02001932,S01010260
Gem Workspaces Limited,SC011810,Glasgow City,G33 4EL,55.86580483,-4.14496895,S02001908,S01010129
Disadvantaged Children Cancer Support (SCIO),SC049988,Glasgow City,G33 4AQ,55.86349448,-4.14448998,S02001908,S01010129
Shawlands Happy Tots Playgroup,SC011859,Glasgow City,G41 3TP,55.83178521,-4.28435305,S02001870,S01009919
"Shawlands Trinity Church of Scotland, Glasgow",SC012969,Glasgow City,G41 3TP,55.83178521,-4.28435305,S02001870,S01009919
Shawlands Out Of School Care Limited,SC025840,Glasgow City,G41 3QP,55.82940093,-4.28545872,S02001870,S01009919
Govan Enterprises (Service & Manufacture) Ltd,SC012402,Glasgow City,G51 3TR,55.85733286,-4.32247746,S02001856,S01009842
Govan Workspace Limited,SC023789,Glasgow City,G51 3TR,55.85733286,-4.32247746,S02001856,S01009842
The Govan Heritage Trust SCIO,SC045328,Glasgow City,G51 3TR,55.85733286,-4.32247746,S02001856,S01009842
"Bridgeton St Francis in the East Church of Scotland, Glasgow",SC012535,Glasgow City,G69 6PJ,55.85495373,-4.12289673,S02001902,S01010095
Glasgow Print Studio Ltd,SC012793,Glasgow City,G1 5HD,55.85699529,-4.24677985,S02001932,S01010264
Glasgow Photography Group,SC016470,Glasgow City,G1 5HD,55.85699529,-4.24677985,S02001932,S01010264
Friends of Britannia Panopticon Music Hall Trust (SCIO),SC029031,Glasgow City,G1 5HD,55.85699529,-4.24677985,S02001932,S01010264
Glasgow Social Enterprise Network,SC047282,Glasgow City,G1 5HZ,55.85465486,-4.24944088,S02001932,S01010264
Join The Dots,SC049430,Glasgow City,G1 5HZ,55.85465486,-4.24944088,S02001932,S01010264
Greyfriars Biophilic Community Garden,SC050973,Glasgow City,G1 1DJ,55.85944896,-4.24628233,S02001932,S01010264
Hillhead Baptist Church,SC012806,Glasgow City,G12 0RR,55.88238435,-4.30126847,S02001950,S01010368
Toybox Lee Avenue,SC022669,Glasgow City,G12 0TP,55.88140278,-4.29559813,S02001950,S01010368
"St Johns Renfield Church of Scotland, Glasgow",SC012920,Glasgow City,G12 0NY,55.88533891,-4.30811161,S02001950,S01010365
The Mackintosh Choir,SC049999,Glasgow City,G12 0NY,55.88533891,-4.30811161,S02001950,S01010365
Antonine Court Ltd,SC013047,Glasgow City,G15 8LH,55.90959863,-4.37600578,S02001976,S01010499
Pollokshaws Congregation Of Jehovahs Witnesses,SC013060,Glasgow City,G44 5PN,55.81755806,-4.23298044,S02001884,S01009995
Drumchapel United Free Church,SC013137,Glasgow City,G15 6JX,55.90575742,-4.34949946,S02001972,S01010478
St James Pollok Parish Church Of Scotland: Glasgow,SC013313,Glasgow City,G46 8UN,55.79933288,-4.3325843,S02001842,S01009761
Dennistoun Baptist Church,SC013423,Glasgow City,G31 2SB,55.85960594,-4.21482668,S02001930,S01010249
Glasgow Grace Church,SC049489,Glasgow City,G31 2SB,55.85960594,-4.21482668,S02001930,S01010249
Dennistoun Baptist Church SCIO,SC050135,Glasgow City,G31 2SB,55.85960594,-4.21482668,S02001930,S01010249
"Pollokshields Church of Scotland, Glasgow",SC013690,Glasgow City,G52 3AR,55.83979411,-4.33738755,S02001850,S01009808
"Glasgow Cathedral (St Mungo's or High), Church of Scotland",SC013966,Glasgow City,G41 4HQ,55.84073701,-4.29736876,S02001863,S01009879
KOOK SKOOL,SC050003,Glasgow City,G41 4PA,55.8428614,-4.29719062,S02001863,S01009879
Pollokshields Community Food Point,SC050835,Glasgow City,G41 5HA,55.84235208,-4.29125048,S02001863,S01009879
Ellisland Meeting Room Trust,SC014020,Glasgow City,G43 2TF,55.81291407,-4.28420458,S02001876,S01009950
Possobilities Limited,SC014288,Glasgow City,G22 5ST,55.88525428,-4.25106742,S02001942,S01010323
Childrens Summer Camp Association,SC015573,Glasgow City,G22 5LQ,55.88456945,-4.25214709,S02001942,S01010323
The DASH Club,SC031921,Glasgow City,G22 5LQ,55.88456945,-4.25214709,S02001942,S01010323
Cook N' Care Limited,SC034636,Glasgow City,G22 5ST,55.88525428,-4.25106742,S02001942,S01010323
Young Peoples Futures,SC038053,Glasgow City,G22 5LQ,55.88456945,-4.25214709,S02001942,S01010323
Possilpark People's Trust,SC048052,Glasgow City,G22 5LQ,55.88456945,-4.25214709,S02001942,S01010323
The Grove Christian Centre SCIO,SC014571,Glasgow City,G22 5EP,55.88267447,-4.25403601,S02001924,S01010224
Hamiltonhill Claypits Local Nature Reserve Management Group (HCLNR),SC048186,Glasgow City,G22 5EP,55.88267447,-4.25403601,S02001924,S01010224
Shettleston Baptist Church,SC014742,Glasgow City,G32 9NH,55.84115004,-4.14667721,S02001898,S01010074
67th Glasgow Scout Group,SC034522,Glasgow City,G32 9NQ,55.84305558,-4.14769273,S02001898,S01010074
Lodge St Columba No 729 Govan Benevolent & Annuity Fund,SC015148,Glasgow City,G41 2QB,55.83725855,-4.26930996,S02001868,S01009907
"Sherbrooke Mosspark Parish Church of Scotland, Glasgow",SC015155,Glasgow City,G41 5AD,55.84405526,-4.29919391,S02001863,S01009880
Sherbrooke Initiative Limited,SC039178,Glasgow City,G41 5AD,55.84405526,-4.29919391,S02001863,S01009880
Glasgow Ansar Ltd,SC050814,Glasgow City,G41 5PP,55.84707084,-4.29219918,S02001863,S01009880
Glasgow Building Preservation Trust,SC015443,Glasgow City,G31 1JF,55.85869334,-4.23001931,S02001931,S01010254
Wise Women,SC029107,Glasgow City,G31 1JF,55.85869334,-4.23001931,S02001931,S01010254
Market Gallery,SC030526,Glasgow City,G31 1QZ,55.85816154,-4.22215891,S02001931,S01010254
Glasgow Women's Voluntary Sector Network,SC041889,Glasgow City,G31 1JF,55.85869334,-4.23001931,S02001931,S01010254
Molendinar Park Housing Association,SC043725,Glasgow City,G31 1AD,55.85611601,-4.22792222,S02001931,S01010254
Panopticon Building Preservation Trust,SC048924,Glasgow City,G31 1JF,55.85869334,-4.23001931,S02001931,S01010254
St Rollox Church Of Scotland: Glasgow,SC015459,Glasgow City,G21 1RG,55.87494627,-4.23921623,S02001924,S01010222
St Rollox Community Outreach Project,SC035587,Glasgow City,G21 1RG,55.87494627,-4.23921623,S02001924,S01010222
Fair Deal,SC015513,Glasgow City,G45 0HR,55.80196751,-4.22241797,S02001881,S01009978
Castlemilk Relaxation Centre Ltd,SC023809,Glasgow City,G45 0ER,55.8044079,-4.21767412,S02001881,S01009978
Royal Philosophical Society of Glasgow,SC015557,Glasgow City,G1 5PY,55.85396875,-4.24173189,S02001891,S01010041
"Temple Anniesland Parish Church of Scotland, Glasgow",SC015579,Glasgow City,G13 1LE,55.89057605,-4.32495955,S02001970,S01010469
Carmunnock Heritage Society,SC015634,Glasgow City,G76 9BX,55.79068244,-4.23512665,S02001880,S01009972
Castlemilk Art Project,SC043208,Glasgow City,G45 0QA,55.79840738,-4.23635117,S02001880,S01009972
Linn Park RDA (SCIO),SC045979,Glasgow City,G44 5TA,55.80508183,-4.26158023,S02001880,S01009972
Mount Florida Congregation Of Jehovahs Witnesses,SC015798,Glasgow City,G44 4BN,55.81840369,-4.26096451,S02001886,S01010008
Glasgow Kings Park Congregation Of Jehovahs Witnesses,SC022591,Glasgow City,G44 4BN,55.81840369,-4.26096451,S02001886,S01010008
Shieldhall & Drumoyne United Free Church,SC015810,Glasgow City,G44 4QX,55.82225433,-4.24849592,S02001887,S01010012
9th Glasgow Scout Group,SC015936,Glasgow City,G11 7PR,55.87533001,-4.31893207,S02001955,S01010394
"St Pauls Church of Scotland: Provanmill, Glasgow",SC016306,Glasgow City,G33 2BH,55.87037965,-4.1893377,S02001916,S01010173
Glasgow Old Peoples Flats Ltd,SC016562,Glasgow City,G3 7NB,55.86566399,-4.27876637,S02001935,S01010280
North Area Transport Association,SC035615,Glasgow City,G3 7PQ,55.86604864,-4.27303506,S02001935,S01010280
Hyndland Secondary School Fund,SC016644,Glasgow City,G12 9RQ,55.8770364,-4.30992094,S02001956,S01010400
Airlie Arts And Recreation For The Community - Aarc,SC033156,Glasgow City,G12 9RQ,55.8770364,-4.30992094,S02001956,S01010400
"Garthamlock and Craigend Parish Church of Scotland, Glasgow",SC016862,Glasgow City,G33 5PU,55.87954188,-4.15858103,S02001915,S01010167
"Tron St Marys Parish Church of Scotland, Glasgow",SC017015,Glasgow City,G21 3JW,55.88638998,-4.20672604,S02001920,S01010201
Elpis Trust,SC017103,Glasgow City,G20 9RQ,55.88848381,-4.27436299,S02001941,S01010315
St Davids Parish Church Of Scotland: Glasgow,SC017297,Glasgow City,G12 0BB,55.88825835,-4.31823211,S02001970,S01010467
"Yoker Parish Church of Scotland, Glasgow",SC017408,Glasgow City,G13 4HX,55.89576423,-4.37891864,S02001965,S01010446
Leithland Neighbourhood Centre Management Committee,SC017617,Glasgow City,G53 5SR,55.83115244,-4.35552053,S02001849,S01009805
Crookston Community Group SCIO,SC043162,Glasgow City,G53 5TF,55.83290285,-4.36032146,S02001849,S01009805
Scottish International Tramway Association,SC017844,Glasgow City,G51 4PZ,55.8610525,-4.3329913,S02001855,S01009838
Temple / Shafton Youth Project,SC018291,Glasgow City,G13 1AX,55.89777595,-4.33298857,S02001971,S01010471
The Hut,SC050002,Glasgow City,G13 1AX,55.89777595,-4.33298857,S02001971,S01010471
Pollokshaws Methodist Church,SC018463,Glasgow City,G41 2AF,55.83627386,-4.27298971,S02001868,S01009908
The Strathbungo Society,SC038276,Glasgow City,G41 2AF,55.83627386,-4.27298971,S02001868,S01009908
Langside Hall Trust,SC044244,Glasgow City,G41 2AZ,55.83595858,-4.2735143,S02001868,S01009908
Mackintosh Trust,SC018477,Glasgow City,G12 8LG,55.87479087,-4.2862713,S02001952,S01010377
Mount Florida Mother & Toddler Group,SC018855,Glasgow City,G42 9AN,55.82802155,-4.25355508,S02001887,S01010014
The Womens Unit,SC046781,Glasgow City,G42 9AL,55.82777938,-4.25548905,S02001887,S01010014
Centre Playgroup,SC018857,Glasgow City,G32 9LE,55.84418453,-4.13964054,S02001899,S01010079
Sandyhills Youth Outreach (SCIO),SC048368,Glasgow City,G32 9JW,55.8459691,-4.14347656,S02001899,S01010079
Kingsridge Cleddans Economic Development Group,SC018886,Glasgow City,G15 8LB,55.91711288,-4.3792344,S02001976,S01010497
Phoenix Hall Management Committee,SC026677,Glasgow City,G15 8JH,55.91843961,-4.3789476,S02001976,S01010497
Drumchapel L.I.F.E.,SC033068,Glasgow City,G15 8JH,55.91843961,-4.3789476,S02001976,S01010497
Kingsridge Cleddans Housing Association Limited,SC038236,Glasgow City,G15 8LB,55.91711288,-4.3792344,S02001976,S01010497
Drumhub (SCIO),SC046156,Glasgow City,G15 8HU,55.91780195,-4.37938866,S02001976,S01010497
Drumchapel Baptist Church SCIO,SC049683,Glasgow City,G15 8HR,55.91882935,-4.37924357,S02001976,S01010497
G15 Youth Project (SCIO),SC050397,Glasgow City,G15 8LB,55.91711288,-4.3792344,S02001976,S01010497
Geeza Break,SC019637,Glasgow City,G31 4ST,55.85106329,-4.19754929,S02001894,S01010051
Parkhead Housing Association Ltd,SC030908,Glasgow City,G31 4TF,55.85001696,-4.19675532,S02001894,S01010051
Dalmarnock Youth Project (SCIO),SC050057,Glasgow City,G31 4TB,55.85024326,-4.19817399,S02001894,S01010051
North United Communities Limted,SC019872,Glasgow City,G20 9NF,55.88903164,-4.26561527,S02001942,S01010327
T.A.S.K. Childcare Service,SC020098,Glasgow City,G5 0JY,55.84317157,-4.24240399,S02001889,S01010023
Sparcs SCIO,SC042880,Glasgow City,G5 0JZ,55.84369924,-4.2425462,S02001889,S01010023
Mel-Milaap Community Centre,SC020356,Glasgow City,G12 8HQ,55.87459696,-4.28122418,S02001952,S01010376
Association of Indian Organisations,SC037053,Glasgow City,G12 8HQ,55.87459696,-4.28122418,S02001952,S01010376
Larkfield Centre Management Committee,SC020409,Glasgow City,G42 7AY,55.84078364,-4.25699301,S02001890,S01010033
Twisty Headed Man Company,SC021585,Glasgow City,G42 7AF,55.84040194,-4.2596702,S02001890,S01010033
Glasgow SE Foodbank,SC043981,Glasgow City,G42 7AT,55.84060798,-4.2577495,S02001890,S01010033
East Africa Community Centre of Glasgow,SC045063,Glasgow City,G5 9RR,55.8446164,-4.26215118,S02001890,S01010033
Al Khalil College,SC046900,Glasgow City,G5 9SS,55.84610577,-4.25886708,S02001890,S01010033
Barlanark Out-Of-School Care Service,SC020561,Glasgow City,G33 4RZ,55.8574982,-4.13374132,S02001908,S01010130
The Redeemed Christian Church Of God - The Throne Of Grace Church,SC049798,Glasgow City,G33 4PD,55.86093849,-4.12657909,S02001908,S01010130
Milnbank Residents Social Club,SC020855,Glasgow City,G31 3DQ,55.86383207,-4.2132134,S02001928,S01010240
Milnbank Housing Association Limited,SC039891,Glasgow City,G31 3DQ,55.86383207,-4.2132134,S02001928,S01010240
Helenslea Community Hall SCIO,SC020865,Glasgow City,G31 4RB,55.84605129,-4.19133988,S02001896,S01010067
The Urban Fox Programme,SC049613,Glasgow City,G31 4RB,55.84605129,-4.19133988,S02001896,S01010067
Distinctive Dance Academy (SCIO),SC051285,Glasgow City,G31 4RB,55.84605129,-4.19133988,S02001896,S01010067
Firhill Community Trust,SC020952,Glasgow City,G20 7HH,55.87702287,-4.2666741,S02001939,S01010304
Firhill Community Trust SCIO  ,SC047132,Glasgow City,G20 7HH,55.87702287,-4.2666741,S02001939,S01010304
Glasgow Minds,SC048792,Glasgow City,G20 7YE,55.87693408,-4.27100149,S02001939,S01010304
Easterhouse Baptist Church,SC021229,Glasgow City,G69 6DW,55.8546973,-4.10749633,S02001903,S01010101
"Barlanark Greyfriars Parish Church of Scotland, Glasgow",SC025730,Glasgow City,G69 6NG,55.85603699,-4.10483663,S02001903,S01010101
Kings Park Baptist Church,SC021235,Glasgow City,G53 7ZD,55.80297614,-4.36112647,S02001844,S01009774
Jhankar Beats SCIO,SC046024,Glasgow City,G53 7ZJ,55.80367903,-4.35915837,S02001844,S01009774
Rainbow Pre-School Trust,SC021997,Glasgow City,G42 8QD,55.83566856,-4.27121361,S02001868,S01009909
Toonspeak Young People's Theatre,SC022150,Glasgow City,G21 3ET,55.88313962,-4.19801906,S02001917,S01010185
Barmulloch Community Development Company Limited,SC036648,Glasgow City,G21 3ET,55.88313962,-4.19801906,S02001917,S01010185
Barmulloch Tenants and  Residents Association,SC040903,Glasgow City,G21 3ET,55.88313962,-4.19801906,S02001917,S01010185
Gap Childcare Services,SC022174,Glasgow City,G42 8JL,55.83601624,-4.25868107,S02001865,S01009887
Laurieston Fifty Plus Group,SC022272,Glasgow City,G5 9NS,55.84742047,-4.25824046,S02001890,S01010034
New Gorbals Housing Association Limited,SC041164,Glasgow City,G5 9AY,55.84811648,-4.25165104,S02001890,S01010034
Uplifted ,SC050542,Glasgow City,G5 9QS,55.84976967,-4.25756198,S02001890,S01010034
Women's Destiny (SCIO),SC050621,Glasgow City,G5 9QL,55.84966711,-4.25629392,S02001890,S01010034
Pollokshaws After School Service - PASS,SC022278,Glasgow City,G43 1QN,55.82170095,-4.2997904,S02001873,S01009937
South West Community Cycles,SC037799,Glasgow City,G43 1AT,55.82378843,-4.30398486,S02001873,S01009937
St Cadocs Youth Club (SCIO),SC046797,Glasgow City,G43 1QQ,55.82289635,-4.2978653,S02001873,S01009937
East Pollokshields Mobile Creche,SC022461,Glasgow City,G41 1NX,55.84529536,-4.27455476,S02001863,S01009875
Pollokshields Development Agency,SC033424,Glasgow City,G41 2NT,55.84360085,-4.27189997,S02001863,S01009875
Castlemilk Youth Complex Limited,SC022534,Glasgow City,G45 0EQ,55.80474407,-4.226422,S02001882,S01009981
Cassiltoun Trust,SC030310,Glasgow City,G45 0AZ,55.80792458,-4.22151277,S02001882,S01009981
Jeely Piece Club,SC035027,Glasgow City,G45 0AL,55.8091821,-4.22155251,S02001882,S01009981
Cassiltoun Housing Association Limited,SC035544,Glasgow City,G45 0AZ,55.80792458,-4.22151277,S02001882,S01009981
Cassiltoun Stables Nursery Limited,SC043312,Glasgow City,G45 0AZ,55.80792458,-4.22151277,S02001882,S01009981
Friends Of Glasgow Botanic Gardens,SC022622,Glasgow City,G12 0UE,55.87816333,-4.28953929,S02001951,S01010370
Glasgow Repertory Company,SC032541,Glasgow City,G12 0UE,55.87816333,-4.28953929,S02001951,S01010370
Garnethill Multicultural Centre,SC022645,Glasgow City,G3 6RE,55.86625904,-4.26161956,S02001933,S01010271
Central and West Integration Network,SC042071,Glasgow City,G3 6RE,55.86625904,-4.26161956,S02001933,S01010271
The Willow Tea Rooms Trust,SC044931,Glasgow City,G2 3EX,55.86493824,-4.26111125,S02001933,S01010271
Central and West Integration Network SCIO,SC047341,Glasgow City,G3 6RE,55.86625904,-4.26161956,S02001933,S01010271
Tell it slant SCIO,SC050949,Glasgow City,G3 6ST,55.86612226,-4.26074854,S02001933,S01010271
St. Matthew's Centre,SC022919,Glasgow City,G22 6LJ,55.88748455,-4.25736935,S02001942,S01010328
Depot Arts,SC034257,Glasgow City,G22 6LJ,55.88748455,-4.25736935,S02001942,S01010328
Concrete Garden,SC043154,Glasgow City,G22 6LJ,55.88748455,-4.25736935,S02001942,S01010328
BOOM! Community Arts,SC047339,Glasgow City,G22 6LJ,55.88748455,-4.25736935,S02001942,S01010328
East Pollokshields Out Of School Care,SC023161,Glasgow City,G41 2NA,55.84226541,-4.27461734,S02001864,S01009886
Cadder Out Of School Service,SC023343,Glasgow City,G23 5AR,55.89721815,-4.28124054,S02001947,S01010351
Nigerian Muslim Community Scotland (SCIO),SC047944,Glasgow City,G20 0SL,55.89367256,-4.27954492,S02001947,S01010351
House For An Art Lover,SC023443,Glasgow City,G41 5BW,55.84736589,-4.31387908,S02001858,S01009852
Beauty with a Conscience,SC048569,Glasgow City,G41 5BW,55.84736589,-4.31387908,S02001858,S01009852
Darnley After School Service,SC023474,Glasgow City,G53 7LA,55.80856993,-4.34027091,S02001843,S01009765
Rickshaw SCIO,SC044324,Glasgow City,G53 7PG,55.80927489,-4.33581256,S02001843,S01009765
Broomhill Church Toddler Group,SC023715,Glasgow City,G11 7JL,55.87859096,-4.32139689,S02001959,S01010419
Buddies Out Of School Care,SC023718,Glasgow City,G32 0LL,55.85535206,-4.15580106,S02001909,S01010136
Glasgow Girls FC,SC042605,Glasgow City,G32 0LL,55.85535206,-4.15580106,S02001909,S01010136
Curam Centre,SC023759,Glasgow City,G3 8DS,55.86153786,-4.27492895,S02001935,S01010277
West of Scotland Development Education Centre,SC038691,Glasgow City,G3 8DS,55.86153786,-4.27492895,S02001935,S01010277
Crescendo,SC045755,Glasgow City,G3 8DS,55.86153786,-4.27492895,S02001935,S01010277
The Pyramid at Anderston,SC048144,Glasgow City,G3 8DS,55.86153786,-4.27492895,S02001935,S01010277
Parkhead Youth Project,SC023784,Glasgow City,G31 5EX,55.85192843,-4.192885,S02001894,S01010049
Baillieston Community Care,SC026213,Glasgow City,G31 5EX,55.85192843,-4.192885,S02001894,S01010049
Playbusters Ltd,SC036982,Glasgow City,G31 5EX,55.85192843,-4.192885,S02001894,S01010049
"Friends Of The Centre For Integrative Care, Glasgow",SC023842,Glasgow City,G12 9JP,55.8770562,-4.3026318,S02001956,S01010401
Hyndland Toddler Group,SC031613,Glasgow City,G12 9JA,55.87677793,-4.30597267,S02001956,S01010401
Glasgow East Women's Aid,SC023938,Glasgow City,G34 9PB,55.86930056,-4.11853297,S02001906,S01010117
Glasgow East Arts Company Limited,SC034201,Glasgow City,G34 9JW,55.86799012,-4.11895708,S02001906,S01010117
Strathclyde Wing Hong Elderly Group,SC024177,Glasgow City,G3 6UA,55.86750064,-4.26691834,S02001933,S01010268
Friends of Garnethill Green Spaces,SC047621,Glasgow City,G3 6UA,55.86750064,-4.26691834,S02001933,S01010268
St Mirins After School Club,SC024377,Glasgow City,G45 0NA,55.81307873,-4.21728958,S02001882,S01009982
Carnwadric After School Service,SC024405,Glasgow City,G46 8EQ,55.80981874,-4.32371553,S02001874,S01009940
Rainbow Friendship Centre Limited,SC027182,Glasgow City,G46 8HP,55.81100552,-4.32416933,S02001874,S01009940
Harvey Fields Charitable Trust,SC024482,Glasgow City,G41 1HJ,55.85231789,-4.27777716,S02001861,S01009867
Ola After School Care,SC025244,Glasgow City,G41 1HJ,55.85231789,-4.27777716,S02001861,S01009867
Conradh na Gaeilge (The Gaelic League),SC037084,Glasgow City,G41 1HU,55.85284731,-4.27927807,S02001861,S01009867
The Glasgow Festival of Food & Drink,SC045457,Glasgow City,G41 1HJ,55.85231789,-4.27777716,S02001861,S01009867
Glasgow City Boxing Club [SCIO],SC047473,Glasgow City,G41 1EJ,55.85156467,-4.28204685,S02001861,S01009867
Kingston Gymnastics Club,SC048486,Glasgow City,G41 1SB,55.8510497,-4.28557947,S02001861,S01009867
Buddies Club & Services (Glasgow West) Ltd,SC024503,Glasgow City,G13 1TX,55.88449029,-4.34727036,S02001958,S01010409
Zia Ul Quran (Muslim Cultural & Educational Trust),SC024510,Glasgow City,G41 2QX,55.83908949,-4.27382488,S02001864,S01009885
Blairdardie Out Of School Service - Boss,SC024917,Glasgow City,G15 6HL,55.90147369,-4.35778318,S02001973,S01010487
Drumchapel United Football Club,SC046303,Glasgow City,G15 6RF,55.90342865,-4.35988567,S02001973,S01010487
Drumchapel United Football Club Ltd,SC051037,Glasgow City,G15 6RF,55.90342865,-4.35988567,S02001973,S01010487
Church Buildings Renewal Trust,SC025005,Glasgow City,G3 8AU,55.86305252,-4.28388735,S02001936,S01010283
My Brother,SC050742,Glasgow City,G3 8AU,55.86305252,-4.28388735,S02001936,S01010283
Butterfly Nursery Scotland,SC025264,Glasgow City,G46 8BQ,55.80498538,-4.32835847,S02001842,S01009760
SAPC Community Sports Hub SCIO,SC049199,Glasgow City,G46 8PY,55.79979409,-4.32532004,S02001842,S01009760
Govan Youth Summer Programme Coordinating Committee,SC025296,Glasgow City,G51 2AJ,55.86086962,-4.30359141,S02001859,S01009859
Riverside Hall ,SC033490,Glasgow City,G51 2AJ,55.86086962,-4.30359141,S02001859,S01009859
Priesthill United Reformed Church,SC025351,Glasgow City,G53 7SZ,55.83475902,-4.37222012,S02001849,S01009804
Holy Cross Out Of School Care,SC025455,Glasgow City,G42 7NH,55.83630745,-4.25505666,S02001866,S01009895
Glasgow Taxi Outing Fund,SC025522,Glasgow City,G21 1HT,55.87657576,-4.24695189,S02001924,S01010221
Lifelink,SC025643,Glasgow City,G51 1DR,55.85320295,-4.28819844,S02001861,S01009866
Glasgow Science Centre Endowment Fund,SC029705,Glasgow City,G51 1EA,55.85381282,-4.28439961,S02001861,S01009866
Multi-Cultural Elderly Care Centre,SC026036,Glasgow City,G3 8QJ,55.86434332,-4.29662106,S02001936,S01010284
Clydeside Initiative For Arts Limited,SC037703,Glasgow City,G3 8QG,55.86466011,-4.29938874,S02001936,S01010284
Battlefield Primary After School Care Association,SC026055,Glasgow City,G42 9SY,55.82454542,-4.27102813,S02001872,S01009930
Glendale Estate Charitable Trust,SC026327,Glasgow City,G33 1NS,55.89235536,-4.18417825,S02001918,S01010193
"Little Sisters of the Poor, Glasgow SCIO",SC047370,Glasgow City,G33 1QT,55.89383999,-4.18509338,S02001918,S01010193
Galgael Trust,SC026824,Glasgow City,G51 2SN,55.85302167,-4.30272741,S02001860,S01009862
Glasgow's Pre-Loved Uniforms (SCIO),SC050048,Glasgow City,G51 1HJ,55.85390038,-4.29177058,S02001860,S01009862
New Rhythms For Glasgow,SC026957,Glasgow City,G21 3AE,55.88805619,-4.23045637,S02001923,S01010217
African Challenge Scotland,SC046055,Glasgow City,G21 3AN,55.88969483,-4.23079029,S02001923,S01010217
Knightswood Secondary School Fund,SC027548,Glasgow City,G13 2XD,55.89058894,-4.33756297,S02001971,S01010477
Knightswood Baptist Church SCIO ,SC049233,Glasgow City,G13 2XL,55.89385667,-4.34107042,S02001971,S01010477
50th (St Helens) Glasgow Scout Group,SC027833,Glasgow City,G46 8NU,55.80852084,-4.31867477,S02001874,S01009943
Carnwadric Community Hall SCIO,SC044628,Glasgow City,G46 8PS,55.81000797,-4.32035923,S02001874,S01009943
Coach House Trust,SC028182,Glasgow City,G12 8EN,55.87593936,-4.28250196,S02001951,S01010371
Dear Green Flower Farm,SC046821,Glasgow City,G12 8DU,55.87635331,-4.28295791,S02001951,S01010371
Madrasa Taleem-Ul-Islam - Institute Of Islamic Studies,SC028261,Glasgow City,G41 5QS,55.84036977,-4.2789469,S02001869,S01009912
Pollokshields Heritage,SC030101,Glasgow City,G41 4LX,55.83812493,-4.2759247,S02001869,S01009912
2nd Glasgow Scout Group,SC031309,Glasgow City,G41 4PW,55.83898009,-4.27924889,S02001869,S01009912
159th Glasgow Scout Group,SC033310,Glasgow City,G41 5RQ,55.84161096,-4.27841259,S02001869,S01009912
Lanark Lanimer Committee,SC046546,Glasgow City,G41 4PY,55.84046005,-4.27989456,S02001869,S01009912
Pollokshaws Burgh Hall Trust,SC028576,Glasgow City,G43 1NE,55.825385,-4.29839528,S02001873,S01009935
Home-Start Glasgow South,SC030131,Glasgow City,G43 1NE,55.825385,-4.29839528,S02001873,S01009935
Pollokshaws Area Network,SC043728,Glasgow City,G43 1NP,55.82402925,-4.29687838,S02001873,S01009935
The African Heritage Center,SC046670,Glasgow City,G43 1SB,55.82436581,-4.29570078,S02001873,S01009935
Bridging The Gap (Gorbals Ecumenical Project),SC028657,Glasgow City,G5 0YT,55.84989563,-4.24724869,S02001889,S01010025
South Community Recovery Network SCIO,SC048793,Glasgow City,G5 0PQ,55.85078113,-4.24600572,S02001889,S01010025
Greater Pollok Enterprise Trust,SC029119,Glasgow City,G53 7NN,55.81159566,-4.36345217,S02001844,S01009768
South West Community Transport,SC040551,Glasgow City,G53 7NN,55.81159566,-4.36345217,S02001844,S01009768
South East Area Lifestyle Community Health Project,SC029273,Glasgow City,G5 0SE,55.8464219,-4.24553056,S02001889,S01010028
Calton Retirement Housing Tenants Association,SC029482,Glasgow City,G40 2HG,55.85460398,-4.23051996,S02001891,S01010038
Hollybrook School Fund,SC029678,Glasgow City,G42 7HU,55.83699559,-4.25330778,S02001866,S01009898
Andalus,SC029717,Glasgow City,G4 9PA,55.87033042,-4.26698737,S02001938,S01010297
Garscube Community Playrooms,SC032459,Glasgow City,G4 9SZ,55.87247688,-4.26218896,S02001938,S01010297
Friends Of Kelvingrove Park,SC033365,Glasgow City,G4 9AX,55.87055443,-4.26751193,S02001938,S01010297
Sir J Donald Pollock's Trust,SC043316,Glasgow City,G4 0JY,55.86947829,-4.25221623,S02001938,S01010297
Glasgow Tool Library,SC048071,Glasgow City,G4 9RH,55.87111119,-4.25923224,S02001938,S01010297
"Carnwadric Church of Scotland, Glasgow",SC030150,Glasgow City,G46 8LQ,55.81025415,-4.31445267,S02001874,S01009942
"Gairbraid Parish Church of Scotland, Glasgow",SC030168,Glasgow City,G20 0LR,55.89480726,-4.28572148,S02001948,S01010356
Jumping Jacks Outreach SCIO ,SC048418,Glasgow City,G20 0HD,55.89513175,-4.29773675,S02001948,S01010356
West Glasgow Against Poverty,SC030367,Glasgow City,G51 1LX,55.85178121,-4.29311568,S02001861,S01009869
Al-Huda Islamic Centre Glasgow,SC047529,Glasgow City,G51 1LU,55.85188194,-4.29205115,S02001861,S01009869
Madressa Alarabia Alislamia Mosque,SC030403,Glasgow City,G51 1PZ,55.85095461,-4.29984112,S02001862,S01009872
Kingsway Community Connections,SC030788,Glasgow City,G14 9SR,55.88361626,-4.35725957,S02001962,S01010427
PEEK - Possibilities for Each and Every Kid,SC030814,Glasgow City,G40 3LJ,55.84560231,-4.2074006,S02001894,S01010050
Glasgow North East Food Bank,SC045255,Glasgow City,G31 4NA,55.84816628,-4.19872766,S02001894,S01010050
Greater Pollok Citizens Advice Bureau,SC030910,Glasgow City,G53 6EW,55.82323049,-4.34490338,S02001845,S01009775
Ecole Enterprise,SC031498,Glasgow City,G41 5DB,55.84731579,-4.30266143,S02001862,S01009873
Craigdale Housing Association Limited,SC031879,Glasgow City,G45 9NS,55.80365818,-4.24166287,S02001881,S01009974
Gorbals Healthy Living Network,SC032373,Glasgow City,G5 9AT,55.85168041,-4.25530823,S02001890,S01010035
ScotSom Social Club,SC047837,Glasgow City,G5 9HR,55.85390857,-4.25877672,S02001890,S01010035
"Robroyston Church of Scotland, Glasgow",SC032401,Glasgow City,G33 1HG,55.89308176,-4.17716589,S02001918,S01010188
Life & Spirit Arena-(Assembly of God),SC050616,Glasgow City,G33 1PN,55.89800847,-4.17859364,S02001918,S01010188
Second Landing Association,SC032469,Glasgow City,G11 6RA,55.87080199,-4.31931746,S02001954,S01010391
Hyndland After School Club,SC032486,Glasgow City,G11 5LP,55.87352499,-4.30929671,S02001955,S01010396
ASRA,SC032513,Glasgow City,G20 6EZ,55.87457695,-4.27356552,S02001939,S01010308
Ardenglen Housing Association Limited,SC032542,Glasgow City,G45 0HF,55.8053701,-4.21415431,S02001882,S01009984
The Jenniburn Centre SCIO,SC047659,Glasgow City,G45 0HE,55.80580286,-4.21457783,S02001882,S01009984
Fab - For All Bridgeton,SC032940,Glasgow City,G40 4TN,55.84534624,-4.22510139,S02001892,S01010044
Whiteinch Community Association,SC032949,Glasgow City,G14 0UG,55.87348978,-4.33639112,S02001961,S01010424
Whiteinch & Scotstoun Housing Association Ltd,SC035633,Glasgow City,G14 0UG,55.87348978,-4.33639112,S02001961,S01010424
ARC Aftercare Recovery Community,SC046286,Glasgow City,G14 0UG,55.87348978,-4.33639112,S02001961,S01010424
North View Housing Association Limited,SC032963,Glasgow City,G45 9LY,55.80109619,-4.23626603,S02001881,S01009975
The Indigo Childcare Group,SC035442,Glasgow City,G45 9UR,55.79942568,-4.23620214,S02001881,S01009975
Birgidale Complex SCIO,SC047498,Glasgow City,G45 9LW,55.80080157,-4.23862657,S02001881,S01009975
72nd Glasgow Scout Group,SC033028,Glasgow City,G12 0AR,55.88653957,-4.32215945,S02001958,S01010413
First Glasgow Scout Group,SC033234,Glasgow City,G12 9DQ,55.87653571,-4.30018689,S02001952,S01010374
Gillian Purvis Trust,SC035602,Glasgow City,G12 9DG,55.87662007,-4.29952041,S02001952,S01010374
Friends of Glasgow Royal Infirmary SCIO,SC050180,Glasgow City,G12 9EQ,55.87503882,-4.29949085,S02001952,S01010374
Eros Musical Society,SC050284,Glasgow City,G12 9EG,55.87493315,-4.2988931,S02001952,S01010374
1st & 7th Cardonald Brownie Unit,SC033437,Glasgow City,G52 3BH,55.84365481,-4.34467983,S02001850,S01009807
Partick Housing Association Limited,SC033751,Glasgow City,G11 5QP,55.87143679,-4.30130799,S02001953,S01010382
Kids and Adults Together in Sighthill,SC033884,Glasgow City,G21 1RR,55.8740942,-4.23961478,S02001924,S01010219
Japanese Matsuri For Glasgow,SC034172,Glasgow City,G20 6HA,55.87423756,-4.27344976,S02001938,S01010298
The Joshi Project,SC050594,Glasgow City,G20 7XL,55.87373667,-4.27039912,S02001938,S01010298
Tir Conaill Harps Gaelic Athletic Club,SC034520,Glasgow City,G44 5ET,55.81016431,-4.24859648,S02001879,S01009965
98th Glasgow Company Girls Brigade,SC034603,Glasgow City,G20 6LR,55.88148041,-4.28127632,S02001941,S01010317
11th City Of Glasgow Brownie Pack - South West Division,SC034798,Glasgow City,G23 5NF,55.90670942,-4.28557391,S02001945,S01010345
Remember Mary Barbour Association,SC045201,Glasgow City,G23 5NN,55.9072268,-4.28190839,S02001945,S01010345
Summerston Childcare Limited,SC034825,Glasgow City,G23 5QA,55.90064478,-4.29271976,S02001946,S01010349
Glasgow International Piping Festival,SC034875,Glasgow City,G4 0HW,55.86721415,-4.25512195,S02001933,S01010270
Bridgeton Community Learning Campus Ltd,SC034940,Glasgow City,G40 4TL,55.84478824,-4.22216224,S02001893,S01010046
Finnart Football Academy SCIO,SC050583,Glasgow City,G40 4BJ,55.84386764,-4.22337161,S02001893,S01010046
KK Connecting Communities (SCIO),SC051299,Glasgow City,G40 4AL,55.83723841,-4.21371405,S02001893,S01010046
Sound Lab,SC034953,Glasgow City,G43 1UR,55.82228469,-4.28970305,S02001873,S01009934
EKTA Group- Elderly Care Forum,SC040007,Glasgow City,G43 2YT,55.81859572,-4.29425936,S02001873,S01009934
Connect Community Trust,SC035061,Glasgow City,G33 4HG,55.86169156,-4.13550542,S02001907,S01010118
Wellhouse Housing Association Limited,SC036552,Glasgow City,G33 4LA,55.86092494,-4.13514374,S02001907,S01010118
North Glasgow Healthy Living Community,SC035288,Glasgow City,G20 8YE,55.89078723,-4.29117858,S02001949,S01010360
Maryhill Burgh Halls Trust,SC036089,Glasgow City,G20 8YE,55.89078723,-4.29117858,S02001949,S01010360
The Village Storytelling Centre,SC035527,Glasgow City,G53 5DD,55.82834541,-4.34155468,S02001847,S01009790
Langton Activity Group SCIO,SC046182,Glasgow City,G53 5DD,55.82834541,-4.34155468,S02001847,S01009790
Glasgow Lunchtime Theatre,SC035858,Glasgow City,G12 8QX,55.8773897,-4.28909404,S02001952,S01010375
Glasgow Triathlon Club SCIO,SC049778,Glasgow City,G12 8BZ,55.87645888,-4.29033421,S02001952,S01010375
Glasgow Eco Trust,SC035954,Glasgow City,G14 0BL,55.87853986,-4.35341835,S02001963,S01010436
Heart of Scotstoun Limited,SC042792,Glasgow City,G14 0BL,55.87853986,-4.35341835,S02001963,S01010436
Movement Park (SCIO),SC045494,Glasgow City,G14 0BX,55.87418359,-4.34527333,S02001963,S01010436
Islamic Centre Scotstoun,SC045554,Glasgow City,G14 0HB,55.87603628,-4.35508937,S02001963,S01010436
The Oasis,SC035959,Glasgow City,G34 9QG,55.87332115,-4.12511412,S02001906,S01010113
Provanhall Housing Association Limited,SC037762,Glasgow City,G34 9QG,55.87332115,-4.12511412,S02001906,S01010113
YoMo Young Movers (SCIO),SC038030,Glasgow City,G34 9QN,55.87206359,-4.12507738,S02001906,S01010113
Healthy Active Promotion Of Positive Youngsters,SC039423,Glasgow City,G34 9QN,55.87206359,-4.12507738,S02001906,S01010113
95th Glasgow Company Girls Brigade,SC035982,Glasgow City,G71 7FR,55.84493936,-4.09896534,S02001901,S01010088
Southside Housing Association Limited,SC036009,Glasgow City,G51 4EB,55.85436156,-4.34879219,S02001855,S01009833
Euan Craig Foundation,SC044871,Glasgow City,G51 4XW,55.86069125,-4.34537084,S02001855,S01009833
Beatroute Arts,SC036099,Glasgow City,G21 3RP,55.89441493,-4.20024024,S02001919,S01010196
Cali Thistle Group ,SC045354,Glasgow City,G21 3PX,55.89079365,-4.20171446,S02001919,S01010196
North Glasgow Integration Network SCIO ,SC049542,Glasgow City,G21 3PX,55.89079365,-4.20171446,S02001919,S01010196
Somali Association In Glasgow,SC036133,Glasgow City,G42 7AA,55.84120531,-4.26339052,S02001864,S01009882
Hidden Gardens Trust,SC036881,Glasgow City,G41 2PE,55.84067837,-4.26711341,S02001864,S01009882
Govanhill Baths Community Trust,SC036162,Glasgow City,G42 7QP,55.8373555,-4.26209669,S02001865,S01009893
Govanhill Baths Building Preservation Trust,SC047333,Glasgow City,G42 7QP,55.8373555,-4.26209669,S02001865,S01009893
Friends Of Springburn Park,SC036374,Glasgow City,G21 3AQ,55.89073482,-4.22944262,S02001922,S01010209
Springburn Park Men's Shed,SC048953,Glasgow City,G21 3AY,55.89303259,-4.22811901,S02001922,S01010209
30th Glasgow Scout Group,SC036419,Glasgow City,G52 2HQ,55.84990944,-4.34660633,S02001851,S01009811
Puffin Care Services,SC036421,Glasgow City,G53 5QB,55.83242466,-4.34208738,S02001849,S01009799
59th Glasgow Company Girls Brigade,SC036424,Glasgow City,G22 7SD,55.8938048,-4.25431373,S02001943,S01010332
Cadder Housing Association Ltd,SC036455,Glasgow City,G23 5AE,55.89872539,-4.27653014,S02001945,S01010340
Yoker Housing Association Ltd,SC036604,Glasgow City,G14 0JS,55.8876501,-4.37696667,S02001964,S01010439
Shettleston Housing Association Limited,SC036687,Glasgow City,G32 7XR,55.85101801,-4.17227217,S02001911,S01010142
Shettleston Community Growing Project Ltd,SC045278,Glasgow City,G32 7XR,55.85101801,-4.17227217,S02001911,S01010142
North Glasgow Community Food Initiative,SC036842,Glasgow City,G22 7BT,55.89759919,-4.23994577,S02001944,S01010335
44th Glasgow Scouts,SC037150,Glasgow City,G12 0JS,55.8884775,-4.3056113,S02001950,S01010366
LINKES [SCIO],SC037175,Glasgow City,G13 3PP,55.89270915,-4.34987803,S02001969,S01010462
Ignite Theatre,SC044124,Glasgow City,G13 3PR,55.8925897,-4.35001476,S02001969,S01010462
Priesthill Community Hall,SC037188,Glasgow City,G53 6QL,55.81735408,-4.34858845,S02001845,S01009781
Cathcart & District Housing Association Limited,SC037255,Glasgow City,G44 3AZ,55.81600383,-4.26146377,S02001878,S01009964
In The Making Glasgow,SC037348,Glasgow City,G12 0LH,55.89016276,-4.31063711,S02001950,S01010364
DRC Generations,SC037534,Glasgow City,G14 9YS,55.88389839,-4.36082659,S02001963,S01010435
Salt and Light,SC043213,Glasgow City,G14 0EP,55.88559605,-4.36462369,S02001963,S01010435
Gardeen Housing Association Limited,SC037681,Glasgow City,G33 4UD,55.85675707,-4.12983389,S02001908,S01010123
Junction 12,SC037865,Glasgow City,G33 2RF,55.86939532,-4.18707651,S02001916,S01010175
Glasgow Royal Infirmary Dorcas Charitable Trust,SC037876,Glasgow City,G31 2ER,55.8638617,-4.22154157,S02001927,S01010234
Glasgow Accueil,SC038008,Glasgow City,G4 9HX,55.87345725,-4.27773633,S02001937,S01010292
Friends of Elder Park,SC040084,Glasgow City,G4 9HU,55.87331409,-4.2772164,S02001937,S01010292
Walmer Crescent Association,SC038063,Glasgow City,G51 1AT,55.85224169,-4.29541158,S02001861,S01009870
Sudanese Community In Glasgow,SC038100,Glasgow City,G33 1EF,55.88096177,-4.1896138,S02001917,S01010183
Pineview Housing Association Limited,SC038237,Glasgow City,G15 7QR,55.91210626,-4.35495629,S02001975,S01010495
St Andrews Methodist Church Milton,SC038419,Glasgow City,G22 7PS,55.90113869,-4.2582267,S02001943,S01010334
Lambhill Stables Ltd,SC038504,Glasgow City,G22 6RD,55.89720128,-4.26561177,S02001943,S01010334
59th South Glasgow Rainbow Unit,SC038458,Glasgow City,G41 3EP,55.82736904,-4.27968718,S02001872,S01009931
Clydebank Methodist Church,SC038543,Glasgow City,G11 7HA,55.88050701,-4.31653872,S02001959,S01010416
The Bullwood Project,SC038678,Glasgow City,G53 7NW,55.82891231,-4.36686604,S02001848,S01009796
Calvay Housing Association Limited,SC039234,Glasgow City,G33 4RE,55.85951173,-4.14302406,S02001908,S01010127
Hope Community Church Barlanark,SC047807,Glasgow City,G33 4QZ,55.85783532,-4.14329925,S02001908,S01010127
Cathcart Youth Ministry Partnership,SC039290,Glasgow City,G44 3JJ,55.81072358,-4.27194647,S02001878,S01009960
Tinto After School Care Club Association (Glasgow),SC039420,Glasgow City,G43 2XG,55.81721436,-4.29170378,S02001876,S01009953
80th Glasgow Scout Group,SC039756,Glasgow City,G13 2EH,55.89615177,-4.33948119,S02001972,S01010482
The Voices for Change Services User Network,SC039797,Glasgow City,G42 8AX,55.83321316,-4.25372771,S02001866,S01009897
Active Seniors,SC039798,Glasgow City,G13 3TR,55.89258977,-4.3608108,S02001968,S01010459
Drumchapel Caravan Project,SC039952,Glasgow City,G13 3DD,55.88987563,-4.35658369,S02001968,S01010458
Knightswood Community SCIO,SC044148,Glasgow City,G13 3DD,55.88987563,-4.35658369,S02001968,S01010458
East End Thistle Football Club,SC039998,Glasgow City,G69 7LW,55.84695206,-4.13035173,S02001900,S01010087
Langlands School Parent Council,SC040214,Glasgow City,G53 5SD,55.83366895,-4.35129698,S02001849,S01009803
Govanhill Family Support Group (Against Abuse - Drugs & Alcohol),SC040264,Glasgow City,G42 8DN,55.83426443,-4.26450425,S02001868,S01009905
The Well Multi-Cultural Resource Centre,SC042300,Glasgow City,G42 8DN,55.83426443,-4.26450425,S02001868,S01009905
207th Glasgow Guide & Ranger Unit,SC040292,Glasgow City,G15 6QQ,55.90406241,-4.3638599,S02001973,S01010485
ANYiSO SCIO,SC049959,Glasgow City,G15 6UZ,55.89993169,-4.36367253,S02001973,S01010485
Govan Church of the Nazarene,SC040309,Glasgow City,G51 4ND,55.85694294,-4.3340552,S02001855,S01009837
Park Villa Football Development SCIO ,SC045869,Glasgow City,G51 4JX,55.85984438,-4.33697792,S02001855,S01009837
Yorkhill Housing Association,SC040346,Glasgow City,G3 8TH,55.86584409,-4.28843055,S02001936,S01010286
Unity in the Community (Glasgow),SC040466,Glasgow City,G51 1AQ,55.85226758,-4.2973943,S02001860,S01009863
Tollcross Community Trust Ltd,SC040476,Glasgow City,G32 8PJ,55.84222615,-4.17748388,S02001896,S01010064
Glasgow Kurdish Community Association ,SC045612,Glasgow City,G32 8PJ,55.84222615,-4.17748388,S02001896,S01010064
The Gorbals Youth Run Drop In Cafe,SC040654,Glasgow City,G5 0QA,55.84955935,-4.24203708,S02001889,S01010026
Toryglen Community Base SCIO,SC040803,Glasgow City,G42 0LA,55.83106486,-4.23552719,S02001888,S01010019
Orchard Grove Kindergarten,SC045461,Glasgow City,G42 0LA,55.83106486,-4.23552719,S02001888,S01010019
Toryglen Community Youth Project SCIO,SC050646,Glasgow City,G42 0LA,55.83106486,-4.23552719,S02001888,S01010019
Blochairn Housing Association Ltd,SC040816,Glasgow City,G21 2ED,55.87132143,-4.21953797,S02001926,S01010229
Anioma Association Glasgow,SC050305,Glasgow City,G21 2HN,55.87087723,-4.22024791,S02001926,S01010229
Tollcross Housing Association Ltd,SC040876,Glasgow City,G32 8PF,55.84402572,-4.17787205,S02001896,S01010063
Sped Lead Tonderai Charity SCIO,SC048227,Glasgow City,G32 8UP,55.84385238,-4.17497117,S02001896,S01010063
The Govan Fair Association,SC040936,Glasgow City,G51 4LB,55.85953674,-4.34039524,S02001855,S01009836
The Old Govan Fair SCIO,SC050116,Glasgow City,G51 4LB,55.85953674,-4.34039524,S02001855,S01009836
Cranhill Area Association,SC040997,Glasgow City,G33 3EQ,55.86548172,-4.1726003,S02001914,S01010157
Igbo Women Association Glasgow,SC046577,Glasgow City,G33 3DZ,55.86402905,-4.17394154,S02001914,S01010157
Castlemilk Gardening Association,SC041104,Glasgow City,G45 9PG,55.80013197,-4.24331102,S02001880,S01009971
Townhead Village Hall,SC041113,Glasgow City,G4 0PL,55.86521227,-4.24023814,S02001932,S01010262
St Mungo's Older People's Centre for Wellbeing SCIO,SC049081,Glasgow City,G4 0AR,55.86585103,-4.23773368,S02001932,S01010262
North Kelvin Meadow Campaign,SC041346,Glasgow City,G20 8PS,55.88251435,-4.28464686,S02001941,S01010322
Easterhouse Phoenix Development Limited,SC041471,Glasgow City,G34 9LJ,55.86478542,-4.10775514,S02001904,S01010107
Friends of Possilpark Greenspace ,SC041661,Glasgow City,G4 9TR,55.87617185,-4.25527373,S02001924,S01010220
Glasgow Watersports,SC043262,Glasgow City,G4 9XP,55.87294354,-4.24603866,S02001924,S01010220
Kilmahew/St Peter's Limited ,SC045643,Glasgow City,G4 9SS,55.87691075,-4.25761876,S02001924,S01010220
Love Milton,SC041756,Glasgow City,G22 7EY,55.90154562,-4.24137312,S02001944,S01010336
Oatlands Development Trust,SC042239,Glasgow City,G5 0JB,55.84119935,-4.24163553,S02001888,S01010022
South Seeds SCIO,SC042244,Glasgow City,G42 8BG,55.83417249,-4.26607991,S02001868,S01009910
South East Integration Network,SC043708,Glasgow City,G42 8BH,55.83408666,-4.26537225,S02001868,S01009910
David Dale Gallery and Studios,SC042289,Glasgow City,G40 2QR,55.85108018,-4.22261732,S02001894,S01010055
First Steps Future Training Limited,SC043879,Glasgow City,G40 2QR,55.85108018,-4.22261732,S02001894,S01010055
Merry Go Round Glasgow,SC042448,Glasgow City,G43 2JP,55.81890245,-4.27144953,S02001877,S01009955
Greater Grace Apostolic Ministry International (SCIO),SC046424,Glasgow City,G44 3DJ,55.81572503,-4.26879019,S02001877,S01009955
Friends of Drummore,SC042521,Glasgow City,G14 0AE,55.87569467,-4.34474098,S02001961,S01010425
St Paul's Youth Forum SCIO,SC042570,Glasgow City,G33 1DL,55.87742315,-4.19200445,S02001917,S01010181
Dennistoun Sports Trust,SC042962,Glasgow City,G31 2BD,55.86002244,-4.22013982,S02001930,S01010251
The Bluevale Community Club SCIO,SC050232,Glasgow City,G31 2BD,55.86002244,-4.22013982,S02001930,S01010251
Hebron Christian Assembly - Glasgow,SC043122,Glasgow City,G52 2EJ,55.84928084,-4.35222404,S02001851,S01009812
Friends of Rosshall Park and Gardens,SC043282,Glasgow City,G52 3ND,55.84324108,-4.36487779,S02001852,S01009818
3rd Cardonald Rainbow Unit,SC046896,Glasgow City,G52 2PN,55.84614483,-4.36203491,S02001852,S01009818
Noble Arts Amateur Boxing Club,SC043408,Glasgow City,G53 7QQ,55.81340227,-4.36718502,S02001845,S01009779
Glasgow MENA Cultural and Welfare Trust,SC043481,Glasgow City,G4 0BZ,55.86726891,-4.24278604,S02001932,S01010261
Go Fun Hill,SC043527,Glasgow City,G42 7SA,55.8381845,-4.26393365,S02001865,S01009891
Govanhill Baths Community Benefit Society Limited,SC047885,Glasgow City,G42 7RA,55.83788999,-4.2638207,S02001865,S01009891
Dennistoun Community Charity Shop,SC043598,Glasgow City,G31 2TF,55.8629382,-4.21444105,S02001927,S01010238
Glasgow Urban Sports,SC043709,Glasgow City,G3 6LQ,55.87093871,-4.27396025,S02001937,S01010293
Glasgow Perthshire Communities,SC043844,Glasgow City,G52 1LQ,55.83961244,-4.32373634,S02001858,S01009855
The Glasgow School of Art Students Association,SC044061,Glasgow City,G3 6PE,55.86718799,-4.26437475,S02001933,S01010266
Thenue Communities,SC044082,Glasgow City,G40 1AG,55.85169798,-4.23316533,S02001892,S01010042
Kindness Homeless Street Team Glasgow SCIO,SC050935,Glasgow City,G40 1AG,55.85169798,-4.23316533,S02001892,S01010042
Pollok United SCIO,SC044127,Glasgow City,G52 1RU,55.83631822,-4.33253137,S02001858,S01009854
Corkerhill Neighbourhood Hall (SCIO),SC049027,Glasgow City,G52 1RZ,55.83497601,-4.32984781,S02001858,S01009854
Carnwadric WIN Project,SC044527,Glasgow City,G46 8JG,55.81468575,-4.31537027,S02001874,S01009941
Friends of Linburn,SC044550,Glasgow City,G52 4EX,55.85449691,-4.36704778,S02001853,S01009823
"The Croft (Visitors' Support and Advice Centre, HMP Barlinnie) SCIO",SC044589,Glasgow City,G33 2QW,55.86834509,-4.1910453,S02001916,S01010176
Glasgow Kelvin Learning Foundation SCIO,SC044632,Glasgow City,G21 4TD,55.88047843,-4.2290463,S02001921,S01010208
Springburn Winter Garden Trust,SC044954,Glasgow City,G21 1RX,55.87862691,-4.23400831,S02001921,S01010208
Interfaith Glasgow ,SC046525,Glasgow City,G21 4BF,55.87973298,-4.23050646,S02001921,S01010208
Craigend Community Youth Group,SC044761,Glasgow City,G33 5PQ,55.87678103,-4.16021829,S02001915,S01010168
Friends of Ashton,SC049543,Glasgow City,G33 3SW,55.87782112,-4.16342556,S02001915,S01010168
Riverside Stroke Support Group,SC044901,Glasgow City,G42 7LJ,55.83768029,-4.25125518,S02001866,S01009896
Shettleston Mens Shed,SC045115,Glasgow City,G32 7EH,55.85251555,-4.17906606,S02001911,S01010146
Glasgow South West Foodbank ,SC045121,Glasgow City,G41 3PT,55.82603548,-4.28712936,S02001870,S01009922
West End Street Pastors (Glasgow),SC045281,Glasgow City,G61 1HR,55.89973823,-4.32285236,S02001970,S01010466
Melville-Knox Christian School Glasgow,SC045287,Glasgow City,G13 3YL,55.8898805,-4.34598063,S02001969,S01010464
Masjid Noor,SC045334,Glasgow City,G41 2TA,55.84122587,-4.27056344,S02001864,S01009883
Awaz - The Voice of the Community,SC045589,Glasgow City,G41 2SE,55.84290518,-4.26917585,S02001864,S01009883
The Children's Wood,SC045378,Glasgow City,G20 6AP,55.88076358,-4.28067464,S02001951,S01010373
The Glad Foundation,SC045444,Glasgow City,G41 2HG,55.83197404,-4.27853547,S02001870,S01009921
Glad Radio SCIO,SC048177,Glasgow City,G41 2HG,55.83197404,-4.27853547,S02001870,S01009921
in the Main,SC045611,Glasgow City,G42 0DL,55.82609186,-4.23568887,S02001888,S01010017
The Kitchen Table SCIO,SC045730,Glasgow City,G32 7NN,55.85229028,-4.17656106,S02001912,S01010147
Shettleston Juniors Kids Academy,SC047010,Glasgow City,G32 7HN,55.85367182,-4.17416183,S02001912,S01010147
Kings Croft Community Group,SC045823,Glasgow City,G44 5RD,55.81715617,-4.2397575,S02001884,S01009993
Castlecroft Residents Association,SC045928,Glasgow City,G44 5PE,55.81784621,-4.23047481,S02001884,S01009997
World of Film International Festival Glasgow (WoFF) (SCIO),SC046116,Glasgow City,G12 8AU,55.87740974,-4.29139744,S02001957,S01010407
Welfare and Relief Fund,SC046132,Glasgow City,G3 7AD,55.86426193,-4.2724512,S02001935,S01010281
Friends of Queens Park Glasgow,SC046206,Glasgow City,G42 9QL,55.82860079,-4.26946023,S02001867,S01009904
"Birth, Baby & Beyond SCIO",SC046217,Glasgow City,G13 1EU,55.89900254,-4.33039078,S02001971,S01010472
Drumchapel Housing Co-operative Limited,SC046239,Glasgow City,G15 7SP,55.91229929,-4.36176896,S02001975,S01010493
Clyde Community Hall,SC046362,Glasgow City,G51 2YB,55.85257005,-4.30140651,S02001860,S01009865
Marian Action,SC046410,Glasgow City,G21 4EJ,55.8790693,-4.22049186,S02001921,S01010203
Cloud Water Zen,SC046443,Glasgow City,G41 2JQ,55.83952842,-4.27244498,S02001864,S01009884
East Pollokshields Quad,SC048118,Glasgow City,G41 2JA,55.83866979,-4.27221918,S02001864,S01009884
Glasgow Live Productions,SC046459,Glasgow City,G12 9AU,55.87759142,-4.29466963,S02001957,S01010406
The Mosaic SCIO,SC046554,Glasgow City,G14 9HW,55.87943898,-4.34351182,S02001962,S01010431
Wee Heroes,SC046566,Glasgow City,G12 9SU,55.88043915,-4.31106646,S02001958,S01010412
Glasgow Mid-Argyll Shinty Club SCIO,SC051156,Glasgow City,G12 9XP,55.88194691,-4.30543183,S02001958,S01010412
Opera Bohemia ,SC046576,Glasgow City,G14 9NL,55.87769009,-4.33101577,S02001960,S01010421
Red Sea Community of Glasgow,SC046816,Glasgow City,G20 7NT,55.87480852,-4.26344365,S02001939,S01010303
Ethiopian Community in Scotland Charity Organisation ,SC047143,Glasgow City,G41 5NS,55.84235775,-4.31016314,S02001862,S01009874
People Without Labels,SC047196,Glasgow City,G40 1PE,55.85393832,-4.23748005,S02001891,S01010040
Dream Machine SCIO,SC050868,Glasgow City,G40 1PE,55.85393832,-4.23748005,S02001891,S01010040
136th Glasgow Brownie Unit,SC047219,Glasgow City,G42 9UY,55.82565535,-4.27419029,S02001872,S01009929
43rd (1st Cathcart) Scouts,SC047340,Glasgow City,G44 5AL,55.81569129,-4.25107024,S02001886,S01010010
The Pollokshields Trust,SC047413,Glasgow City,G41 1SU,55.84444186,-4.27015997,S02001864,S01009881
Hogganfield Community Trust,SC047689,Glasgow City,G33 1BP,55.88214636,-4.18262931,S02001918,S01010186
Lenzie Benevolent Society SCIO,SC047694,Glasgow City,G3 8HB,55.86003397,-4.28091358,S02001935,S01010276
The Glendale Women's Cafe Project (SCIO),SC047774,Glasgow City,G43 1JU,55.81800412,-4.30378652,S02001873,S01009938
Glasgow's No.1 Baby & Family Support Service,SC047779,Glasgow City,G21 2AR,55.87529609,-4.20892603,S02001926,S01010228
House of Praise Glasgow,SC051254,Glasgow City,G21 3HA,55.87926255,-4.20274017,S02001926,S01010228
Rail 74 Community Rail Partnership,SC048000,Glasgow City,G42 9QZ,55.8250039,-4.26810114,S02001867,S01009901
My Church,SC048253,Glasgow City,G52 1PG,55.84183008,-4.33287755,S02001850,S01009806
The Kinning Park Complex,SC048399,Glasgow City,G41 1BA,55.85057894,-4.28721339,S02001861,S01009868
Amaanah Project SCIO,SC049068,Glasgow City,G51 1NE,55.85219715,-4.28815528,S02001861,S01009868
Whiterose Administration & Social Centre (SCIO),SC048578,Glasgow City,G31 5LP,55.85075999,-4.18582157,S02001895,S01010057
ALL CHRISTIANS' FELLOWSHIP INTERNATIONAL GLASGOW,SC050474,Glasgow City,G31 5AT,55.84990227,-4.18856919,S02001895,S01010057
The Alive and Kicking (SCIO),SC048582,Glasgow City,G21 4PH,55.8810268,-4.21110632,S02001921,S01010207
Baltic Street Adventure Playground SCIO ,SC048684,Glasgow City,G40 3EU,55.84250538,-4.21369405,S02001893,S01010048
South Glasgow Childcare Partnership Forum SCIO ,SC048859,Glasgow City,G5 0SS,55.84619414,-4.24668357,S02001889,S01010030
Green Door Theatre,SC048933,Glasgow City,G12 0TG,55.87991979,-4.29704547,S02001957,S01010405
Friends of St Vincent Crescent Conservation Area SCIO,SC048955,Glasgow City,G3 8NQ,55.86397069,-4.29009435,S02001936,S01010287
Back to SchoolBank Glasgow South,SC049067,Glasgow City,G41 3DD,55.82659027,-4.27320703,S02001872,S01009928
Free Church of Scotland (Continuing) Congregation Knightswood,SC049083,Glasgow City,G46 8AY,55.79967965,-4.32804166,S02001842,S01009758
Pollok Baptist Church (SCIO),SC049168,Glasgow City,G53 5YZ,55.83984817,-4.35527989,S02001849,S01009802
Holyword City Church Glasgow,SC049218,Glasgow City,G21 4XA,55.88373639,-4.22382851,S02001922,S01010211
Brighter Baillieston SCIO,SC049281,Glasgow City,G69 6DY,55.85100849,-4.11140244,S02001901,S01010093
The Cuppa Club,SC049409,Glasgow City,G5 8BH,55.85389295,-4.2635372,S02001890,S01010032
ANGLICAN MISSIONARY CONGREGATIONS,SC051126,Glasgow City,G5 8BJ,55.85394015,-4.26243748,S02001890,S01010032
Standing Together  Against Mental Health and Adversity,SC049453,Glasgow City,G52 1HB,55.84666628,-4.3266655,S02001858,S01009856
The Halliday Foundation,SC049526,Glasgow City,G40 3NY,55.84831675,-4.2113886,S02001894,S01010054
Sports Council For Glasgow,SC046373,Glasgow City,G40 3NY,55.84831675,-4.2113886,S02001894,S01010054
Park Sports Project (SCIO),SC049545,Glasgow City,G3 7ER,55.86344522,-4.27579163,S02001935,S01010278
Launch Foods Foundation,SC049694,Glasgow City,G2 7JL,55.86170928,-4.2636883,S02001934,S01010272
LoveDougalston SCIO,SC050793,Glasgow City,G2 7JL,55.86170928,-4.2636883,S02001934,S01010272
Langside Sports Club,SC049764,Glasgow City,G43 2HA,55.82133913,-4.27187894,S02001877,S01009958
Ajyal School,SC049816,Glasgow City,G41 5JR,55.84647838,-4.29023133,S02001862,S01009871
Cathcart Baptist Church SCIO,SC049892,Glasgow City,G43 2RA,55.81402642,-4.27170804,S02001878,S01009961
The Well Community Church (Crookston Castle) (SCIO),SC049962,Glasgow City,G53 5YR,55.83740958,-4.35449353,S02001849,S01009800
First Step Group,SC049984,Glasgow City,G33 3TJ,55.87302941,-4.16453373,S02001916,S01010177
Growing21 Ltd,SC051092,Glasgow City,G33 3TJ,55.87302941,-4.16453373,S02001916,S01010177
Divine Restoration Church,SC050102,Glasgow City,G53 7FY,55.82943782,-4.35963244,S02001848,S01009794
The Nan McKay Community Hall SCIO,SC050140,Glasgow City,G41 5SR,55.84568424,-4.28170212,S02001863,S01009876
The Learning to Understand Needs and Abilities Project,SC050148,Glasgow City,G11 5NJ,55.87192135,-4.30566871,S02001953,S01010385
Clyde Amateur Rowing Club,SC050168,Glasgow City,G1 5QA,55.85183613,-4.24384582,S02001891,S01010039
Nepalese Southside community Glasgow,SC050219,Glasgow City,G42 0EB,55.82685611,-4.23715376,S02001888,S01010018
Spiral - Creative Arts Therapies,SC050289,Glasgow City,G12 0QU,55.8875614,-4.3007754,S02001950,S01010367
Every Nation Church Glasgow SCIO,SC050308,Glasgow City,G42 8BW,55.8327848,-4.26334829,S02001867,S01009903
The Minerva Club (SCIO),SC050369,Glasgow City,G20 6UQ,55.87307009,-4.27096766,S02001938,S01010300
Community Spirit,SC050503,Glasgow City,G13 4LT,55.89833396,-4.37570072,S02001965,S01010443
Inspiring the Next...,SC050521,Glasgow City,G33 5ES,55.87174287,-4.14871716,S02001915,S01010166
Easterhouse Football Academy,SC050875,Glasgow City,G33 5ER,55.87135796,-4.15222848,S02001915,S01010166
Christ Ambassadors Community Church of God,SC050727,Glasgow City,G33 5HR,55.87615362,-4.14677072,S02001906,S01010115
Black Women in Action,SC050778,Glasgow City,G52 3HJ,55.84366539,-4.34977616,S02001852,S01009816
Sharpen Her: the African Women's Network.,SC050897,Glasgow City,G21 3AB,55.8884237,-4.22951794,S02001922,S01010210
Hillview Islamic & Education Centre (SCIO),SC050933,Glasgow City,G32 7BQ,55.85022593,-4.17539121,S02001911,S01010145
Glasgow City Youth Network,SC050972,Glasgow City,G53 7BY,55.82967565,-4.36876475,S02001848,S01009792
Bellahouston Harriers,SC051051,Glasgow City,G41 4SN,55.83730745,-4.31251474,S02001869,S01009913
Eastend Empowering Stars,SC051066,Glasgow City,G31 2HE,55.8633934,-4.22159474,S02001927,S01010236
New Life United Pentecostal Church Trust,SC051113,Glasgow City,G31 5JL,55.85405626,-4.19199831,S02001912,S01010148
Greenview Church,SC051209,Glasgow City,G41 3RQ,55.82801488,-4.29232318,S02001873,S01009936
Socialise SCIO,SC051218,Glasgow City,G31 2DP,55.8610724,-4.22569707,S02001930,S01010253
The Gowanbank Hub (SCIO),SC051260,Glasgow City,G53 6SD,55.81548269,-4.35854798,S02001846,S01009785
Open Sports Academy (SCIO),SC048733,Glasgow City,G53 7JP,55.80839504,-4.35366641,S02001844,S01009769
Shettleston Community Sports Trust SCIO,SC050638,Glasgow City,G32 7JW,55.85310614,-4.16598189,S02001910,S01010140
