Name,Charity Number,Local authority,Postcode,Latitude,Longitude,IntermediateZone2011Code,DataZone2011Code
Trinity Gask and Kinkell Church (Church of Scotland),SC000004,Perth and Kinross,PH3 1EB,56.32314449,-3.72417149,S02002227,S01011871
Mid Strathearn Church of Scotland,SC002209,Perth and Kinross,PH7 3PN,56.36424428,-3.68372585,S02002227,S01011871
Aberuthven Village Hall Trust,SC002344,Perth and Kinross,PH3 1HB,56.31900446,-3.65550677,S02002227,S01011871
Auchterarder Rainbows Unit,SC035809,Perth and Kinross,PH3 1NJ,56.30002697,-3.74640274,S02002227,S01011871
Auchterarder And District Community Trust,SC038904,Perth and Kinross,PH3 1GW,56.32248157,-3.64812165,S02002227,S01011871
Girlguiding Blairgowrie and Rattray District,SC048314,Perth and Kinross,PH3 1NJ,56.30002697,-3.74640274,S02002227,S01011871
Perthshire Art Association,SC000045,Perth and Kinross,PH2 7DA,56.39474962,-3.41170909,S02002240,S01011945
Perth: Craigie and Moncreiffe Church of Scotland,SC001330,Perth and Kinross,PH2 7EU,56.40249881,-3.41687345,S02002240,S01011945
Perth St Leonard's-in-the-Fields Church of Scotland,SC002919,Perth and Kinross,PH2 7BS,56.39681013,-3.40987356,S02002240,S01011945
Perth Street Pastors ,SC039619,Perth and Kinross,PH2 7BZ,56.39825264,-3.40231181,S02002240,S01011945
Ardler Kettins & Meigle Parish Church Of Scotland,SC000098,Perth and Kinross,PH10 7DY,56.59622923,-3.31927938,S02002248,S01011987
Rattray Parish Church of Scotland,SC000323,Perth and Kinross,PH10 7DG,56.59575924,-3.32629879,S02002248,S01011987
Blairgowrie Congregation Of Jehovahs Witnesses,SC006048,Perth and Kinross,PH10 7DX,56.59731993,-3.3214836,S02002248,S01011987
Kinclaven Church of Scotland,SC009251,Perth and Kinross,PH10 7DB,56.59418993,-3.3285401,S02002248,S01011987
Blairgowrie Evangelical Church,SC000136,Perth and Kinross,PH10 6HN,56.59418162,-3.34020051,S02002249,S01011992
St Catharines Episcopal Church: Blairgowrie,SC003473,Perth and Kinross,PH10 6EY,56.59290261,-3.34132777,S02002249,S01011992
Friends of Blairgowrie Community Hospital,SC004061,Perth and Kinross,PH10 6SY,56.59386347,-3.34802271,S02002249,S01011992
"Blairgowrie, Rattray & District Local History Trust",SC019703,Perth and Kinross,PH10 6HL,56.59447806,-3.34187218,S02002249,S01011992
Blairgowrie Parish Church Of Scotland,SC033757,Perth and Kinross,PH10 6HL,56.59447806,-3.34187218,S02002249,S01011992
Perth Grammar Community Trust,SC040178,Perth and Kinross,PH10 6SY,56.59386347,-3.34802271,S02002249,S01011992
The Macmillan Gift Shop Association,SC040203,Perth and Kinross,PH10 6EZ,56.59317471,-3.34192369,S02002249,S01011992
Blairgowrie and Rattray Community Football Club ,SC046291,Perth and Kinross,PH10 6DE,56.59195852,-3.34139203,S02002249,S01011992
Blairgowrie Stroke Club,SC046341,Perth and Kinross,PH10 6HP,56.59103048,-3.34246649,S02002249,S01011992
Blairgowrie Town Hall Association (SCIO),SC028287,Perth and Kinross,PH10 6EX,56.59255392,-3.34116885,S02002249,S01011992
Ardoch Parish Church Of Scotland,SC000139,Perth and Kinross,FK15 9PL,56.26154648,-3.88087041,S02002222,S01011848
University Of The Third Age (Perth) - U3a Perth,SC008302,Perth and Kinross,FK15 9LG,56.29183193,-3.84369042,S02002222,S01011848
Braco and Greenloaning Babies and Toddlers Group,SC022965,Perth and Kinross,FK15 9QJ,56.2643298,-3.87984442,S02002222,S01011848
Live Active Leisure Limited,SC000175,Perth and Kinross,PH1 5HS,56.40193989,-3.43655666,S02002238,S01011936
Home-Start Perth and Kinross LTD,SC000986,Perth and Kinross,PH1 5PP,56.39854445,-3.43492191,S02002238,S01011936
Perth And Kinross Association Of Voluntary Service Limited,SC005561,Perth and Kinross,PH1 5PP,56.39854445,-3.43492191,S02002238,S01011936
St Marys Episcopal Church: Kirriemuir,SC005902,Perth and Kinross,PH1 5HJ,56.40147562,-3.43785167,S02002238,S01011936
Crossroads (Perth & Kinross) Care Attendant Scheme,SC009521,Perth and Kinross,PH1 5PP,56.39854445,-3.43492191,S02002238,S01011936
St Ninian's Cathedral,SC010656,Perth and Kinross,PH1 5PP,56.39854445,-3.43492191,S02002238,S01011936
The Y Centre Limited,SC031185,Perth and Kinross,PH1 5LW,56.39890889,-3.42826013,S02002238,S01011936
Friends Of Perth & Kinross Archive,SC031537,Perth and Kinross,PH1 5HJ,56.40147562,-3.43785167,S02002238,S01011936
St Columba's Episcopal Church Stanley,SC037076,Perth and Kinross,PH1 5HJ,56.40147562,-3.43785167,S02002238,S01011936
Perth Tennis Club,SC044375,Perth and Kinross,PH1 5HS,56.40193989,-3.43655666,S02002238,S01011936
"Support, Help and Integration in Perthshire (SCIO)",SC047929,Perth and Kinross,PH1 5PP,56.39854445,-3.43492191,S02002238,S01011936
Perth Road Runners,SC048512,Perth and Kinross,PH1 5HS,56.40193989,-3.43655666,S02002238,S01011936
19th Perth Rainbow unit,SC050699,Perth and Kinross,PH1 5HJ,56.40147562,-3.43785167,S02002238,S01011936
Perth Cathedral Operatic Group,SC000193,Perth and Kinross,PH1 3JJ,56.40747195,-3.48710216,S02002233,S01011908
"Kinnoull Parish Church of Scotland, Perth",SC007509,Perth and Kinross,PH1 2SS,56.40434061,-3.48147027,S02002233,S01011908
Alyth Parish Church Of Scotland,SC000540,Perth and Kinross,PH11 8HB,56.62092179,-3.22227585,S02002246,S01011978
Alyth Halls Committee,SC017148,Perth and Kinross,PH11 8AR,56.61892743,-3.23317878,S02002246,S01011978
Alyth Friends of Guiding,SC042487,Perth and Kinross,PH11 8AW,56.61840568,-3.2305218,S02002246,S01011978
Abernethy and Dron and Arngarsk Church of Scotland,SC000586,Perth and Kinross,PH2 9PF,56.27732264,-3.40212961,S02002228,S01011879
Glenfarg Tennis Club,SC045991,Perth and Kinross,PH2 9PD,56.26899854,-3.39769123,S02002228,S01011879
Bridge of Earn Community Football Club (SCIO),SC046347,Perth and Kinross,PH2 9PG,56.27728392,-3.40078765,S02002228,S01011879
Richmond House Crieff,SC000685,Perth and Kinross,PH7 4AF,56.37799425,-3.8409523,S02002225,S01011863
Crieff Choral Group,SC013427,Perth and Kinross,PH7 3LR,56.37965321,-3.82721738,S02002225,S01011863
Braidhaugh Pavilion Trust,SC036918,Perth and Kinross,PH7 3DH,56.37858949,-3.83474583,S02002225,S01011863
Strathearn ArtSpace SCIO,SC044319,Perth and Kinross,PH7 4AX,56.37397858,-3.84330094,S02002225,S01011863
Crieff Community Trust,SC044348,Perth and Kinross,PH7 4BE,56.37578073,-3.84296694,S02002225,S01011863
Grandtully And Strathtay Hall And Park Association,SC000743,Perth and Kinross,PH9 0PJ,56.65826546,-3.78250052,S02002253,S01012013
All Saints Episcopal Church,SC003117,Perth and Kinross,PH16 5NQ,56.70202521,-3.96690784,S02002253,S01012013
Grantully Logierait & Strathtay Church Of Scotland,SC004275,Perth and Kinross,PH9 0PJ,56.65826546,-3.78250052,S02002253,S01012013
Aberfeldy Parish Church of Scotland,SC007899,Perth and Kinross,PH15 2JW,56.6253154,-3.86166809,S02002253,S01012013
Friends of Pitlochry Community Hospital (formerly The Friends of Irvine Memorial Hospital),SC011485,Perth and Kinross,PH9 0LR,56.64920111,-3.81469476,S02002253,S01012013
Breadalbane Stay and Play,SC016138,Perth and Kinross,PH15 2AP,56.62282645,-3.86765798,S02002253,S01012013
Episcopal Church Of St Andrew (Strathtay),SC017058,Perth and Kinross,PH15 2QS,56.64600086,-3.79558916,S02002253,S01012013
Kynachan Hall Trust,SC034142,Perth and Kinross,PH16 5NQ,56.70202521,-3.96690784,S02002253,S01012013
Highland Perthshire Communities Partnership,SC041120,Perth and Kinross,PH9 0LR,56.64920111,-3.81469476,S02002253,S01012013
Mid Atholl Strings and Things,SC041809,Perth and Kinross,PH9 0PY,56.64630168,-3.72152506,S02002253,S01012013
The Heartland Radio Foundation Limited ,SC045946,Perth and Kinross,PH9 0LR,56.64920111,-3.81469476,S02002253,S01012013
Aberfeldy Community First Responders Group SCIO  ,SC047017,Perth and Kinross,PH15 2JW,56.6253154,-3.86166809,S02002253,S01012013
Pegasus Vaulting Group (SCIO),SC048535,Perth and Kinross,PH16 5NE,56.70109234,-3.74937589,S02002253,S01012013
The Aberfeldy Sports Club,SC050641,Perth and Kinross,PH15 2JW,56.6253154,-3.86166809,S02002253,S01012013
Glassie Bike Park,SC051276,Perth and Kinross,PH15 2JN,56.63122114,-3.8675185,S02002253,S01012013
Luncarty Under 5's,SC000904,Perth and Kinross,PH1 3FY,56.45228493,-3.46412527,S02002251,S01012005
Redgorton and Stanley Parish Church - Church of Scotland,SC010629,Perth and Kinross,PH1 3UT,56.45106306,-3.46639842,S02002251,S01012005
Langlands Park Recreational Association,SC031797,Perth and Kinross,PH1 3YX,56.45139944,-3.46378292,S02002251,S01012005
Breathe Easy Perthshire,SC049477,Perth and Kinross,PH1 3EZ,56.45414668,-3.46473237,S02002251,S01012005
Friends Of Crieff Hospital,SC001090,Perth and Kinross,PH7 3HR,56.37045686,-3.84264511,S02002226,S01011870
Perth & Kinross Society For The Blind,SC001152,Perth and Kinross,PH1 5QA,56.39576472,-3.43598381,S02002239,S01011943
Mindspace Limited,SC002072,Perth and Kinross,PH2 8EH,56.39532014,-3.44022797,S02002239,S01011943
King James VI Hospital Trust,SC004717,Perth and Kinross,PH2 8HP,56.39491564,-3.43481777,S02002239,S01011943
Push (Perth & Kinross) Limited,SC005006,Perth and Kinross,PH1 5NX,56.39575202,-3.43475203,S02002239,S01011943
Trinity Church Of The Nazarene,SC006554,Perth and Kinross,PH2 8EP,56.39552032,-3.43691428,S02002239,S01011943
Scones Lethendy Mortification,SC015545,Perth and Kinross,PH2 8HP,56.39491564,-3.43481777,S02002239,S01011943
Perth Autism Support,SC042875,Perth and Kinross,PH1 5QH,56.39619654,-3.43671294,S02002239,S01011943
The Lighthouse for Perth,SC046186,Perth and Kinross,PH1 5QW,56.39643871,-3.43519911,S02002239,S01011943
Culture Perth and Kinross Limited,SC046353,Perth and Kinross,PH2 8EP,56.39552032,-3.43691428,S02002239,S01011943
Perth Autism Support SCIO,SC048183,Perth and Kinross,PH1 5QH,56.39619654,-3.43671294,S02002239,S01011943
Fowlis Wester Village Hall Committee,SC001195,Perth and Kinross,PH7 3NL,56.39696284,-3.73956264,S02002224,S01011857
Innerpeffray Mortification,SC013843,Perth and Kinross,PH7 3RF,56.34697333,-3.76888846,S02002224,S01011857
Friends Of Innerpeffray Library-Foil,SC023545,Perth and Kinross,PH7 3QW,56.35819008,-3.79372004,S02002224,S01011857
Creative Crieff,SC049788,Perth and Kinross,PH7 3QW,56.35819008,-3.79372004,S02002224,S01011857
Perth Ladies Clothing Society,SC001253,Perth and Kinross,PH1 1ED,56.39554467,-3.47991346,S02002233,S01011904
Perth Indigent Old Womens Society,SC004623,Perth and Kinross,PH1 1ED,56.39554467,-3.47991346,S02002233,S01011904
Fair City Singers Association,SC021087,Perth and Kinross,PH1 1SP,56.39362461,-3.48793923,S02002233,S01011904
5th Perth Brownie Unit,SC035829,Perth and Kinross,PH1 1SP,56.39362461,-3.48793923,S02002233,S01011904
27th Perth Brownie Unit,SC039218,Perth and Kinross,PH1 1SP,56.39362461,-3.48793923,S02002233,S01011904
Dull and Weem Parish Church of Scotland,SC001465,Perth and Kinross,PH15 2JF,56.62224398,-3.92821542,S02002253,S01012016
Foss and Rannoch Church of Scotland,SC006570,Perth and Kinross,PH16 5PY,56.69864344,-4.18231702,S02002253,S01012016
Kinloch Rannoch Village Hall Trust,SC035480,Perth and Kinross,PH16 5PZ,56.69775105,-4.18708375,S02002253,S01012016
The Struan Trust,SC047336,Perth and Kinross,PH18 5UE,56.74635293,-3.99454021,S02002253,S01012016
Rannoch Community Trust Limited,SC047620,Perth and Kinross,PH16 5PQ,56.70211899,-4.1865368,S02002253,S01012016
Inchture Playgroup,SC001467,Perth and Kinross,PH14 9RQ,56.44360631,-3.16938959,S02002243,S01011961
Perth Civic Trust,SC001531,Perth and Kinross,PH1 1NN,56.39686471,-3.46408682,S02002232,S01011902
Young Musicians Parents Association,SC003208,Perth and Kinross,PH1 1LX,56.39767512,-3.46317821,S02002232,S01011902
Perth Congregational Church,SC014847,Perth and Kinross,PH1 1LU,56.39907369,-3.46191944,S02002232,S01011902
Kings House Perth,SC034987,Perth and Kinross,PH1 1JL,56.39454984,-3.46532643,S02002232,S01011902
1st Perth Rangers,SC036715,Perth and Kinross,PH1 1JZ,56.39695213,-3.46809205,S02002232,S01011902
Auchterarder Parish Church Of Scotland,SC001688,Perth and Kinross,PH3 1LP,56.28948842,-3.73412722,S02002223,S01011856
Riding For The Disabled Association Auchterarder Group,SC028646,Perth and Kinross,PH3 1LE,56.28910107,-3.73483675,S02002223,S01011856
2nd Auchterarder Rainbow Unit,SC047863,Perth and Kinross,PH3 1LU,56.29265931,-3.72326688,S02002223,S01011856
Auchterarder and District Men's Shed,SC051028,Perth and Kinross,PH3 1NY,56.29061954,-3.73099539,S02002223,S01011856
Oakbank Community Association,SC001763,Perth and Kinross,PH1 1DG,56.38799906,-3.45851455,S02002232,S01011901
Perthshire Women's Aid,SC010181,Perth and Kinross,PH2 0PF,56.38572956,-3.46581368,S02002232,S01011901
Fairview School Parent Council ,SC048530,Perth and Kinross,PH1 1DF,56.38963754,-3.46205994,S02002232,S01011901
Vale of Atholl Pipers Association SCIO,SC049396,Perth and Kinross,PH1 1HG,56.38917492,-3.46319231,S02002232,S01011901
Comrie Parish Church of Scotland,SC001878,Perth and Kinross,PH6 2HE,56.36828453,-3.98337127,S02002224,S01011858
Comrie Community Bus Trust - Co-Co Bus,SC010271,Perth and Kinross,PH6 2HB,56.36923309,-3.98418157,S02002224,S01011858
St Serfs Episcopal Church: Comrie,SC016377,Perth and Kinross,PH6 2JR,56.37359135,-4.00150876,S02002224,S01011858
Comrie Mother & Toddler Group,SC020484,Perth and Kinross,PH6 2EG,56.37075403,-3.98460068,S02002224,S01011858
5th Perthshire (Crieff) Scout Group,SC035973,Perth and Kinross,PH6 2HF,56.36768464,-3.97817511,S02002224,S01011858
Dr William Henderson Mortification,SC001906,Perth and Kinross,PH1 5TR,56.39576458,-3.42587418,S02002239,S01011941
Guildry Incorporation of Perth,SC008072,Perth and Kinross,PH1 5JL,56.39774505,-3.42789249,S02002239,S01011941
Thomas Barclay Trust,SC010054,Perth and Kinross,PH1 5TR,56.39576458,-3.42587418,S02002239,S01011941
Perth: St Matthew's Church of Scotland,SC016829,Perth and Kinross,PH1 5LQ,56.39748378,-3.42639212,S02002239,S01011941
St John's Kirk of Perth (Church of Scotland),SC017132,Perth and Kinross,PH1 5SZ,56.39619824,-3.42879046,S02002239,S01011941
CheckIn Works,SC041642,Perth and Kinross,PH2 8PD,56.39506118,-3.42921769,S02002239,S01011941
Friends of St John's Kirk of Perth (SCIO),SC047919,Perth and Kinross,PH1 5SZ,56.39619824,-3.42879046,S02002239,S01011941
Caputh and Clunie Church of Scotland,SC001957,Perth and Kinross,PH1 4LF,56.56111565,-3.43610864,S02002250,S01011999
Spittalfield Village Committee Lyle Bequest,SC009784,Perth and Kinross,PH1 4JX,56.55144624,-3.45017189,S02002250,S01011999
Caputh Hall,SC010976,Perth and Kinross,PH1 4JN,56.55603938,-3.46990396,S02002250,S01011999
Dundee Spinners' Trust,SC048556,Perth and Kinross,PH1 4LF,56.56111565,-3.43610864,S02002250,S01011999
Perth Model Lodging House Association,SC002164,Perth and Kinross,PH1 5PE,56.39720755,-3.43475819,S02002239,S01011942
Perth and Kinross Heritage Trust,SC003139,Perth and Kinross,PH1 5QP,56.39767008,-3.43516444,S02002239,S01011942
Perth Citizens Advice Bureau,SC003259,Perth and Kinross,PH1 5NG,56.39917877,-3.43134876,S02002239,S01011942
William Steuart Benevolent Fund,SC012882,Perth and Kinross,PH1 5PE,56.39720755,-3.43475819,S02002239,S01011942
"Perth North, Church of Scotland",SC013014,Perth and Kinross,PH1 5PB,56.3967991,-3.43356009,S02002239,S01011942
Churches Action For The Homeless,SC021740,Perth and Kinross,PH1 5PA,56.39652929,-3.43358235,S02002239,S01011942
Isabella Low Alexander Education Trust,SC028090,Perth and Kinross,PH1 5PE,56.39720755,-3.43475819,S02002239,S01011942
William Stewart's Trust,SC030776,Perth and Kinross,PH1 5PE,56.39720755,-3.43475819,S02002239,S01011942
Perth and Kinross Foodbank,SC044158,Perth and Kinross,PH1 5HY,56.39718474,-3.43206781,S02002239,S01011942
St James Episcopal Church: Muthill,SC002176,Perth and Kinross,PH3 1AD,56.29541546,-3.7091866,S02002223,S01011854
Mailler & Whitelaw Trustees,SC006632,Perth and Kinross,PH3 1AD,56.29541546,-3.7091866,S02002223,S01011854
St Kessog's Episcopal Church - Auchterarder,SC010854,Perth and Kinross,PH3 1FD,56.29563428,-3.7109093,S02002223,S01011854
Auchterarder Community Sports and Recreation,SC048490,Perth and Kinross,PH3 1BG,56.29581964,-3.70985104,S02002223,S01011854
Auchterarder Community Bus Group (ACBuG) ,SC048669,Perth and Kinross,PH3 1JH,56.2932668,-3.71770329,S02002223,S01011854
Friends of St Margarets SCIO,SC049734,Perth and Kinross,PH3 1JH,56.2932668,-3.71770329,S02002223,S01011854
Tay Ghillies Association,SC029645,Perth and Kinross,PH3 1AG,56.29594974,-3.71473714,S02002223,S01011854
Perth: Letham St Mark's Church of Scotland,SC002467,Perth and Kinross,PH1 2HH,56.40220763,-3.46816478,S02002234,S01011915
Kids of Letham Association - Kola,SC029435,Perth and Kinross,PH1 2HX,56.40189616,-3.46790972,S02002234,S01011915
Letham 4 All SCIO,SC048289,Perth and Kinross,PH1 2DQ,56.4007568,-3.46319924,S02002234,S01011915
Perth & District Pipe Band,SC002641,Perth and Kinross,PH2 6QQ,56.42313794,-3.39465107,S02002241,S01011952
Scone Remembers SCIO,SC044799,Perth and Kinross,PH2 6GB,56.41845639,-3.39387991,S02002241,S01011952
Methven Community Centre,SC002832,Perth and Kinross,PH1 3QB,56.41699339,-3.57540019,S02002251,S01012003
King George Memorial Field Committee,SC009367,Perth and Kinross,PH1 3PU,56.41604276,-3.57808423,S02002251,S01012003
Methven and Logiealmond Church of Scotland,SC010807,Perth and Kinross,PH1 3PU,56.41604276,-3.57808423,S02002251,S01012003
Craigie Playgroup,SC012515,Perth and Kinross,PH1 3ST,56.41656486,-3.57447468,S02002251,S01012003
Girlguiding Perth & Kinross,SC002886,Perth and Kinross,PH2 8JD,56.39329545,-3.43506462,S02002239,S01011938
Made in Perth,SC044155,Perth and Kinross,PH2 8JB,56.3925502,-3.43424279,S02002239,S01011938
Perth Samaritans SCIO,SC048125,Perth and Kinross,PH2 8AA,56.39233763,-3.43475319,S02002239,S01011938
Perth & Kinross District Scout Council,SC002926,Perth and Kinross,PH1 1QQ,56.39633874,-3.48188848,S02002233,S01011905
Perth Toy Library,SC011908,Perth and Kinross,PH1 1DL,56.39602482,-3.48033713,S02002233,S01011905
Struan Road Community Hall Association ,SC047614,Perth and Kinross,PH1 1SU,56.39476209,-3.48824283,S02002233,S01011905
Perth Baptist Church SCIO,SC051277,Perth and Kinross,PH1 1QQ,56.39633874,-3.48188848,S02002233,S01011905
St Marys Episcopal Church: Dunkeld,SC003109,Perth and Kinross,PH8 0DP,56.55692943,-3.57546834,S02002251,S01012008
Dunkeld Parish Church Of Scotland,SC009867,Perth and Kinross,PH8 0AW,56.56520745,-3.5879693,S02002251,S01012008
Grandtully Mortification,SC011407,Perth and Kinross,PH1 4HP,56.53702983,-3.50717099,S02002251,S01012008
Birnam Arts,SC024975,Perth and Kinross,PH8 0DS,56.55790646,-3.57707097,S02002251,S01012008
Amulree Village Hall Trust Fund,SC029092,Perth and Kinross,PH8 0EE,56.51164511,-3.79459292,S02002251,S01012008
Perthshire Community Rugby Trust,SC041595,Perth and Kinross,PH8 0AZ,56.56949228,-3.58453563,S02002251,S01012008
Dunkeld and Birnam Community Growing,SC042496,Perth and Kinross,PH8 0AX,56.56902104,-3.58907314,S02002251,S01012008
Girlguiding Dunkeld District,SC047296,Perth and Kinross,PH8 0BY,56.51962928,-3.75399101,S02002251,S01012008
Dunkeld and Birnam Sport and Leisure Hub ,SC048725,Perth and Kinross,PH8 0BX,56.53833368,-3.71367776,S02002251,S01012008
Support Choices,SC050618,Perth and Kinross,PH8 0AD,56.56188854,-3.58612159,S02002251,S01012008
Cleish Parish Church Of Scotland,SC003168,Perth and Kinross,KY13 9JN,56.21016069,-3.3268985,S02002219,S01011836
Dow Trust For Cleish,SC006033,Perth and Kinross,KY13 9JN,56.21016069,-3.3268985,S02002219,S01011836
Michael Bruce's Memorial Fund,SC015396,Perth and Kinross,KY13 9HL,56.21331106,-3.32889386,S02002219,S01011836
Portmoak Under Fives Playgroup,SC015708,Perth and Kinross,KY13 9JA,56.20010753,-3.31499436,S02002219,S01011836
Kinross (Marshall) Museum Trust,SC027144,Perth and Kinross,KY13 9HL,56.21331106,-3.32889386,S02002219,S01011836
Friends Of Kinross Museum,SC027615,Perth and Kinross,KY13 9JN,56.21016069,-3.3268985,S02002219,S01011836
Williamson Trust Abernethy,SC003200,Perth and Kinross,PH2 9LS,56.32701094,-3.32711797,S02002229,S01011886
Abernethy Old Peoples Welfare Trust,SC011497,Perth and Kinross,PH2 9JH,56.33242771,-3.31205376,S02002229,S01011886
Abernethy Friends Of Guiding,SC034908,Perth and Kinross,PH2 9GA,56.33418523,-3.31746798,S02002229,S01011886
Comrie Community Centre,SC003555,Perth and Kinross,PH6 2LJ,56.37414117,-3.98856621,S02002224,S01011861
St Fillans Dundurn Parish Church of Scotland,SC010311,Perth and Kinross,PH6 2NA,56.3923099,-4.11093066,S02002224,S01011861
Sandison Halls St Fillans,SC014890,Perth and Kinross,PH6 2NA,56.3923099,-4.11093066,S02002224,S01011861
St Fillans Community Trust Limited,SC038882,Perth and Kinross,PH6 2NA,56.3923099,-4.11093066,S02002224,S01011861
The Friends of The Square,SC042699,Perth and Kinross,PH6 2LN,56.37481568,-3.99077139,S02002224,S01011861
21st Perthshire (Comrie) Cubs and Beavers,SC043076,Perth and Kinross,PH6 2JP,56.3748338,-3.99355775,S02002224,S01011861
Heinrich Steinmeyer Legacy Fund ,SC048475,Perth and Kinross,PH6 2LJ,56.37414117,-3.98856621,S02002224,S01011861
The Aiteal Trust,SC050669,Perth and Kinross,PH6 2EA,56.37601644,-3.98257471,S02002224,S01011861
1st Perthshire Pitlochry Scout Group,SC003619,Perth and Kinross,PH18 5TE,56.76553169,-3.83948125,S02002247,S01011983
Killiecrankie Memorial Hall Trust,SC018864,Perth and Kinross,PH16 5LG,56.7460883,-3.77748469,S02002247,S01011983
Blair Atholl and Struan Initiative,SC032803,Perth and Kinross,PH18 5SZ,56.76473164,-3.83523726,S02002247,S01011983
Blair Atholl Village Hall,SC046796,Perth and Kinross,PH18 5SZ,56.76473164,-3.83523726,S02002247,S01011983
Tayside Christian Fellowship,SC003944,Perth and Kinross,PH2 0EX,56.38820657,-3.44308563,S02002230,S01011889
Perth Arts Workshop Group,SC004094,Perth and Kinross,PH2 0ES,56.38546802,-3.44523342,S02002230,S01011889
4th A Perth District Brownies,SC035200,Perth and Kinross,PH2 0EX,56.38820657,-3.44308563,S02002230,S01011889
Aberdalgie and Forteviot Church of Scotland,SC044503,Perth and Kinross,PH2 0DP,56.38503467,-3.44848876,S02002230,S01011889
Crieff Parish Church of Scotland,SC004304,Perth and Kinross,PH7 4LS,56.38085212,-3.85479225,S02002225,S01011862
Ritchie Trust,SC015406,Perth and Kinross,PH7 4AN,56.38112626,-3.84605951,S02002225,S01011862
Strathearn Talking News,SC015628,Perth and Kinross,PH7 4LU,56.37806004,-3.85582258,S02002225,S01011862
St Columba Episcopal Church: Crieff,SC023267,Perth and Kinross,PH7 4AN,56.38112626,-3.84605951,S02002225,S01011862
Strathearn RDA Group,SC028609,Perth and Kinross,PH7 4AR,56.38283943,-3.85349591,S02002225,S01011862
Strathearn Building Bridges Incorporated,SC048085,Perth and Kinross,PH7 4EA,56.37634323,-3.84683218,S02002225,S01011862
Bendochy Parish Church of Scotland,SC004358,Perth and Kinross,PH13 9HU,56.55928906,-3.27311839,S02002247,S01011979
St Annes Episcopal Church: Coupar-Angus,SC014389,Perth and Kinross,PH13 9HN,56.55990914,-3.29829425,S02002247,S01011979
Coupar Angus Recreation Association,SC023436,Perth and Kinross,PH10 6RD,56.57643228,-3.41834347,S02002247,S01011979
Blairgowrie New Tennis Club,SC042379,Perth and Kinross,PH10 6UY,56.58025256,-3.33627247,S02002247,S01011979
Kirkmichael Social & Recreational Hall Trust,SC004481,Perth and Kinross,PH10 7LJ,56.71240731,-3.40736573,S02002247,S01011981
St Adamnan Scottish Episcopal Church: Kilmaveonaig,SC005481,Perth and Kinross,PH18 5TR,56.7764024,-3.83654359,S02002247,S01011981
Compass Christian Centre Ltd,SC011797,Perth and Kinross,PH10 7QD,56.79840604,-3.43048194,S02002247,S01011981
Blair Atholl and Struan Church of Scotland,SC013516,Perth and Kinross,PH18 5SX,56.76651371,-3.83625688,S02002247,S01011981
Atholl Country Life Museum,SC035882,Perth and Kinross,PH18 5TR,56.7764024,-3.83654359,S02002247,S01011981
Mount Blair Community Development Trust,SC042727,Perth and Kinross,PH10 7QD,56.79840604,-3.43048194,S02002247,S01011981
Royal British Legion Scotland Crieff Branch - Welfare Fund,SC004956,Perth and Kinross,PH7 3EB,56.37481199,-3.83315536,S02002226,S01011868
Jack And Jill Mother And Toddler Group,SC029111,Perth and Kinross,PH7 3JA,56.37309822,-3.83480569,S02002226,S01011868
2nd Crieff Brownies,SC034492,Perth and Kinross,PH7 3EF,56.37264014,-3.83297008,S02002226,S01011868
Friends Of Macrosty Park Association,SC035454,Perth and Kinross,PH7 3AG,56.37337784,-3.83776628,S02002226,S01011868
The Crieff at Christmas Group,SC048929,Perth and Kinross,PH7 3AG,56.37337784,-3.83776628,S02002226,S01011868
Kinross Centre,SC004968,Perth and Kinross,KY13 8AJ,56.20373945,-3.42120495,S02002220,S01011842
Swansacre Playgroup SCIO,SC017748,Perth and Kinross,KY13 8TE,56.20424611,-3.42246497,S02002220,S01011842
Kinross and District Men's Shed,SC049085,Perth and Kinross,KY13 8TE,56.20424611,-3.42246497,S02002220,S01011842
Muthill Parish Church of Scotland,SC004984,Perth and Kinross,PH3 1NW,56.32030181,-3.7784079,S02002222,S01011850
Auchterarder Friends Of Guiding,SC038124,Perth and Kinross,PH3 1BD,56.29355756,-3.69858423,S02002222,S01011850
Dunning & District Welfare Assoc,SC005180,Perth and Kinross,PH2 0SQ,56.31339724,-3.58618263,S02002228,S01011877
Community Church Of St Serf United Reformed Church Dunning,SC008181,Perth and Kinross,PH2 0SQ,56.31339724,-3.58618263,S02002228,S01011877
Dunning Parish Historical Society,SC020518,Perth and Kinross,PH2 0SJ,56.31365949,-3.58745452,S02002228,S01011877
Aberuthven and Dunning Parish Church of Scotland,SC030799,Perth and Kinross,PH2 0SU,56.316017,-3.58368822,S02002228,S01011877
Rollo Park Trust,SC034179,Perth and Kinross,PH2 0SQ,56.31339724,-3.58618263,S02002228,S01011877
Dunning Community Trust,SC038479,Perth and Kinross,PH2 0RH,56.31357238,-3.58934244,S02002228,S01011877
Dunning Community Association (SCIO),SC048804,Perth and Kinross,PH2 0RH,56.31357238,-3.58934244,S02002228,S01011877
26th Perthshire (Dunning) Scout Group,SC050026,Perth and Kinross,PH2 0QN,56.32095247,-3.59679631,S02002228,S01011877
Almondbank Tibbermore Parish Church Of Scotland,SC005203,Perth and Kinross,PH1 1QL,56.39346767,-3.55706109,S02002227,S01011873
Blackford Parish Church of Scotland,SC005594,Perth and Kinross,PH4 1PX,56.26237651,-3.78354997,S02002222,S01011849
Merry-Go-Round Playgroup,SC014911,Perth and Kinross,PH4 1RD,56.26909196,-3.75379358,S02002222,S01011849
Strathearn Pipe Band,SC044717,Perth and Kinross,PH4 1QD,56.26108148,-3.78237567,S02002222,S01011849
Blackford Paths Group (SCIO),SC049157,Perth and Kinross,PH4 1PY,56.26119226,-3.78029806,S02002222,S01011849
Caledonian Transport Heritage Limited,SC050986,Perth and Kinross,PH4 1RG,56.27565767,-3.8187489,S02002222,S01011849
Friends Of Glenalmond,SC006031,Perth and Kinross,PH1 3RY,56.43761516,-3.66348278,S02002251,S01012006
Glenalmond College,SC006123,Perth and Kinross,PH1 3RY,56.43761516,-3.66348278,S02002251,S01012006
Chapelhill Hall Community Assocation,SC021318,Perth and Kinross,PH1 3TD,56.44938371,-3.65223416,S02002251,S01012006
Royal Scottish Country Dance Society Perth & Perthshire Branch,SC024464,Perth and Kinross,PH1 3EF,56.42008645,-3.57523627,S02002251,S01012006
"Fortingall, Glenlyon, Kenmore and Lawers Parish Church of Scotland",SC006260,Perth and Kinross,PH15 2HX,56.53154598,-4.10821647,S02002253,S01012018
Malcolm Ferguson Trust,SC014290,Perth and Kinross,PH15 2HB,56.58217709,-3.99143566,S02002253,S01012018
Stewart Macphail Memorial Association,SC015618,Perth and Kinross,PH15 2HS,56.56994017,-4.02578925,S02002253,S01012018
"McLean Hall, Fearnan",SC023673,Perth and Kinross,PH15 2QW,56.57752651,-4.08275565,S02002253,S01012018
Highland Perthshire Crossing Borders (SCIO),SC045107,Perth and Kinross,PH15 2JQ,56.61850402,-3.9450727,S02002253,S01012018
The Stewart Macphail Memorial Trust,SC048983,Perth and Kinross,PH15 2HS,56.56994017,-4.02578925,S02002253,S01012018
St Johns Kirk of Perth Trust,SC006435,Perth and Kinross,PH2 6TE,56.42086633,-3.41197952,S02002241,S01011950
The Scone & District Historical Society,SC039253,Perth and Kinross,PH2 6PN,56.42523205,-3.41364922,S02002241,S01011950
Woollcombe Square Residents' Association SCIO,SC046832,Perth and Kinross,PH2 6PN,56.42523205,-3.41364922,S02002241,S01011950
Perth Unit (No 452) of the Sea Cadet Corps,SC006529,Perth and Kinross,PH2 8BD,56.38401914,-3.42681188,S02002230,S01011891
Centre for Inclusive Living Perth and Kinross,SC016452,Perth and Kinross,PH2 8NP,56.39291904,-3.4264158,S02002230,S01011891
Friends Of West Mill Street Perth Library For The Disabled,SC026977,Perth and Kinross,PH2 8AY,56.38283842,-3.43102723,S02002230,S01011891
Independent Advocacy Perth And Kinross,SC035138,Perth and Kinross,PH2 8NP,56.39291904,-3.4264158,S02002230,S01011891
Strathearn Music Society,SC006801,Perth and Kinross,PH7 3SW,56.37396041,-3.82509877,S02002225,S01011864
Strathcare,SC011737,Perth and Kinross,PH7 3EN,56.37477125,-3.83104823,S02002225,S01011864
Crieff Town Guides,SC032107,Perth and Kinross,PH7 3ER,56.37451357,-3.83024238,S02002225,S01011864
Perth Indigent Old Mens Society,SC007003,Perth and Kinross,PH1 5NJ,56.39666385,-3.43903119,S02002238,S01011935
10th Perthshire Perth Academy Scout Group,SC011697,Perth and Kinross,PH1 5HW,56.4034248,-3.44022624,S02002238,S01011935
Perth & District Boys Brigade Battalion,SC012025,Perth and Kinross,PH1 5RW,56.4027165,-3.44164166,S02002238,S01011935
Pitlochry Senior Citizens Good Neighbour Association,SC007057,Perth and Kinross,PH16 5ED,56.70525147,-3.73079993,S02002252,S01012010
Pitlochry Church Of Scotland,SC008361,Perth and Kinross,PH16 5EB,56.70479435,-3.73265745,S02002252,S01012010
Friends Of Abbeyfield Atholl Society,SC008868,Perth and Kinross,PH16 5AR,56.70471242,-3.73982467,S02002252,S01012010
Dunkeld & District Strathspey & Reel Society,SC009156,Perth and Kinross,PH16 5QS,56.7084727,-3.7433636,S02002252,S01012010
Pitlochry Baptist Church,SC016707,Perth and Kinross,PH16 5HL,56.70520005,-3.72543969,S02002252,S01012010
Rotary Club Of Pitlochry Charitable Trust,SC022766,Perth and Kinross,PH16 5AZ,56.7064425,-3.73560829,S02002252,S01012010
Margaret Steel Charitable Trust (No 2),SC031256,Perth and Kinross,PH16 5EB,56.70479435,-3.73265745,S02002252,S01012010
Highland Perthshire Shopmobility,SC033176,Perth and Kinross,PH16 5AS,56.70520009,-3.7383607,S02002252,S01012010
Niel Gow Festival Society,SC044610,Perth and Kinross,PH16 5QS,56.7084727,-3.7433636,S02002252,S01012010
Breadalbane & District Riding for the Disabled Association,SC047991,Perth and Kinross,PH16 5BA,56.70727772,-3.73370278,S02002252,S01012010
Pitlochry Baptist Church SCIO,SC050861,Perth and Kinross,PH16 5HL,56.70520005,-3.72543969,S02002252,S01012010
Scone and St Martin's Parish Church of Scotland,SC007094,Perth and Kinross,PH2 6JP,56.41934037,-3.40154775,S02002241,S01011951
Scone Old People's Welfare Council,SC021597,Perth and Kinross,PH2 6PS,56.42366395,-3.4116941,S02002241,S01011951
Perth City Club Charitable Trust,SC022801,Perth and Kinross,PH2 6RB,56.42382226,-3.3961191,S02002241,S01011951
The #C200 Fund,SC050229,Perth and Kinross,PH2 6JP,56.41934037,-3.40154775,S02002241,S01011951
Cargill Burrelton Parish Church of Scotland,SC007283,Perth and Kinross,PH13 9LN,56.52502992,-3.27577278,S02002245,S01011969
TOC H Coupar Angus Thursday Friends,SC040281,Perth and Kinross,PH13 9EF,56.54539565,-3.27691328,S02002245,S01011969
Forward Coupar Angus,SC042646,Perth and Kinross,PH13 9DG,56.54341972,-3.26630772,S02002245,S01011969
Strathmore Energy Trust SCIO,SC045389,Perth and Kinross,PH13 9DG,56.54341972,-3.26630772,S02002245,S01011969
St Martins Public Hall,SC007367,Perth and Kinross,PH2 6JG,56.45099023,-3.35009652,S02002242,S01011959
Kinrossie & District Recreation Club,SC016454,Perth and Kinross,PH2 6AT,56.46737982,-3.34171842,S02002242,S01011959
Guildtown Hall And Playing Field Association,SC030460,Perth and Kinross,PH2 6BX,56.47166678,-3.40733935,S02002242,S01011959
Wolfhill Village Hall Committee,SC041364,Perth and Kinross,PH2 6DG,56.48573495,-3.37791452,S02002242,S01011959
Abbeyfield Atholl Society Ltd,SC007584,Perth and Kinross,PH16 5JL,56.71248313,-3.71008859,S02002252,S01012012
Aberfeldy Drama Club,SC038815,Perth and Kinross,PH16 5JS,56.69366749,-3.70291541,S02002252,S01012012
Enchanted Forest Community Trust,SC045237,Perth and Kinross,PH16 5JW,56.7041819,-3.70476256,S02002252,S01012012
Mid-Atholl Recreation Park Fund,SC007675,Perth and Kinross,PH9 0LD,56.65926986,-3.67191499,S02002252,S01012009
Logierait Bridge Company,SC023580,Perth and Kinross,PH9 0LW,56.6613025,-3.74957109,S02002252,S01012009
Mid Atholl Public Hall Committee,SC028309,Perth and Kinross,PH9 0LG,56.65421611,-3.66886912,S02002252,S01012009
Highland Perthshire Communities Land Trust,SC032801,Perth and Kinross,PH9 0PA,56.65681475,-3.63555694,S02002252,S01012009
Pitlochry and District Choral Society,SC040555,Perth and Kinross,PH9 0PA,56.65681475,-3.63555694,S02002252,S01012009
Dalguise and District Public Hall Association ,SC045629,Perth and Kinross,PH8 0JZ,56.62269203,-3.65165087,S02002252,S01012009
Cleish Village Hall,SC007793,Perth and Kinross,KY13 0LW,56.16539894,-3.48385087,S02002219,S01011835
Blairadam Amenity Association,SC009438,Perth and Kinross,KY4 0JH,56.14351994,-3.38711333,S02002219,S01011835
Oakbank Church And Sunday School,SC007817,Perth and Kinross,PH1 1RW,56.39025239,-3.47915735,S02002232,S01011899
Perth And Kinross Music Foundation,SC027457,Perth and Kinross,PH1 1RJ,56.39034122,-3.48074831,S02002232,S01011899
Abernyte Parish Church of Scotland,SC007847,Perth and Kinross,PH14 9RB,56.46473146,-3.20949428,S02002244,S01011967
Longforgan Baby And Toddler Group,SC030592,Perth and Kinross,DD2 5HU,56.46201337,-3.12099303,S02002244,S01011967
Longforgan Village Trust,SC033874,Perth and Kinross,DD2 5HA,56.45607635,-3.12575088,S02002244,S01011967
Errol Brownie Unit,SC035111,Perth and Kinross,PH14 9SW,56.46997934,-3.1623927,S02002244,S01011967
Glenfarg Riding For The Disabled Association Group,SC007850,Perth and Kinross,PH1 2LG,56.40484431,-3.47085917,S02002234,S01011912
Letham Community Sports Club,SC040239,Perth and Kinross,PH1 2JB,56.40412751,-3.47749176,S02002234,S01011912
Letham Climate Challenge,SC043272,Perth and Kinross,PH1 2LG,56.40484431,-3.47085917,S02002234,S01011912
Kirkmichael Straloch & Glenshee Church Of Scotland,SC008021,Perth and Kinross,PH10 7LH,56.69987266,-3.41300581,S02002247,S01011982
"St Michael & All Angels Church, Ballintuim: Perthshire",SC009176,Perth and Kinross,PH10 7JP,56.65296084,-3.38846305,S02002247,S01011982
Blairgowrie Players,SC035245,Perth and Kinross,PH10 7NJ,56.67841693,-3.46815575,S02002247,S01011982
Blackwater Public Hall,SC036098,Perth and Kinross,PH10 7LH,56.69987266,-3.41300581,S02002247,S01011982
Butterstone Public Hall Committee,SC037074,Perth and Kinross,PH8 0HA,56.59517899,-3.52430684,S02002247,S01011982
3 Churches Charity Shop,SC043359,Perth and Kinross,PH8 0HA,56.59517899,-3.52430684,S02002247,S01011982
Humpty Dumpty Community Nursery,SC008215,Perth and Kinross,PH2 6QJ,56.41765401,-3.39890825,S02002241,S01011953
Kinnoull Hill Woodland Park Group,SC034956,Perth and Kinross,PH2 7BN,56.39668834,-3.39920838,S02002241,S01011953
Grace Baptist Church Perth,SC008381,Perth and Kinross,PH1 3LU,56.42742302,-3.52160818,S02002227,S01011875
Friends Of Pitcairn Primary,SC030700,Perth and Kinross,PH1 3LJ,56.42068706,-3.51696186,S02002227,S01011875
Pitcairngreen Village Association,SC043148,Perth and Kinross,PH1 3LU,56.42742302,-3.52160818,S02002227,S01011875
Luncarty Tennis Club ,SC045983,Perth and Kinross,PH1 3LR,56.42652868,-3.51539467,S02002227,S01011875
Rait Community Assoc,SC008453,Perth and Kinross,PH2 7LF,56.38902995,-3.30473462,S02002242,S01011957
West Carse Public Hall,SC029494,Perth and Kinross,PH2 7NS,56.39672268,-3.29171267,S02002242,S01011957
1st Blackford Rainbow Unit,SC031099,Perth and Kinross,PH2 7LT,56.36854356,-3.32342935,S02002242,S01011957
Tay Valley Cat Welfare Society,SC008720,Perth and Kinross,PH1 2LQ,56.40386715,-3.47973415,S02002234,S01011913
The Whyte Trust,SC008803,Perth and Kinross,KY13 8AN,56.20544697,-3.42196132,S02002220,S01011838
Hayfield Trust,SC013645,Perth and Kinross,KY13 8AN,56.20544697,-3.42196132,S02002220,S01011838
King George V Playing Field Kinross Management Committee,SC013953,Perth and Kinross,KY13 8AU,56.21225036,-3.42651828,S02002220,S01011838
Kinross-Shire Volunteer Group,SC015642,Perth and Kinross,KY13 8AY,56.21385812,-3.42735198,S02002220,S01011838
The Kinross Community Council Newsletter,SC040913,Perth and Kinross,KY13 8AW,56.20715255,-3.42210507,S02002220,S01011838
Broke Not Broken ,SC046033,Perth and Kinross,KY13 8RU,56.21655048,-3.42996766,S02002220,S01011838
The Stephen Lyon Organisation,SC050446,Perth and Kinross,KY13 8AU,56.21225036,-3.42651828,S02002220,S01011838
Kinross-shire Move Greener Organisation (SCIO),SC050675,Perth and Kinross,KY13 8AW,56.20715255,-3.42210507,S02002220,S01011838
Collace Church Of Scotland,SC009031,Perth and Kinross,PH2 6HT,56.47651454,-3.31851561,S02002242,S01011958
3rd Perthshire Scone Scout Group,SC010148,Perth and Kinross,PH2 6HJ,56.45311339,-3.33573115,S02002242,S01011958
Kilspindie & Rait Parish Church of Scotland,SC010838,Perth and Kinross,PH2 7RX,56.41680584,-3.26451238,S02002242,S01011958
Balbeggie & Collace United Free Church,SC012077,Perth and Kinross,PH2 6EX,56.45009998,-3.35098972,S02002242,S01011958
Guildtown Playgroup,SC014097,Perth and Kinross,PH2 6HY,56.48386259,-3.30677022,S02002242,S01011958
Perth Methodist Church,SC016818,Perth and Kinross,PH2 6GH,56.41914296,-3.39114913,S02002242,S01011958
1st Balbeggie Brownie Unit,SC031884,Perth and Kinross,PH2 7PR,56.43663912,-3.32276231,S02002242,S01011958
Kinrossie Public Hall,SC033251,Perth and Kinross,PH2 6HT,56.47651454,-3.31851561,S02002242,S01011958
Perth Academy Parent Council,SC045420,Perth and Kinross,PH2 7PH,56.42242093,-3.36704733,S02002242,S01011958
Balbeggie Playing Fields Association,SC047639,Perth and Kinross,PH2 6HF,56.44927143,-3.34786155,S02002242,S01011958
Blairgowrie & District Freedom Coach Association SCIO,SC009557,Perth and Kinross,PH10 6JW,56.58702107,-3.33515988,S02002249,S01011990
Blairgowrie Community Project,SC028354,Perth and Kinross,PH10 6TZ,56.58502763,-3.32917924,S02002249,S01011990
Blairgowrie & Rattray Development Trust Limited,SC039702,Perth and Kinross,PH10 6NQ,56.59122232,-3.33633399,S02002249,S01011990
Elder Voice (Blairgowrie & Rattray),SC048553,Perth and Kinross,PH10 6NL,56.59087676,-3.33588211,S02002249,S01011990
5th Blairgowrie Brownie Unit,SC050910,Perth and Kinross,PH10 6FD,56.58062789,-3.32386403,S02002249,S01011990
1st Blairgowrie Brownie Unit,SC050911,Perth and Kinross,PH10 6FD,56.58062789,-3.32386403,S02002249,S01011990
Dunbarney And Forgandenny Parish Church (Church of Scotland),SC009638,Perth and Kinross,PH2 9QZ,56.34620707,-3.40341057,S02002229,S01011881
Bridge of Earn Nursery,SC012900,Perth and Kinross,PH2 9EA,56.34916386,-3.40968433,S02002229,S01011881
Bridge of Earn Institute,SC017374,Perth and Kinross,PH2 9EA,56.34916386,-3.40968433,S02002229,S01011881
Inchture & Kinnaird Parish Church of Scotland,SC009839,Perth and Kinross,PH14 9QS,56.45107047,-3.2025217,S02002243,S01011960
Inchture Village Hall Fund,SC025997,Perth and Kinross,PH14 9RU,56.44177129,-3.16388323,S02002243,S01011960
Errol Rainbow Unit,SC035110,Perth and Kinross,PH14 9RZ,56.44291291,-3.1676489,S02002243,S01011960
Auchtergaven and Moneydie Parish Church of Scotland,SC010247,Perth and Kinross,PH1 4BS,56.49864372,-3.52350134,S02002250,S01012001
Auchtergaven & Moneydie Parish Church-Coxland Trust,SC021143,Perth and Kinross,PH1 4BS,56.49864372,-3.52350134,S02002250,S01012001
Perthshire Abandoned Dogs Society,SC011033,Perth and Kinross,PH2 9BS,56.33731774,-3.54197691,S02002228,S01011876
Dunning Stepping Stones SCIO,SC046545,Perth and Kinross,PH2 0SL,56.30954092,-3.58138333,S02002228,S01011876
The Sunshine Box,SC046825,Perth and Kinross,PH2 0QS,56.30898118,-3.60463782,S02002228,S01011876
Forteviot Village Hall,SC048990,Perth and Kinross,PH2 9DA,56.32978359,-3.53581816,S02002228,S01011876
Perth Riverside Church of Scotland,SC011113,Perth and Kinross,PH1 3BG,56.41263727,-3.44540449,S02002236,S01011926
Jeanfield Swifts Football Club Endowment Trust,SC045688,Perth and Kinross,PH1 3BG,56.41263727,-3.44540449,S02002236,S01011926
Jeanfield Swifts Community FC (SCIO),SC050390,Perth and Kinross,PH1 3BG,56.41263727,-3.44540449,S02002236,S01011926
Portmoak Hall Committee,SC011278,Perth and Kinross,KY13 9JE,56.20051386,-3.31057566,S02002219,S01011837
Abbeyfield Breadalbane Society Ltd,SC011281,Perth and Kinross,PH15 2BH,56.61981575,-3.87008444,S02002253,S01012014
Locus Breadalbane Ltd,SC017508,Perth and Kinross,PH15 2DD,56.61972993,-3.86502764,S02002253,S01012014
17th Aberfeldy Scout Group,SC036348,Perth and Kinross,PH15 2BH,56.61981575,-3.87008444,S02002253,S01012014
Aberfeldy Community Putting Green (SCIO),SC046181,Perth and Kinross,PH15 2BH,56.61981575,-3.87008444,S02002253,S01012014
"St John's Episcopal Church, Perth",SC011398,Perth and Kinross,PH2 8LJ,56.39351056,-3.42810656,S02002239,S01011939
Rape and Sexual Abuse Centre Perth and Kinross,SC037982,Perth and Kinross,PH2 8JA,56.39381094,-3.43477621,S02002239,S01011939
The Alexander/McLaren Trust,SC011555,Perth and Kinross,KY13 0RH,56.22611857,-3.44708283,S02002221,S01011846
Carnbo & District Community Hall Association,SC015354,Perth and Kinross,KY13 0RS,56.22520919,-3.50446916,S02002221,S01011846
The Rural Access Committee Of Kinross-shire,SC030183,Perth and Kinross,KY13 0RW,56.24190749,-3.43615708,S02002221,S01011846
2nd Orwell Brownies,SC032577,Perth and Kinross,KY13 9YN,56.22814883,-3.42076988,S02002221,S01011846
1st Orwell Rainbow Unit,SC036422,Perth and Kinross,KY13 9YH,56.22773373,-3.42014156,S02002221,S01011846
1st Orwell Guide Unit,SC042299,Perth and Kinross,KY13 9YH,56.22773373,-3.42014156,S02002221,S01011846
1st Orwell Brownie Unit,SC042548,Perth and Kinross,KY13 9YH,56.22773373,-3.42014156,S02002221,S01011846
Girl Guiding Orwell District,SC043918,Perth and Kinross,KY13 9YH,56.22773373,-3.42014156,S02002221,S01011846
1st Orwell Senior Section Unit,SC048745,Perth and Kinross,KY13 9XG,56.2267546,-3.42402489,S02002221,S01011846
Rotary Club of Kinross & District Charitable Trust Fund,SC051041,Perth and Kinross,KY13 0RW,56.24190749,-3.43615708,S02002221,S01011846
Blairgowrie Rattray & District Civic Trust,SC011982,Perth and Kinross,PH10 6UD,56.58239694,-3.34238833,S02002249,S01011988
Blairgowrie Riding For The Disabled (SCIO),SC028824,Perth and Kinross,PH10 6QB,56.57396717,-3.34755872,S02002249,S01011988
Alyth & District Pipe Band,SC037350,Perth and Kinross,PH10 6QA,56.57684628,-3.34884948,S02002249,S01011988
Burrelton Tennis Club,SC046613,Perth and Kinross,PH10 6QB,56.57396717,-3.34755872,S02002249,S01011988
Manna House Trust,SC012998,Perth and Kinross,PH2 0SS,56.36642731,-3.43449164,S02002228,S01011878
Forgandenny Village Hall,SC018351,Perth and Kinross,PH2 9QR,56.32595836,-3.49596233,S02002228,S01011878
Tayside Cat Shelter,SC022252,Perth and Kinross,PH2 0QA,56.37075996,-3.46810457,S02002228,S01011878
Perth Amateur Operatic Society,SC027296,Perth and Kinross,PH2 0GF,56.38640902,-3.46762151,S02002228,S01011878
Perth and Kinross ADHD Support Group,SC034262,Perth and Kinross,PH2 8DG,56.37863511,-3.42853766,S02002228,S01011878
R.H.E.T. Perth & Kinross Countryside Initiative,SC035289,Perth and Kinross,PH2 8PY,56.36179176,-3.42897582,S02002228,S01011878
Gender Equality Perth,SC050401,Perth and Kinross,PH2 9HR,56.35830222,-3.47677047,S02002228,S01011878
Fossoway St Serf's & Devonside Parish Church of Scotland,SC013157,Perth and Kinross,KY13 0PH,56.18219935,-3.56209206,S02002219,S01011833
Fossoway Youth Club,SC037164,Perth and Kinross,FK14 7NP,56.16399786,-3.5773764,S02002219,S01011833
Auld Abernethy Association,SC013479,Perth and Kinross,PH2 9LA,56.33335849,-3.30985362,S02002229,S01011885
Abernethy Mother & Toddler Group,SC016485,Perth and Kinross,PH2 9LQ,56.33110619,-3.30616974,S02002229,S01011885
The Museum Of Abernethy,SC023100,Perth and Kinross,PH2 9JJ,56.33346892,-3.3121542,S02002229,S01011885
66th Perthshire (Abernethy) Scout Group,SC036274,Perth and Kinross,PH2 9GY,56.33378124,-3.30640672,S02002229,S01011885
The Friends of Dunkeld Cathedral,SC013571,Perth and Kinross,PH8 0BA,56.56546221,-3.58278849,S02002251,S01012007
Dunkeld & Birnam Playgroup,SC014187,Perth and Kinross,PH8 0AE,56.56238249,-3.58402678,S02002251,S01012007
Chapter House Museum,SC024984,Perth and Kinross,PH8 0BA,56.56546221,-3.58278849,S02002251,S01012007
Dunkeld & Birnam Rainbow Guides,SC033077,Perth and Kinross,PH8 0BL,56.56044979,-3.57703036,S02002251,S01012007
2nd Perthshire Scout Group,SC041635,Perth and Kinross,PH8 0BG,56.55863047,-3.57666177,S02002251,S01012007
Royal School of Dunkeld Parent Partnership Group,SC043867,Perth and Kinross,PH8 0AB,56.56106492,-3.58447615,S02002251,S01012007
1st Dunkeld & Birnam Guide Unit,SC047236,Perth and Kinross,PH8 0BL,56.56044979,-3.57703036,S02002251,S01012007
Dunkeld and Birnam Community Arboretum,SC049890,Perth and Kinross,PH8 0BJ,56.55854019,-3.57385936,S02002251,S01012007
Perth Newstape For The Blind,SC013698,Perth and Kinross,PH1 1EW,56.39331269,-3.47569574,S02002232,S01011903
Starter Packs Perth,SC035752,Perth and Kinross,PH1 1LF,56.39793939,-3.47273153,S02002232,S01011903
The Macmillan Coffee Shop Association,SC040206,Perth and Kinross,PH1 1ES,56.39264322,-3.47230022,S02002232,S01011903
The Hope Park Trust ,SC013769,Perth and Kinross,PH10 7HU,56.60081897,-3.33958856,S02002248,S01011985
Madderty Community Association,SC014071,Perth and Kinross,PH7 3PJ,56.36180324,-3.702574,S02002227,S01011872
42nd Perth & Kinross Scout Group (Muthill),SC040718,Perth and Kinross,PH7 3PE,56.3706881,-3.67635154,S02002227,S01011872
Perth Shotokan Karate Academy SCIO ,SC045582,Perth and Kinross,PH1 1TH,56.38545704,-3.6321655,S02002227,S01011872
Gannochy Sports Pavilion (Perth) Ltd,SC014104,Perth and Kinross,PH2 7HB,56.40042555,-3.42373141,S02002240,S01011948
Perth & Kinross Duke Of Edinburgh's Award Assoc,SC021937,Perth and Kinross,PH2 7HX,56.40602438,-3.42285472,S02002240,S01011948
Perth Islamic Society,SC026814,Perth and Kinross,PH2 7HH,56.40454234,-3.42359345,S02002240,S01011948
Kinnoull Tennis Club SCIO,SC047283,Perth and Kinross,PH2 7ES,56.4027051,-3.41769133,S02002240,S01011948
Murthly Village Hall Management Committee,SC014286,Perth and Kinross,PH1 4EH,56.53222619,-3.46481874,S02002250,S01011998
Dunkeld & Birnam District Leisure Group,SC024069,Perth and Kinross,PH1 4FB,56.5259133,-3.45610519,S02002250,S01011998
Coupar Angus Abbey Church of Scotland,SC014438,Perth and Kinross,PH13 9EH,56.54513914,-3.2712608,S02002245,S01011970
Coupar Angus & District Heritage Association,SC034564,Perth and Kinross,PH13 9DH,56.54502501,-3.26836188,S02002245,S01011970
Coupar Angus Youth Activities Group,SC041760,Perth and Kinross,PH13 9AE,56.54650276,-3.26618297,S02002245,S01011970
Strathmore Community Hub (SCIO),SC047244,Perth and Kinross,PH13 9AE,56.54650276,-3.26618297,S02002245,S01011970
Logos Centre Ltd,SC014482,Perth and Kinross,PH7 3HU,56.37269699,-3.84004906,S02002226,S01011869
1st Crieff Guide Unit,SC032400,Perth and Kinross,PH7 3AY,56.37125957,-3.84184187,S02002226,S01011869
1st Crieff Rainbow Unit,SC046058,Perth and Kinross,PH7 3AY,56.37125957,-3.84184187,S02002226,S01011869
Crieff Connexions,SC051160,Perth and Kinross,PH7 3HU,56.37269699,-3.84004906,S02002226,S01011869
The Presbytery Of Perth,SC014528,Perth and Kinross,PH2 0BH,56.38368144,-3.43815279,S02002230,S01011890
"St Madoes and Kinfauns Church of Scotland, Glencarse",SC014964,Perth and Kinross,PH2 7TZ,56.37114438,-3.30609847,S02002242,S01011956
St Madoes Community Association,SC016523,Perth and Kinross,PH2 7TW,56.37324711,-3.30863152,S02002242,S01011956
St Madoes Rainbow Guides,SC032871,Perth and Kinross,PH2 7TU,56.37280032,-3.30754758,S02002242,S01011956
St Madoes Under 5's Club,SC033415,Perth and Kinross,PH2 7UQ,56.37121855,-3.30417433,S02002242,S01011956
73rd West Carse Scout Group,SC041978,Perth and Kinross,PH2 7TW,56.37324711,-3.30863152,S02002242,S01011956
Orwell and Portmoak Parish Church of Scotland,SC015523,Perth and Kinross,KY13 9YA,56.22919171,-3.4136625,S02002221,S01011844
1st Kinross-shire Scout Group,SC037221,Perth and Kinross,KY13 9GD,56.22726476,-3.41244629,S02002221,S01011844
Friends of Portmoak School,SC043035,Perth and Kinross,KY13 9XU,56.22846162,-3.41386143,S02002221,S01011844
Kinross Astro SCIO,SC046225,Perth and Kinross,KY13 9XT,56.22696981,-3.41780671,S02002221,S01011844
TRMB Limited,SC046444,Perth and Kinross,KY13 0SB,56.23927168,-3.40354609,S02002221,S01011844
Errol Parish Church of Scotland,SC015895,Perth and Kinross,PH2 7QY,56.39518675,-3.20879451,S02002243,S01011963
Carse Active,SC051221,Perth and Kinross,PH2 7UR,56.39589853,-3.2095137,S02002243,S01011963
Anchor House Cyrenians,SC016196,Perth and Kinross,PH1 2RP,56.40482048,-3.45306488,S02002235,S01011919
Perth College Development Trust 2004,SC036655,Perth and Kinross,PH1 2NX,56.40561215,-3.46063064,S02002235,S01011919
Stanley Benevolent Society,SC016397,Perth and Kinross,PH1 3HE,56.44861837,-3.46189133,S02002251,S01012004
Stormontfield Community Association,SC017559,Perth and Kinross,PH2 6DQ,56.45160327,-3.45408811,S02002251,S01012004
William Street Hall Trust,SC039934,Perth and Kinross,PH1 3UZ,56.44804758,-3.46381624,S02002251,S01012004
Errol Leisure Limited,SC016735,Perth and Kinross,PH2 7QT,56.39194132,-3.21816815,S02002243,S01011964
Errol Guide Unit,SC035112,Perth and Kinross,PH2 7SQ,56.39334624,-3.21508647,S02002243,S01011964
Errol Primary School Parent Council,SC050267,Perth and Kinross,PH2 7QB,56.39340308,-3.20927257,S02002243,S01011964
Carse of Gowrie Group (SCIO),SC050551,Perth and Kinross,PH2 7QE,56.3925521,-3.21084933,S02002243,S01011964
Air Training Corps No 38F (Perth) Squadron Non-Public Sports & Welfare Funds,SC017266,Perth and Kinross,PH2 7DN,56.39768,-3.41711565,S02002240,S01011946
Kinross After School Club,SC019835,Perth and Kinross,KY13 8DE,56.20061513,-3.42254007,S02002220,S01011841
2nd And 3rd Kinross Guides,SC035329,Perth and Kinross,KY13 8EF,56.20376665,-3.42820214,S02002220,S01011841
2nd Kinross Brownie Unit,SC035797,Perth and Kinross,KY13 8FB,56.20167771,-3.4176469,S02002220,S01011841
Milnathort and Kinross Allotment Association,SC044354,Perth and Kinross,KY13 8FD,56.20383202,-3.42954255,S02002220,S01011841
Craigie Tweenie Club Mother & Toddler Group,SC019918,Perth and Kinross,PH2 0EY,56.38981019,-3.44426402,S02002231,S01011896
Auchterarder Adult Education Association,SC020304,Perth and Kinross,PH3 1BZ,56.29571315,-3.70192799,S02002223,S01011852
Auchterarder & District Local History Association,SC035395,Perth and Kinross,PH3 1BZ,56.29571315,-3.70192799,S02002223,S01011852
Auchterarder & District Community Sports Hub (A&DCSHub),SC050504,Perth and Kinross,PH3 1BL,56.29695898,-3.70738092,S02002223,S01011852
Muthill Pre-School Group,SC022876,Perth and Kinross,PH5 2AL,56.32990379,-3.83716386,S02002222,S01011851
Muthill Village Hall,SC043265,Perth and Kinross,PH5 2AB,56.3312245,-3.83232624,S02002222,S01011851
Muthill Village Trust,SC043719,Perth and Kinross,PH5 2AS,56.33349096,-3.82915113,S02002222,S01011851
Linlithgow Kayak Racing SCIO,SC050656,Perth and Kinross,PH5 2BS,56.31672126,-3.81952075,S02002222,S01011851
Muirton Community Nursery Training And Childcare Project,SC023360,Perth and Kinross,PH1 5AX,56.40925061,-3.44842024,S02002237,S01011931
YMCA Tayside,SC023796,Perth and Kinross,PH1 5EJ,56.39622169,-3.43220986,S02002239,S01011940
PLUS Perth & Kinross,SC040271,Perth and Kinross,PH2 8JJ,56.3946827,-3.43164984,S02002239,S01011940
Esolperth,SC046650,Perth and Kinross,PH1 5EJ,56.39622169,-3.43220986,S02002239,S01011940
Ad-Lib Arts ,SC049397,Perth and Kinross,PH1 5EJ,56.39622169,-3.43220986,S02002239,S01011940
Bridge of Earn Mother & Toddler Group,SC025185,Perth and Kinross,PH2 9EZ,56.34487584,-3.44033232,S02002229,S01011883
1st Bridge Of Earn Brownie Unit,SC032065,Perth and Kinross,PH2 9BJ,56.33957526,-3.40505979,S02002229,S01011883
1st Bridge Of Earn Ranger Unit,SC032068,Perth and Kinross,PH2 9BJ,56.33957526,-3.40505979,S02002229,S01011883
1st Bridge Of Earn Guide Unit,SC032070,Perth and Kinross,PH2 9BJ,56.33957526,-3.40505979,S02002229,S01011883
14th Perthshire (Bridge of Earn) Scout Group,SC035647,Perth and Kinross,PH2 9FJ,56.33886568,-3.40741174,S02002229,S01011883
Perth Highland Games (1997) Limited,SC045813,Perth and Kinross,PH2 9DT,56.34581041,-3.40590391,S02002229,S01011883
Perth North Muirton Congregation Of Jehovahs Witnesses,SC025414,Perth and Kinross,PH1 1BD,56.39384258,-3.45519009,S02002231,S01011895
Physical,SC039325,Perth and Kinross,PH1 1NL,56.39237573,-3.45767751,S02002231,S01011895
Georgetown Hall,SC025825,Perth and Kinross,PH17 2QD,56.68193051,-4.44434966,S02002253,S01012017
Committee Of Management Of The Molteno Memorial Hall,SC034457,Perth and Kinross,PH15 2LL,56.59827633,-4.05353295,S02002253,S01012017
The Birks Cinema Trust,SC041030,Perth and Kinross,PH15 2LE,56.61839826,-3.98982257,S02002253,S01012017
Tay Valley Timebank,SC049606,Perth and Kinross,PH15 2LW,56.59309858,-4.07636445,S02002253,S01012017
Molteno Village Hall Trust,SC051072,Perth and Kinross,PH15 2LL,56.59827633,-4.05353295,S02002253,S01012017
Milnathort Town Hall,SC026073,Perth and Kinross,KY13 9FW,56.22331599,-3.42221997,S02002221,S01011845
Aero Space Scientific Educational Trust,SC045931,Perth and Kinross,KY13 9SJ,56.23458813,-3.38861297,S02002221,S01011845
Kinross Colts FC Juniors,SC049881,Perth and Kinross,KY13 9XH,56.2264651,-3.42185276,S02002221,S01011845
Crook Of Devon Village Hall,SC026692,Perth and Kinross,KY13 0UP,56.19524658,-3.5535324,S02002221,S01011843
Kinross Potager Garden Charitable Association,SC027444,Perth and Kinross,KY13 0XH,56.1855548,-3.5582324,S02002221,S01011843
Fossoway Access And Amenity Project Group,SC033826,Perth and Kinross,KY13 0UN,56.18802689,-3.53806122,S02002221,S01011843
Fossoway PTA,SC046989,Perth and Kinross,KY13 0UH,56.18640351,-3.56218234,S02002221,S01011843
Alyth Youth Partnership SCIO,SC027023,Perth and Kinross,PH11 8AX,56.62089792,-3.23560613,S02002246,S01011976
Alyth Primary and Nursery School Parent Council,SC030602,Perth and Kinross,PH11 8AX,56.62089792,-3.23560613,S02002246,S01011976
Start (Strathmore Arts Festival),SC035756,Perth and Kinross,PH11 8AX,56.62089792,-3.23560613,S02002246,S01011976
Alyth Hill Users Group SCIO,SC043382,Perth and Kinross,PH11 8AX,56.62089792,-3.23560613,S02002246,S01011976
Alyth Development Trust Ltd,SC047606,Perth and Kinross,PH11 8AH,56.62192815,-3.2295608,S02002246,S01011976
Airlie Street Hall Development Trust Limited,SC050129,Perth and Kinross,PH11 8AH,56.62192815,-3.2295608,S02002246,S01011976
Friends of Aytoun Hall,SC027157,Perth and Kinross,PH3 1EN,56.29604647,-3.69531726,S02002223,S01011853
2nd Auchterarder Brownie Unit,SC034622,Perth and Kinross,PH3 1DN,56.29708569,-3.69751261,S02002223,S01011853
The Community School Of Auchterarder Parent Council,SC039850,Perth and Kinross,PH3 1DQ,56.29755004,-3.69247496,S02002223,S01011853
Parents Supporting Parents,SC050288,Perth and Kinross,PH3 1QP,56.29857541,-3.69371621,S02002223,S01011853
Crieff Highland Gathering Charitable Trust,SC027191,Perth and Kinross,PH7 3FB,56.36640641,-3.83158602,S02002226,S01011867
Crieff Juniors Football Club,SC037639,Perth and Kinross,PH7 3BP,56.36847472,-3.83330436,S02002226,S01011867
Milnathort Guide Hall Committee,SC027496,Perth and Kinross,KY13 8UB,56.21152803,-3.4283779,S02002220,S01011839
3rd Kinross Brownie Unit,SC032637,Perth and Kinross,KY13 8FN,56.21520469,-3.43444869,S02002220,S01011839
Light Up Kinross,SC047534,Perth and Kinross,KY13 8BQ,56.21281742,-3.43187641,S02002220,S01011839
1st Methven Brownies,SC031253,Perth and Kinross,PH1 2EQ,56.39962996,-3.47488702,S02002234,S01011910
1st Methven Rainbows,SC031254,Perth and Kinross,PH1 2EQ,56.39962996,-3.47488702,S02002234,S01011910
1st Methven Guides,SC031262,Perth and Kinross,PH1 2EQ,56.39962996,-3.47488702,S02002234,S01011910
1st Almondbank Rainbows,SC031263,Perth and Kinross,PH1 2EQ,56.39962996,-3.47488702,S02002234,S01011910
Comrie Brownies,SC032108,Perth and Kinross,PH1 2EQ,56.39962996,-3.47488702,S02002234,S01011910
1st Almondbank Brownies,SC031268,Perth and Kinross,PH10 6JX,56.57865295,-3.33043691,S02002249,S01011994
Blairgowrie High School Parent Council,SC035783,Perth and Kinross,PH10 6LA,56.57799156,-3.32084168,S02002249,S01011994
"BOOKMARK (Blairgowrie, Rattray and the Glens Book Festival)",SC045599,Perth and Kinross,PH10 6LJ,56.57289591,-3.32349614,S02002249,S01011994
Alyth 45th Perthshire Scout Group,SC031276,Perth and Kinross,PH11 8DE,56.62566494,-3.22691147,S02002246,S01011977
2nd Carse Of Gowrie Brownie Pack,SC031365,Perth and Kinross,PH2 7JY,56.38466908,-3.39177066,S02002240,S01011944
Trinity Community Trust,SC047178,Perth and Kinross,PH2 7JU,56.38281097,-3.40752611,S02002240,S01011944
Duke Of Edinburgh's Award East Perthshire Support Group,SC031707,Perth and Kinross,PH10 6BT,56.58918062,-3.34070738,S02002249,S01011993
Strathmore Centre For Youth Development - SCYD (SCIO),SC035634,Perth and Kinross,PH10 6AY,56.59100839,-3.33701039,S02002249,S01011993
1st Crieff Brownies,SC031984,Perth and Kinross,PH2 0EA,56.38878423,-3.43977062,S02002231,S01011892
74th Perthshire Scout Group,SC042685,Perth and Kinross,PH2 0EF,56.38986848,-3.44311611,S02002231,S01011892
Perthshire Pride (SCIO),SC048417,Perth and Kinross,PH2 0EH,56.38759465,-3.44162087,S02002231,S01011892
20th Perth Rainbow Unit,SC049184,Perth and Kinross,PH2 0EA,56.38878423,-3.43977062,S02002231,S01011892
20th Perth Guide Unit,SC049185,Perth and Kinross,PH2 0EA,56.38878423,-3.43977062,S02002231,S01011892
Perth & Kinross Disability Sport (Pkds),SC032262,Perth and Kinross,PH2 0TH,56.39504833,-3.44428417,S02002231,S01011893
Scone Tennis Club,SC033915,Perth and Kinross,PH2 6PG,56.42591088,-3.41242593,S02002241,S01011949
Scone Village Association,SC036081,Perth and Kinross,PH2 6NY,56.42442545,-3.4055612,S02002241,S01011949
Ronald Percy Edwards Trust,SC037793,Perth and Kinross,PH2 6NX,56.4248413,-3.40692228,S02002241,S01011949
Scone Airport Men's Shed,SC049847,Perth and Kinross,PH2 6NY,56.42442545,-3.4055612,S02002241,S01011949
Stanley & District Public Hall,SC034349,Perth and Kinross,PH1 4NY,56.48276772,-3.45297424,S02002250,S01011997
2nd Coupar Angus Brownies,SC035140,Perth and Kinross,PH13 9PR,56.49395057,-3.32223925,S02002245,S01011972
Kettins Parish Hall,SC044380,Perth and Kinross,PH13 9HB,56.53804318,-3.25604604,S02002245,S01011972
Burrelton and Woodside Village Hall Committee,SC048600,Perth and Kinross,PH13 9NB,56.53235063,-3.31388671,S02002245,S01011972
1st Auchterarder Brownie Unit,SC035713,Perth and Kinross,PH3 1AS,56.29337526,-3.7059607,S02002223,S01011855
Presbytery Of Dunkeld & Meigle,SC036630,Perth and Kinross,PH10 6RR,56.58408621,-3.33653801,S02002249,S01011989
Horizon,SC036992,Perth and Kinross,PH15 2BJ,56.61805462,-3.86828606,S02002253,S01012015
Aberfeldy and District Old People's Welfare Association,SC040144,Perth and Kinross,PH15 2BQ,56.61935145,-3.86029874,S02002253,S01012015
Breadalbane and Strathtay Youth Football Club,SC046432,Perth and Kinross,PH15 2EA,56.62096048,-3.84820252,S02002253,S01012015
Breadalbane Men's Shed,SC047015,Perth and Kinross,PH15 2AX,56.61891242,-3.86081498,S02002253,S01012015
Breadalbane Heritage Society,SC049382,Perth and Kinross,PH15 2ER,56.61738592,-3.86494462,S02002253,S01012015
6th Carse of Gowrie Rainbow Guides,SC037198,Perth and Kinross,DD2 5AW,56.4602877,-3.06075266,S02002244,S01011968
Friends of the Stepping Stone Theatre Company,SC037860,Perth and Kinross,PH1 3DB,56.41742923,-3.4505467,S02002236,S01011928
Perth Drama Club,SC041502,Perth and Kinross,PH1 3DA,56.41673465,-3.45077962,S02002236,S01011928
Adventure Circus SCIO,SC050825,Perth and Kinross,PH1 3RL,56.41818816,-3.45785429,S02002236,S01011928
Comrie Development Trust,SC038596,Perth and Kinross,PH6 2AB,56.35522197,-3.9949132,S02002224,S01011859
Friends of Legion Park,SC051220,Perth and Kinross,PH6 2ET,56.37270362,-3.98181965,S02002224,S01011859
Longforgan Rainbow Unit,SC039356,Perth and Kinross,DD2 5HQ,56.43683803,-3.13583731,S02002244,S01011966
22nd Perthshire (St Matthew's) Scout Group,SC040184,Perth and Kinross,PH1 1LJ,56.39632754,-3.46087447,S02002231,S01011898
Darnhall Tennis Club,SC042021,Perth and Kinross,PH1 1BA,56.39458457,-3.45244805,S02002231,S01011898
1st Bridge of Earn Rainbow Unit,SC040270,Perth and Kinross,PH2 0HR,56.3881246,-3.44857369,S02002231,S01011897
7th Perthshire Scout Group,SC040339,Perth and Kinross,PH1 3PD,56.41781217,-3.57955167,S02002251,S01012002
Stanley Development Trust,SC040980,Perth and Kinross,PH1 4QX,56.48518751,-3.4458077,S02002250,S01011995
Comann Nam Parant (Peairt),SC041888,Perth and Kinross,PH1 4PS,56.46979662,-3.47931167,S02002250,S01011995
1st Bankfoot Brownie Unit,SC045622,Perth and Kinross,PH1 4DZ,56.50088691,-3.50162623,S02002250,S01011995
1st Bankfoot Rainbow Unit,SC045623,Perth and Kinross,PH1 4DZ,56.50088691,-3.50162623,S02002250,S01011995
1st Bankfoot Guide Unit,SC045948,Perth and Kinross,PH1 4DZ,56.50088691,-3.50162623,S02002250,S01011995
Oasis Church,SC042301,Perth and Kinross,PH2 6SN,56.41871053,-3.40638789,S02002241,S01011954
Bankfoot Youth Group,SC044306,Perth and Kinross,PH1 4AD,56.50121305,-3.51398646,S02002250,S01012000
The St. Johnstone Community Trust,SC046478,Perth and Kinross,PH1 2SJ,56.40677294,-3.48169445,S02002233,S01011909
Alyth and District Patient Transport Service (SCIO) ,SC047210,Perth and Kinross,PH12 8QZ,56.59444643,-3.17354089,S02002245,S01011973
Meigle and Ardler Community Development Trust,SC050381,Perth and Kinross,PH12 8QN,56.58976819,-3.16465158,S02002245,S01011973
Stanley & District Men's Shed,SC047528,Perth and Kinross,PH1 4LZ,56.48213337,-3.44574025,S02002250,S01011996
Kinross Community First Responders ,SC048390,Perth and Kinross,KY13 8FS,56.20548672,-3.43020061,S02002220,S01011840
Arngask Hall,SC048505,Perth and Kinross,PH2 9NW,56.28011492,-3.3999382,S02002228,S01011880
The Dorne Trust,SC048614,Perth and Kinross,PH10 7HH,56.60084468,-3.26858711,S02002247,S01011980
loch Leven Church,SC049050,Perth and Kinross,KY13 8GE,56.21543358,-3.42241175,S02002219,S01011834
The Den@Heartland Kids' Club ,SC049188,Perth and Kinross,PH16 5HZ,56.70467766,-3.72293288,S02002252,S01012011
Castle Cluggy Charitable Trust,SC049600,Perth and Kinross,PH7 4JR,56.38853676,-3.88978456,S02002224,S01011860
Trains Across Strathearn (TrAcS) Memorial Project ,SC050176,Perth and Kinross,PH7 3JS,56.37036806,-3.83166278,S02002226,S01011866
Fairfield Housing Association Limited,SC050560,Perth and Kinross,PH1 2TF,56.40627559,-3.45540537,S02002235,S01011918
20th Perth Ranger Unit,SC050643,Perth and Kinross,PH2 9AT,56.3433933,-3.40511928,S02002229,S01011882
