Name,Charity Number,Local authority,Postcode,Latitude,Longitude,IntermediateZone2011Code,DataZone2011Code
42nd Renfrewshire Kilmacolm Scouts Group,SC000210,Inverclyde,PA13 4DH,55.89359636,-4.62184877,S02002034,S01010818
St Columbas School Society,SC016292,Inverclyde,PA13 4PW,55.8982471,-4.61913911,S02002034,S01010818
Kilmacolm Civic Trust,SC032744,Inverclyde,PA13 4DQ,55.8943719,-4.62257295,S02002034,S01010818
2nd Johnstone (Fordbank) Scout Group,SC048912,Inverclyde,PA13 4QG,55.89621638,-4.62922417,S02002034,S01010818
Port Glasgow United Reformed Church,SC000582,Inverclyde,PA14 5YH,55.92263429,-4.66594274,S02002050,S01010923
"Ambassador Church, Port Glasgow",SC000755,Inverclyde,PA13 4SF,55.90178345,-4.64208038,S02002035,S01010819
Port Glasgow: New Parish Church (Church of Scotland),SC009018,Inverclyde,PA13 4QU,55.90043036,-4.62971739,S02002035,S01010819
Local Association Of Guides - Kilmacolm Branch,SC030876,Inverclyde,PA13 4SF,55.90178345,-4.64208038,S02002035,S01010819
Inverkip Church of Scotland,SC001079,Inverclyde,PA16 0FR,55.90533785,-4.87102801,S02002036,S01010825
League of Hospital Friends - Inverclyde,SC001318,Inverclyde,PA13 4LR,55.88847124,-4.63119513,S02002035,S01010821
St Ninian's 5th Gourock Brownie Pack,SC031127,Inverclyde,PA13 4TD,55.86826439,-4.64632472,S02002035,S01010821
2nd Gourock Guide Unit,SC032285,Inverclyde,PA13 4TD,55.86826439,-4.64632472,S02002035,S01010821
4th Gourock Guide Company,SC032344,Inverclyde,PA13 4TD,55.86826439,-4.64632472,S02002035,S01010821
6th Greenock Brownie Pack,SC033972,Inverclyde,PA13 4TD,55.86826439,-4.64632472,S02002035,S01010821
6th Finnart Rainbows,SC033974,Inverclyde,PA13 4TD,55.86826439,-4.64632472,S02002035,S01010821
Greenock Ranger Guide Unit,SC034173,Inverclyde,PA13 4TD,55.86826439,-4.64632472,S02002035,S01010821
1st Inverkip Brownie Unit,SC035096,Inverclyde,PA13 4TD,55.86826439,-4.64632472,S02002035,S01010821
20th A Greenock Brownie Unit,SC037120,Inverclyde,PA13 4TD,55.86826439,-4.64632472,S02002035,S01010821
23rd Greenock Brownie Unit,SC038835,Inverclyde,PA13 4TD,55.86826439,-4.64632472,S02002035,S01010821
39th Greenock Brownie Unit,SC039017,Inverclyde,PA13 4TD,55.86826439,-4.64632472,S02002035,S01010821
4th Gourock Brownie Unit,SC039151,Inverclyde,PA13 4TD,55.86826439,-4.64632472,S02002035,S01010821
John Kerr Trust,SC001423,Inverclyde,PA16 8BG,55.95624535,-4.7752336,S02002042,S01010868
Inverclyde Youth Theatre,SC023142,Inverclyde,PA16 8PB,55.9545354,-4.77692162,S02002042,S01010868
Inverclyde District Talking Newspaper Association,SC002020,Inverclyde,PA14 5NA,55.93393426,-4.68530995,S02002048,S01010911
Church Of The Nazarene,SC002195,Inverclyde,PA15 4EW,55.94029716,-4.76454683,S02002035,S01010823
St Mary The Virgin Episcopal Church: Port Glasgow,SC002931,Inverclyde,PA13 4HQ,55.89380911,-4.63293227,S02002034,S01010817
St Columbas School Development Appeal,SC002963,Inverclyde,PA13 4EQ,55.89212526,-4.63475358,S02002034,S01010817
St Columbas School Educational Trust,SC006505,Inverclyde,PA13 4EQ,55.89212526,-4.63475358,S02002034,S01010817
Sir Gabriel Wood's Mariners' Home,SC003763,Inverclyde,PA16 7TQ,55.95924349,-4.78735386,S02002042,S01010866
Greenock West United Reform Church,SC012931,Inverclyde,PA16 8JA,55.95693214,-4.78303775,S02002042,S01010866
Greenock & District Scout Council,SC004127,Inverclyde,PA15 1BS,55.94755425,-4.75598168,S02002046,S01010891
Inverclyde Community Development Trust,SC007212,Inverclyde,PA15 1JZ,55.95049514,-4.76032389,S02002046,S01010891
Inverclyde Family Contact Centre,SC035041,Inverclyde,PA15 1XU,55.95169451,-4.76295654,S02002046,S01010891
Inverclyde Carers Centre ,SC038583,Inverclyde,PA15 1DD,55.94677685,-4.75296303,S02002046,S01010891
Inverclyde Advice & Employment Rights Centre,SC038819,Inverclyde,PA15 1JZ,55.95049514,-4.76032389,S02002046,S01010891
Stepwell Consultancy Ltd,SC039402,Inverclyde,PA15 1JG,55.95215181,-4.76060206,S02002046,S01010891
RIG Arts Ltd,SC042242,Inverclyde,PA15 1LP,55.95202006,-4.76046451,S02002046,S01010891
Inverclyde Heritage SCIO,SC050770,Inverclyde,PA15 1YQ,55.95241531,-4.76127768,S02002046,S01010891
Greenock Medical Aid Society,SC004538,Inverclyde,PA16 7RA,55.95848637,-4.77550625,S02002042,S01010867
Finnart St Pauls Mother & Toddler Group,SC006972,Inverclyde,PA16 7RJ,55.95996953,-4.77949026,S02002042,S01010867
Inverclyde Christian Initiative,SC036983,Inverclyde,PA16 7RY,55.96136844,-4.78202633,S02002042,S01010867
Abbeyfield Strathgryffe Society Ltd,SC004639,Inverclyde,PA11 3SX,55.86702944,-4.62130429,S02002035,S01010822
Mount Zion Church (Interdenominational) Quarriers Village,SC030549,Inverclyde,PA11 3FD,55.86777995,-4.62488759,S02002035,S01010822
Inverclyde D of E Support Group,SC042569,Inverclyde,PA11 3SQ,55.86933396,-4.62113991,S02002035,S01010822
The Gibshill Sunshine Club,SC004978,Inverclyde,PA16 9LH,55.94286104,-4.79866934,S02002041,S01010857
Greenock Westburn Church Of Scotland,SC005106,Inverclyde,PA16 8QD,55.94892597,-4.77494991,S02002043,S01010877
Church of Scotland Port Glasgow: Hamilton Bardrainney Church,SC005421,Inverclyde,PA14 6BX,55.92944719,-4.66388116,S02002049,S01010917
1st Gourock (CDO) 6th Greenock & District Scout Group,SC006079,Inverclyde,PA19 1SB,55.9545461,-4.81603151,S02002038,S01010839
Old Gourock and Ashton Parish Church of Scotland,SC007324,Inverclyde,PA19 1NZ,55.95640127,-4.8280391,S02002038,S01010839
Gourock Coal & Benevolent Fund,SC009881,Inverclyde,PA19 1NZ,55.95640127,-4.8280391,S02002038,S01010839
St Johns Church Of Scotland: Gourock,SC006412,Inverclyde,PA19 1AJ,55.94601657,-4.8569638,S02002037,S01010833
St Margarets Church Of Scotland: Greenock,SC016711,Inverclyde,PA19 1AJ,55.94601657,-4.8569638,S02002037,S01010833
70th Greenock and District Scout Group,SC028907,Inverclyde,PA19 1AJ,55.94601657,-4.8569638,S02002037,S01010833
Port Glasgow Voluntary Trans-Port Group,SC007529,Inverclyde,PA14 5XS,55.92683245,-4.6766855,S02002048,S01010914
Devol Community Association,SC032981,Inverclyde,PA14 5YU,55.92569902,-4.68168225,S02002048,S01010914
Greenock The Mount Kirk (Church of Scotland),SC008357,Inverclyde,PA16 7QT,55.95530375,-4.79817381,S02002042,S01010863
Church Of God- Greenock,SC009127,Inverclyde,PA16 0DS,55.90958109,-4.85826689,S02002036,S01010830
Inverkip Community Enterprise,SC039210,Inverclyde,PA16 0DF,55.90976582,-4.85844053,S02002036,S01010830
Children in Poverty Inverclyde,SC044563,Inverclyde,PA16 0EW,55.90933058,-4.86053694,S02002036,S01010830
Kilmacolm Old Kirk (Church of Scotland),SC009291,Inverclyde,PA13 4DZ,55.89040745,-4.63606061,S02002035,S01010820
St Fillans Episcopal Church: Kilmacolm,SC014462,Inverclyde,PA13 4LH,55.89092641,-4.63323276,S02002035,S01010820
Inverclyde Voluntary Council Of Social Service SCIO,SC010793,Inverclyde,PA15 4AX,55.94233728,-4.75573903,S02002045,S01010885
Senit Foundation,SC037581,Inverclyde,PA15 4AX,55.94233728,-4.75573903,S02002045,S01010885
Man On! Inverclyde Ltd,SC050708,Inverclyde,PA15 4RN,55.94380055,-4.7489877,S02002045,S01010885
Greenock: Lyle Kirk (Church of Scotland),SC010818,Inverclyde,PA16 8DJ,55.95383812,-4.76996646,S02002043,S01010871
I FiT,SC049182,Inverclyde,PA16 8DD,55.95289191,-4.76927402,S02002043,S01010871
Ardgowan Hospice Ltd,SC011541,Inverclyde,PA15 1TS,55.94960777,-4.76662047,S02002043,S01010873
Inverclyde Youth For Christ,SC017751,Inverclyde,PA15 1XX,55.95113847,-4.76370189,S02002043,S01010873
Financial Fitness Resource Team,SC029817,Inverclyde,PA15 1SH,55.95088395,-4.76342743,S02002043,S01010873
Evergreen Home Support,SC032530,Inverclyde,PA15 1TJ,55.94858111,-4.76670739,S02002043,S01010873
Moving On (Inverclyde),SC034197,Inverclyde,PA15 1XX,55.95113847,-4.76370189,S02002043,S01010873
5th Renfrew & Inverclyde Scout Group,SC036004,Inverclyde,PA15 1TP,55.94996174,-4.76566853,S02002043,S01010873
Safe Harbour Inverclyde Limited,SC038203,Inverclyde,PA16 8UH,55.94736809,-4.76868724,S02002043,S01010873
Wellington Children's Centre,SC011935,Inverclyde,PA15 4AB,55.94462107,-4.75570913,S02002046,S01010893
Cloch Housing Association Limited,SC013996,Inverclyde,PA15 1ER,55.94467938,-4.75310243,S02002046,S01010893
Inverclyde Association For Mental Health,SC017504,Inverclyde,PA15 4AA,55.94538413,-4.75414557,S02002046,S01010893
Cvs Inverclyde,SC024376,Inverclyde,PA15 1DE,55.94657945,-4.75334947,S02002046,S01010893
Inverclyde Community Fund,SC042844,Inverclyde,PA15 1DE,55.94657945,-4.75334947,S02002046,S01010893
Inverclyde Community Fund SCIO,SC051145,Inverclyde,PA15 1DE,55.94657945,-4.75334947,S02002046,S01010893
Branchton Community Centre Association,SC013440,Inverclyde,PA16 0XX,55.93746599,-4.80900989,S02002040,S01010854
Lodge Doric Kilwinning No 68 Benevolent Fund,SC015107,Inverclyde,PA14 5BP,55.93496234,-4.69543737,S02002048,S01010910
Greenock Congregation Of Jehovahs Witnesses,SC016294,Inverclyde,PA14 6LN,55.92121437,-4.65636887,S02002050,S01010926
Inverclyde Out Of School Network,SC027360,Inverclyde,PA14 6PP,55.92005995,-4.65363273,S02002050,S01010926
Wemyss Bay Community Association,SC020256,Inverclyde,PA18 6BU,55.89240277,-4.89557051,S02002036,S01010828
Scottish Community Drama Association Inverclyde District,SC021376,Inverclyde,PA16 8HN,55.95229025,-4.77483829,S02002042,S01010869
Thistle Theatre Company,SC036317,Inverclyde,PA16 8SF,55.95280933,-4.7781277,S02002042,S01010869
Inverclyde Homeless Forum,SC040834,Inverclyde,PA16 8SF,55.95280933,-4.7781277,S02002042,S01010869
Riverside Youth Band,SC043025,Inverclyde,PA16 8SY,55.95420317,-4.77849997,S02002042,S01010869
Lyle Gateway (SCIO),SC044468,Inverclyde,PA16 8TD,55.95365278,-4.78177692,S02002042,S01010869
Inverclyde Athletic Club,SC047791,Inverclyde,PA16 8HN,55.95229025,-4.77483829,S02002042,S01010869
Greenock Unit (No 161) of the Sea Cadet Corps,SC023152,Inverclyde,PA16 0BA,55.91091593,-4.87889845,S02002036,S01010829
80th Greenock & District Scout Group,SC036078,Inverclyde,PA16 0AT,55.90778205,-4.87183285,S02002036,S01010829
Inverclyde To Lourdes Group,SC023170,Inverclyde,PA19 1HN,55.94514605,-4.812001,S02002039,S01010847
Craigend Resource Centre,SC023698,Inverclyde,PA15 2HD,55.93953854,-4.72600798,S02002047,S01010904
Royal Scottish Country Dance Society West Renfrewshire Local Association,SC024985,Inverclyde,PA16 7SR,55.96082381,-4.78663427,S02002042,S01010865
Old West Kirk Trust SCIO Greenock,SC047230,Inverclyde,PA16 7UA,55.96228781,-4.7942232,S02002042,S01010865
Inverclyde Recovery Cafe,SC047378,Inverclyde,PA16 7AS,55.9628,-4.79145573,S02002042,S01010865
Parklea Association Branching Out Ltd,SC027216,Inverclyde,PA14 6TR,55.93010703,-4.64243976,S02002049,S01010920
Caddlehill Christian Fellowship,SC028410,Inverclyde,PA16 8AL,55.95653219,-4.77007889,S02002043,S01010870
Inverclyde Carers Council,SC028512,Inverclyde,PA15 1NB,55.94725027,-4.75711341,S02002046,S01010892
Inverclyde Community Care Forum,SC029506,Inverclyde,PA15 1NB,55.94725027,-4.75711341,S02002046,S01010892
Hillend S.C. Art Club,SC029300,Inverclyde,PA15 2TJ,55.94184173,-4.73240018,S02002047,S01010903
Port Glasgow Training Initiative Limited,SC030177,Inverclyde,PA14 5PG,55.93206333,-4.6800086,S02002048,S01010912
Youth Connections,SC030349,Inverclyde,PA16 0NG,55.93966859,-4.81961167,S02002040,S01010853
27th Greenock Guides,SC030968,Inverclyde,PA19 1XS,55.95413023,-4.8019503,S02002042,S01010864
Greenock Baptist Church,SC039787,Inverclyde,PA19 1UP,55.95604435,-4.80276162,S02002042,S01010864
Hammy's Out Of School Care,SC031427,Inverclyde,PA14 6HD,55.9241268,-4.65927367,S02002049,S01010922
1st Inverkip Guides,SC031431,Inverclyde,PA16 0FG,55.90274065,-4.86289962,S02002036,S01010824
Starter Packs Inverclyde,SC033306,Inverclyde,PA15 4RW,55.94355864,-4.74653597,S02002046,S01010894
Inverclyde Phoenix Road Safety Group,SC033399,Inverclyde,PA16 8TX,55.94780624,-4.7715859,S02002043,S01010876
Magic Torch,SC033748,Inverclyde,PA16 9NY,55.93817374,-4.7782163,S02002044,S01010882
Kilmacolm New Community Centre Company Limited,SC034657,Inverclyde,PA13 4BD,55.89241731,-4.62866318,S02002034,S01010816
Glasgow Reformed Presbyterian Church of Scotland,SC043044,Inverclyde,PA13 4NU,55.88839189,-4.62228131,S02002034,S01010816
32nd Greenock and District Scout Group,SC034685,Inverclyde,PA16 0LW,55.91152971,-4.85757814,S02002036,S01010831
Inverclyde Autistic Support Group,SC035042,Inverclyde,PA16 9HB,55.93887212,-4.79184724,S02002044,S01010880
10th Greenock & District Scout Group,SC036143,Inverclyde,PA16 8JY,55.95078627,-4.76697691,S02002043,S01010872
Fibromyalgia Trust,SC043107,Inverclyde,PA16 8LP,55.95051697,-4.76896019,S02002043,S01010872
MindMosaic Counselling and Therapy Ltd,SC046721,Inverclyde,PA16 8JH,55.95053179,-4.76510044,S02002043,S01010872
Designed Necessities SCIO,SC051035,Inverclyde,PA16 8LP,55.95051697,-4.76896019,S02002043,S01010872
Greenock East End Parish Church of Scotland,SC037023,Inverclyde,PA16 8HJ,55.95156065,-4.77251116,S02002043,S01010874
Riverside Inverclyde,SC037806,Inverclyde,PA15 2UH,55.93963279,-4.720121,S02002047,S01010905
River Clyde Homes,SC038584,Inverclyde,PA15 2UZ,55.94031599,-4.72133806,S02002047,S01010905
Auchmountain Community Resource Centre,SC038589,Inverclyde,PA15 3LG,55.93593467,-4.73975072,S02002047,S01010901
GRASP (Greenock Recovery Alcohol Support Project) SCIO,SC046779,Inverclyde,PA15 3LG,55.93593467,-4.73975072,S02002047,S01010901
Prospecthill Community Focus,SC039884,Inverclyde,PA15 4HR,55.94174259,-4.76982315,S02002044,S01010883
4th Finnart Rainbows,SC040326,Inverclyde,PA19 1NY,55.96103059,-4.81901859,S02002039,S01010842
Gourock Schools and Churches Together,SC046236,Inverclyde,PA19 1PU,55.95737704,-4.81487525,S02002039,S01010842
Gourock Heritage and Arts SCIO,SC048670,Inverclyde,PA19 1QZ,55.96050493,-4.81606392,S02002039,S01010842
33rd Greenock & District Scouts,SC041478,Inverclyde,PA16 0TD,55.94224938,-4.8065855,S02002040,S01010855
Larkfield Housing Association,SC042066,Inverclyde,PA16 0PG,55.9423927,-4.8250793,S02002040,S01010850
Gibshill Community Centre (SCIO),SC043615,Inverclyde,PA15 2NH,55.93614157,-4.71865912,S02002047,S01010906
Belville Community Garden Trust,SC045148,Inverclyde,PA15 4UN,55.94206152,-4.73909446,S02002046,S01010896
Oak Tree Housing Association Limited ,SC045300,Inverclyde,PA15 1NR,55.94780428,-4.76006823,S02002046,S01010890
SHOCK Theatre Company,SC045493,Inverclyde,PA16 7DE,55.94950826,-4.79530447,S02002041,S01010859
47th Greenock & District Scout Group,SC046460,Inverclyde,PA14 6LH,55.9206641,-4.66145348,S02002050,S01010924
Greenock Art Club,SC048032,Inverclyde,PA19 1DY,55.95099863,-4.82844595,S02002038,S01010837
2nd Larkfield Rainbows,SC050818,Inverclyde,PA19 1ST,55.95098865,-4.82692328,S02002038,S01010837
Emmanuel Evangelical Church in Scotland (EECIS),SC048401,Inverclyde,PA16 9EP,55.94134951,-4.79120877,S02002044,S01010879
Inverclyde Vineyard Church SCIO ,SC048604,Inverclyde,PA19 1XG,55.95321578,-4.80973462,S02002039,S01010844
The Inverclyde Shed,SC049585,Inverclyde,PA15 4LQ,55.94420636,-4.76458528,S02002045,S01010887
Phoenix Theatre Company,SC049649,Inverclyde,PA19 1PJ,55.95958323,-4.81824029,S02002038,S01010841
