Name,Charity Number,Local authority,Postcode,Latitude,Longitude,IntermediateZone2011Code,DataZone2011Code
Stromness Pre School Playgroup,SC000214,Orkney Islands,KW16 3AH,58.97062276,-3.29436889,S02002213,S01011806
Stromness Church Of Scotland: Orkney,SC003099,Orkney Islands,KW16 3JQ,58.96727422,-3.28610443,S02002213,S01011806
Stromness Drama Club,SC031762,Orkney Islands,KW16 3LH,58.97242787,-3.29168843,S02002213,S01011806
Stenness Parent & Toddler Group,SC038816,Orkney Islands,KW16 3EX,58.98091134,-3.28396831,S02002213,S01011806
Stromness Community Garden,SC043754,Orkney Islands,KW16 3JQ,58.96727422,-3.28610443,S02002213,S01011806
Rousay Church Of Scotland,SC001078,Orkney Islands,KW17 2PU,59.13180628,-2.98737075,S02002218,S01011830
Shapinsay Church Of Scotland,SC006097,Orkney Islands,KW17 2EA,59.0337538,-2.85727981,S02002218,S01011830
Shapinsay Lunch/Friendship Club,SC023998,Orkney Islands,KW17 2DY,59.04170129,-2.90233554,S02002218,S01011830
Triangle Club,SC024243,Orkney Islands,KW17 2PU,59.13180628,-2.98737075,S02002218,S01011830
Shapinsay Community Association,SC026881,Orkney Islands,KW17 2EA,59.0337538,-2.85727981,S02002218,S01011830
"Shapinsay Heritage, Arts and Crafts",SC030206,Orkney Islands,KW17 2DZ,59.0451755,-2.85620487,S02002218,S01011830
Shapinsay Development Trust,SC034818,Orkney Islands,KW17 2DY,59.04170129,-2.90233554,S02002218,S01011830
Shapinsay Brownie And Rainbow Unit,SC038546,Orkney Islands,KW17 2DY,59.04170129,-2.90233554,S02002218,S01011830
"Rousay, Egilsay and Wyre Development Trust",SC040407,Orkney Islands,KW17 2PR,59.15955975,-2.98463809,S02002218,S01011830
"Rousay,Egilsay & Wyre Heritage SCIO",SC048300,Orkney Islands,KW17 2PR,59.15955975,-2.98463809,S02002218,S01011830
1st Rousay Guide Unit,SC049719,Orkney Islands,KW17 2PU,59.13180628,-2.98737075,S02002218,S01011830
1ST ROUSAY RAINBOW AND BROWNIE UNIT,SC049744,Orkney Islands,KW17 2PU,59.13180628,-2.98737075,S02002218,S01011830
Egilsay Community Association SCIO,SC050506,Orkney Islands,KW17 2QD,59.14941494,-2.93183014,S02002218,S01011830
St Mary The Virgin Episcopal Church: Orkney,SC001441,Orkney Islands,KW16 3BA,58.96251877,-3.3000119,S02002213,S01011805
Pier Arts Centre,SC014815,Orkney Islands,KW16 3AA,58.96335035,-3.29769572,S02002213,S01011805
Orkney Folk Festival,SC027280,Orkney Islands,KW16 3BH,58.96407259,-3.29553182,S02002213,S01011805
Orkney Unit (No 521) of the Sea Cadet Corps,SC028020,Orkney Islands,KW16 3BZ,58.96062317,-3.30006224,S02002213,S01011805
The George Mackay Brown Fellowship,SC039924,Orkney Islands,KW16 3BU,58.96166351,-3.29931895,S02002213,S01011805
Tackling Household Affordable Warmth Orkney,SC045272,Orkney Islands,KW16 3AP,58.96200884,-3.30070561,S02002213,S01011805
West Side Cinema,SC046126,Orkney Islands,KW16 3BY,58.96119001,-3.29996187,S02002213,S01011805
Grace Church Orkney,SC047937,Orkney Islands,KW16 3AD,58.96465898,-3.29706671,S02002213,S01011805
Orkney Yole Association,SC048254,Orkney Islands,KW16 3AP,58.96200884,-3.30070561,S02002213,S01011805
Sandwick Community Association,SC002339,Orkney Islands,KW17 2JH,59.08208338,-3.28521649,S02002214,S01011811
Kirkwall Congregation Of Jehovahs Witnesses,SC009093,Orkney Islands,KW17 2JH,59.08208338,-3.28521649,S02002214,S01011811
The St Magnus Church Birsay Trust ,SC026084,Orkney Islands,KW17 2LT,59.13333118,-3.28607063,S02002214,S01011811
Birsay Heritage Trust,SC027642,Orkney Islands,KW17 2LY,59.12717966,-3.30401066,S02002214,S01011811
Birsay Community Association,SC028453,Orkney Islands,KW17 2LR,59.12097108,-3.270759,S02002214,S01011811
1st Stromness Brownies,SC031100,Orkney Islands,KW16 3LT,59.07174696,-3.31378646,S02002214,S01011811
1st Dounby Guides Unit,SC032284,Orkney Islands,KW17 2HZ,59.06473281,-3.21041342,S02002214,S01011811
Orkney Kidney Patient Association,SC033803,Orkney Islands,KW17 2HR,59.0872745,-3.2493735,S02002214,S01011811
Orkney Clay Pigeon Club,SC040830,Orkney Islands,KW17 2HS,59.07415219,-3.24383755,S02002214,S01011811
Orkney Association of Youth Groups,SC045408,Orkney Islands,KW16 3JD,59.05261813,-3.28041958,S02002214,S01011811
Swandro-Orkney Coastal Archaeology Trust,SC047002,Orkney Islands,KW17 2LR,59.12097108,-3.270759,S02002214,S01011811
Stromness Baptist Church SCIO,SC050827,Orkney Islands,KW17 2LT,59.13333118,-3.28607063,S02002214,S01011811
Soulisquoy Printmakers Ltd,SC002529,Orkney Islands,KW17 2JS,59.02145667,-3.18955855,S02002214,S01011810
Hoy Trust,SC003579,Orkney Islands,KW17 2JR,59.03287615,-3.17728612,S02002214,S01011810
Evie Church Of Scotland,SC005062,Orkney Islands,KW17 2PA,59.05429264,-3.10632909,S02002214,S01011810
Spiritual Assembly Of The Baha'is Of Orkney - Mainland East,SC008149,Orkney Islands,KW17 2NZ,59.06049889,-3.07425227,S02002214,S01011810
Rendall Community Assoc,SC011413,Orkney Islands,KW17 2PA,59.05429264,-3.10632909,S02002214,S01011810
Orkney Field Club (SCIO),SC012459,Orkney Islands,KW17 2PA,59.05429264,-3.10632909,S02002214,S01011810
John Tait Trust,SC013706,Orkney Islands,KW17 2EX,59.05077116,-3.07006112,S02002214,S01011810
Harray Community Association,SC013811,Orkney Islands,KW17 2LE,59.03902426,-3.21278552,S02002214,S01011810
Rendall Church Of Scotland,SC016806,Orkney Islands,KW17 2PA,59.05429264,-3.10632909,S02002214,S01011810
Lodge Odin No 917 Benevolent Fund,SC022398,Orkney Islands,KW17 2LQ,59.05017086,-3.19334033,S02002214,S01011810
Dounby Centre Committee,SC027199,Orkney Islands,KW17 2LQ,59.05017086,-3.19334033,S02002214,S01011810
Stromness Shopping Week Association,SC038922,Orkney Islands,KW17 2JR,59.03287615,-3.17728612,S02002214,S01011810
West Mainland Bowling Club SCIO,SC043715,Orkney Islands,KW17 2JA,59.06269591,-3.22361265,S02002214,S01011810
Orkney Pilgrimage SCIO,SC047008,Orkney Islands,KW17 2JU,59.01888337,-3.15735371,S02002214,S01011810
1st Kirkwall Company Boys' Brigade SCIO,SC047602,Orkney Islands,KW17 2EX,59.05077116,-3.07006112,S02002214,S01011810
Orkney RDA (SCIO),SC049013,Orkney Islands,KW17 2ET,59.02809804,-3.07174317,S02002214,S01011810
The Hoy Trust SCIO,SC049348,Orkney Islands,KW17 2JR,59.03287615,-3.17728612,S02002214,S01011810
1st Dounby Rainbow Unit,SC049378,Orkney Islands,KW17 2JU,59.01888337,-3.15735371,S02002214,S01011810
Harray Community Association SCIO,SC050120,Orkney Islands,KW17 2LE,59.03902426,-3.21278552,S02002214,S01011810
Orkney Wireless Museum,SC002982,Orkney Islands,KW15 1LB,58.98420583,-2.9597593,S02002216,S01011821
Orkney Disability Forum,SC019325,Orkney Islands,KW15 1AB,58.98346807,-2.96114802,S02002216,S01011821
Crossroads Care Orkney Limited,SC022786,Orkney Islands,KW15 1GU,58.98302383,-2.96170977,S02002216,S01011821
Relationships Scotland Orkney,SC023164,Orkney Islands,KW15 1GU,58.98302383,-2.96170977,S02002216,S01011821
Orkney Zerowaste,SC036522,Orkney Islands,KW15 1LB,58.98420583,-2.9597593,S02002216,S01011821
South Ronaldsay & Burray Church Of Scotland,SC003298,Orkney Islands,KW17 2RN,58.76259817,-2.96069361,S02002218,S01011828
Orkney Seal Rescue,SC004488,Orkney Islands,KW17 2TJ,58.80821573,-2.94095764,S02002218,S01011828
Cromarty Hall Trust,SC008281,Orkney Islands,KW17 2SP,58.8254346,-2.95900287,S02002218,S01011828
South Ronaldsay Community Association,SC017947,Orkney Islands,KW17 2TQ,58.83165971,-2.93435267,S02002218,S01011828
Marengo Road Centre,SC021165,Orkney Islands,KW17 2TD,58.82608871,-2.95557444,S02002218,S01011828
1st Burray Guide Unit,SC031201,Orkney Islands,KW17 2SP,58.8254346,-2.95900287,S02002218,S01011828
Burray Community Association,SC044768,Orkney Islands,KW17 2TQ,58.83165971,-2.93435267,S02002218,S01011828
St Mary's Preservation Trust,SC047688,Orkney Islands,KW17 2RN,58.76259817,-2.96069361,S02002218,S01011828
Friends of St Peter's Kirk (SCIO),SC049906,Orkney Islands,KW17 2TL,58.82739488,-2.97308605,S02002218,S01011828
Orkney Heritage Society,SC004033,Orkney Islands,KW15 1PU,58.97736316,-2.95356772,S02002217,S01011823
Holm Community Association SCIO,SC004212,Orkney Islands,KW17 2TF,58.89747225,-2.90804857,S02002215,S01011813
Kirkwall St Magnus Cathedral (Church of Scotland),SC005322,Orkney Islands,KW15 1SX,58.95262427,-2.96034173,S02002215,S01011813
Kirkwall Grammar School Enrichment Fund,SC021878,Orkney Islands,KW17 2RT,58.89606459,-2.91661922,S02002215,S01011813
1st Kirkwall Brownie Unit,SC031342,Orkney Islands,KW17 2RY,58.90716088,-2.93104384,S02002215,S01011813
St Andrews Rainbow Unit,SC040062,Orkney Islands,KW17 2RY,58.90716088,-2.93104384,S02002215,S01011813
Orkney Charitable Trust,SC044924,Orkney Islands,KW15 1SX,58.95262427,-2.96034173,S02002215,S01011813
Young at Heart Memories Cafe (SCIO),SC050313,Orkney Islands,KW17 2SA,58.91354153,-2.90517143,S02002215,S01011813
Orkney Arts Society,SC004819,Orkney Islands,KW16 3HU,58.9988233,-3.30345197,S02002213,S01011807
John S & Lily Tait Fund,SC004945,Orkney Islands,KW17 2JE,59.06299564,-3.23933584,S02002213,S01011807
Italian Chapel Preservation Committee SCIO,SC022229,Orkney Islands,KW16 3LB,58.98328557,-3.21477492,S02002213,S01011807
1st Stenness Brownie Unit,SC030875,Orkney Islands,KW16 3JX,58.98534035,-3.22925422,S02002213,S01011807
Stenness Community Association,SC031318,Orkney Islands,KW16 3LB,58.98328557,-3.21477492,S02002213,S01011807
Orkney Marinas Limited,SC033856,Orkney Islands,KW16 3HA,58.95832104,-3.2248672,S02002213,S01011807
Mollie Lind Charitable Trust,SC037291,Orkney Islands,KW16 3LP,59.0305967,-3.31529989,S02002213,S01011807
Firth Rainbow Unit,SC038921,Orkney Islands,KW16 3JE,59.04880402,-3.29818028,S02002213,S01011807
1st Firth Brownie Guide Pack,SC042688,Orkney Islands,KW16 3JE,59.04880402,-3.29818028,S02002213,S01011807
Friends of Happy Valley,SC044724,Orkney Islands,KW16 3LA,58.97938081,-3.17563426,S02002213,S01011807
The Ness of Brodgar Trust ,SC044890,Orkney Islands,KW16 3JZ,58.99696943,-3.21421266,S02002213,S01011807
Orkney Men's Shed ,SC046611,Orkney Islands,KW16 3JP,58.96664622,-3.3278357,S02002213,S01011807
Hamnavoe Carers SCIO,SC048042,Orkney Islands,KW16 3JP,58.96664622,-3.3278357,S02002213,S01011807
Dounby United Free Church,SC005061,Orkney Islands,KW17 2QR,58.96187846,-2.86829128,S02002215,S01011815
Society Of The Friends Of St Magnus Cathedral,SC007980,Orkney Islands,KW15 1TA,58.97416285,-2.9355294,S02002215,S01011815
East Church Toddler Group,SC032203,Orkney Islands,KW15 1SS,58.95923102,-2.93503789,S02002215,S01011815
St Andrews Community Association SCIO,SC037040,Orkney Islands,KW17 2QU,58.93380943,-2.8553556,S02002215,S01011815
4th Kirkwall Brownie Unit,SC038931,Orkney Islands,KW15 1XS,58.97066039,-2.94539981,S02002215,S01011815
The Orkney Traditional Music Project,SC039905,Orkney Islands,KW17 2QU,58.93380943,-2.8553556,S02002215,S01011815
The Peedie Retreat [SCIO],SC051289,Orkney Islands,KW15 1SR,58.96837834,-2.93563347,S02002215,S01011815
Eday Church of Scotland,SC005404,Orkney Islands,KW17 2AB,59.21345383,-2.75653711,S02002218,S01011832
John Reid Trust Westray,SC007371,Orkney Islands,KW17 2DN,59.33619799,-2.9730118,S02002218,S01011832
Papa Westray Church of Scotland,SC013661,Orkney Islands,KW17 2BU,59.34739312,-2.89322046,S02002218,S01011832
Papay Community Association,SC022974,Orkney Islands,KW17 2BU,59.34739312,-2.89322046,S02002218,S01011832
Westray Heritage Trust,SC023042,Orkney Islands,KW17 2BZ,59.3156031,-2.98884873,S02002218,S01011832
Westray Playgroup,SC023062,Orkney Islands,KW17 2DN,59.33619799,-2.9730118,S02002218,S01011832
Papa Westray Thursday Club,SC024001,Orkney Islands,KW17 2BU,59.34739312,-2.89322046,S02002218,S01011832
Westray Parish Church Of Scotland,SC025053,Orkney Islands,KW17 2DD,59.28974419,-2.90670012,S02002218,S01011832
Westray Development Trust,SC029471,Orkney Islands,KW17 2DF,59.32240683,-2.9881327,S02002218,S01011832
Papay Development Trust,SC029585,Orkney Islands,KW17 2BU,59.34739312,-2.89322046,S02002218,S01011832
Eday Heritage Centre Association,SC031445,Orkney Islands,KW17 2AA,59.16197683,-2.7673967,S02002218,S01011832
Eday Partnership,SC042290,Orkney Islands,KW17 2AB,59.21345383,-2.75653711,S02002218,S01011832
Friends of Kalisgarth,SC042739,Orkney Islands,KW17 2DG,59.32155902,-2.98979486,S02002218,S01011832
Friends of The Westray Playpark,SC044903,Orkney Islands,KW17 2DR,59.27633673,-2.9821473,S02002218,S01011832
Eday Heritage Centre Association (SCIO),SC048870,Orkney Islands,KW17 2AA,59.16197683,-2.7673967,S02002218,S01011832
Community Archaeology Westray (CAW) SCIO,SC049328,Orkney Islands,KW17 2DW,59.31759401,-3.00447229,S02002218,S01011832
St Olafs Episcopal Church: Orkney,SC005632,Orkney Islands,KW15 1JQ,58.97921159,-2.95622818,S02002216,S01011822
Age Scotland Orkney,SC007638,Orkney Islands,KW15 1DN,58.980214,-2.96154446,S02002216,S01011822
Orkney Multiple Sclerosis Therapy Centre,SC008262,Orkney Islands,KW15 1NX,58.98209509,-2.95978757,S02002216,S01011822
St Magnus Festival,SC011666,Orkney Islands,KW15 1HP,58.98362442,-2.95822949,S02002216,S01011822
Orkney Blide Trust (K/A The Blide Trust & O.B.T),SC012104,Orkney Islands,KW15 1DN,58.980214,-2.96154446,S02002216,S01011822
Rinansay Charitable Trust,SC020464,Orkney Islands,KW15 1HP,58.98362442,-2.95822949,S02002216,S01011822
Orkney Theatre,SC025758,Orkney Islands,KW15 1DH,58.98161093,-2.96088751,S02002216,S01011822
Orkney Mission,SC027497,Orkney Islands,KW15 1DH,58.98161093,-2.96088751,S02002216,S01011822
Royal British Legion Scotland Kirkwall Branch,SC029018,Orkney Islands,KW15 1AR,58.9805074,-2.96315312,S02002216,S01011822
Orkney Care And Repair Trust,SC029277,Orkney Islands,KW15 1DN,58.980214,-2.96154446,S02002216,S01011822
Orkney Homes Trust Limited,SC030297,Orkney Islands,KW15 1DU,58.97960826,-2.96208426,S02002216,S01011822
Palace Players,SC030761,Orkney Islands,KW15 1HP,58.98362442,-2.95822949,S02002216,S01011822
Orkney Housing Association Limited,SC031734,Orkney Islands,KW15 1DN,58.980214,-2.96154446,S02002216,S01011822
Orkney Vintage Club Ltd,SC032551,Orkney Islands,KW15 1JQ,58.97921159,-2.95622818,S02002216,S01011822
Employability Orkney,SC036972,Orkney Islands,KW15 1AR,58.9805074,-2.96315312,S02002216,S01011822
Ronald F Slater Charitable Trust,SC038486,Orkney Islands,KW15 1DH,58.98161093,-2.96088751,S02002216,S01011822
Orkney Youth Cafe,SC041979,Orkney Islands,KW15 1DH,58.98161093,-2.96088751,S02002216,S01011822
Orkney Islands Sea Angling Association SCIO,SC046649,Orkney Islands,KW15 1JN,58.98001618,-2.95915566,S02002216,S01011822
Mind-On (SCIO),SC049838,Orkney Islands,KW15 1HP,58.98362442,-2.95822949,S02002216,S01011822
Orkney Wheeled Sports Club,SC049875,Orkney Islands,KW15 1DH,58.98161093,-2.96088751,S02002216,S01011822
Orkney Gymnastics Club,SC050153,Orkney Islands,KW15 1JQ,58.97921159,-2.95622818,S02002216,S01011822
Peedie Cubby,SC051129,Orkney Islands,KW15 1DN,58.980214,-2.96154446,S02002216,S01011822
"Moncur Memorial Church of Scotland, Stronsay",SC006572,Orkney Islands,KW17 2AT,59.14134235,-2.63739132,S02002218,S01011831
Church Of Scotland Presbytery Of Orkney,SC014056,Orkney Islands,KW17 2AT,59.14134235,-2.63739132,S02002218,S01011831
Stronsay Community Association,SC020186,Orkney Islands,KW17 2AE,59.12097437,-2.61131887,S02002218,S01011831
Sanday Community Association,SC020664,Orkney Islands,KW17 2BL,59.24521814,-2.55933813,S02002218,S01011831
Sanday Afternoon Club,SC024002,Orkney Islands,KW17 2AZ,59.28259938,-2.58062493,S02002218,S01011831
North Ronaldsay Heritage Trust,SC029566,Orkney Islands,KW17 2BE,59.36426825,-2.426263,S02002218,S01011831
North Ronaldsay Trust,SC030545,Orkney Islands,KW17 2BG,59.38077129,-2.41013726,S02002218,S01011831
1st Sanday Brownie Unit,SC030920,Orkney Islands,KW17 2BA,59.22744134,-2.65998771,S02002218,S01011831
1st Sanday Guides Unit,SC033526,Orkney Islands,KW17 2BA,59.22744134,-2.65998771,S02002218,S01011831
Sanday Development Trust,SC035495,Orkney Islands,KW17 2BN,59.25278299,-2.5790655,S02002218,S01011831
Stronsay Development Trust,SC038888,Orkney Islands,KW17 2AR,59.14049939,-2.60137311,S02002218,S01011831
Sanday Men's Shed,SC050265,Orkney Islands,KW17 2BP,59.28324199,-2.45778647,S02002218,S01011831
Orkney Marine Mammal Research Initiative,SC050461,Orkney Islands,KW17 2BL,59.24521814,-2.55933813,S02002218,S01011831
2nd Orkney Scouts Group Executive Committee,SC009585,Orkney Islands,KW15 1UD,58.97948751,-2.94186673,S02002217,S01011824
Orkney District Scout Council,SC033345,Orkney Islands,KW15 1UD,58.97948751,-2.94186673,S02002217,S01011824
Orkney Agricultural Society,SC035897,Orkney Islands,KW15 1UZ,58.97566307,-2.94536292,S02002217,S01011824
Upside Down's Orkney,SC044721,Orkney Islands,KW15 1UD,58.97948751,-2.94186673,S02002217,S01011824
Papdale East Play Park Association (PEPA),SC048741,Orkney Islands,KW15 1UZ,58.97566307,-2.94536292,S02002217,S01011824
Voluntary Action Orkney,SC010691,Orkney Islands,KW15 1HR,58.98419934,-2.95821067,S02002217,S01011826
Orkney Citizens Advice Bureau,SC026265,Orkney Islands,KW15 1HR,58.98419934,-2.95821067,S02002217,S01011826
The Pickaquoy Centre Trust,SC028833,Orkney Islands,KW15 1LR,58.9878494,-2.95283099,S02002217,S01011826
Kirkwall & St Ola Good Companions,SC037114,Orkney Islands,KW15 1NR,58.98491066,-2.95431571,S02002217,S01011826
Orkney Rape & Sexual Assault Service (O.R.S.A.S) SCIO,SC048371,Orkney Islands,KW15 1HR,58.98419934,-2.95821067,S02002217,S01011826
Orkney Music and Culture ,SC049458,Orkney Islands,KW15 1LN,58.98764635,-2.95357359,S02002217,S01011826
ST MAGNUS STAGE CREW (SCIO),SC051161,Orkney Islands,KW15 1HZ,58.98407701,-2.95410126,S02002217,S01011826
Firth Church of Scotland,SC013330,Orkney Islands,KW17 2UT,59.00500664,-3.11547087,S02002214,S01011808
Firth Community Association (SCIO),SC034955,Orkney Islands,KW15 1TT,58.99552857,-3.09370451,S02002214,S01011808
Orkney Ringing Group,SC013337,Orkney Islands,KW17 2PJ,59.11689671,-3.11922809,S02002214,S01011812
Orkney Archaeology Society,SC030611,Orkney Islands,KW17 2NJ,59.1334289,-3.15431469,S02002214,S01011812
Orkney Archaeology Society (OAS) [SCIO],SC048044,Orkney Islands,KW17 2NJ,59.1334289,-3.15431469,S02002214,S01011812
Evie and Rendall Community Park Group (SCIO),SC048088,Orkney Islands,KW17 2PJ,59.11689671,-3.11922809,S02002214,S01011812
Rendall Community Association (SCIO),SC049051,Orkney Islands,KW17 2EY,59.06090359,-3.0478472,S02002214,S01011812
Hoy Community Association Orkney,SC015846,Orkney Islands,KW16 3NJ,58.91194058,-3.33033659,S02002218,S01011827
Flotta Community Association,SC016054,Orkney Islands,KW16 3NP,58.82637428,-3.10333426,S02002218,S01011827
Flotta Parish Church Of Scotland,SC016203,Orkney Islands,KW16 3NP,58.82637428,-3.10333426,S02002218,S01011827
Hoy & Walls Parish Church Of Scotland,SC023194,Orkney Islands,KW16 3PQ,58.80060469,-3.16087458,S02002218,S01011827
Haey Hope Club,SC024000,Orkney Islands,KW16 3PQ,58.80060469,-3.16087458,S02002218,S01011827
Flotta Day Club,SC027146,Orkney Islands,KW16 3NP,58.82637428,-3.10333426,S02002218,S01011827
North Walls Centre,SC034986,Orkney Islands,KW16 3PA,58.79269783,-3.19272493,S02002218,S01011827
Gable End Theatre Co Ltd,SC035562,Orkney Islands,KW16 3NZ,58.78143142,-3.23976834,S02002218,S01011827
The Island Of Hoy Development Trust,SC038909,Orkney Islands,KW16 3PG,58.79906753,-3.2002814,S02002218,S01011827
The Flotta Heritage Trust,SC040197,Orkney Islands,KW16 3NP,58.82637428,-3.10333426,S02002218,S01011827
Graemsay Community Association SCIO,SC048081,Orkney Islands,KW16 3NG,58.93372977,-3.28956443,S02002218,S01011827
St John's Kirk SCIO  ,SC048646,Orkney Islands,KW16 3PA,58.79269783,-3.19272493,S02002218,S01011827
The Hoolie Group of Hoy and Walls,SC050377,Orkney Islands,KW16 3PA,58.79269783,-3.19272493,S02002218,S01011827
Orphir and Stenness Church Of Scotland,SC016221,Orkney Islands,KW17 2RD,58.91908221,-3.17342766,S02002214,S01011809
Girlguiding Orkney,SC022676,Orkney Islands,KW16 3HG,59.00273284,-3.17357561,S02002214,S01011809
Friends Of The Hoy Kirk,SC034605,Orkney Islands,KW17 2RD,58.91908221,-3.17342766,S02002214,S01011809
Orkney Historic Boat Society,SC044884,Orkney Islands,KW17 2RE,58.93266531,-3.21011158,S02002214,S01011809
Orkney Rowing Club,SC047947,Orkney Islands,KW16 3HD,58.96218243,-3.11360017,S02002214,S01011809
"Kirkwall East Church, Church of Scotland",SC018002,Orkney Islands,KW15 1NN,58.98237058,-2.95654191,S02002217,S01011825
North Ronaldsay Parish Church Of Scotland,SC030098,Orkney Islands,KW15 1PF,58.98006628,-2.95359023,S02002217,S01011825
Advocacy Orkney,SC033298,Orkney Islands,KW15 1JE,58.98329697,-2.95635882,S02002217,S01011825
Friends Of Guiding In Kirkwall,SC033819,Orkney Islands,KW15 1PF,58.98006628,-2.95359023,S02002217,S01011825
Orkney Alcohol Counselling & Advisory Service,SC034585,Orkney Islands,KW15 1JD,58.98374182,-2.95692789,S02002217,S01011825
1st St Andrews & Deerness Brownies,SC036933,Orkney Islands,KW15 1JE,58.98329697,-2.95635882,S02002217,S01011825
1st Kirkwall Rainbow Unit,SC040337,Orkney Islands,KW15 1PF,58.98006628,-2.95359023,S02002217,S01011825
East Mainland Church of Scotland,SC019770,Orkney Islands,KW17 2QH,58.93753809,-2.74319085,S02002215,S01011814
Orkney Trefoil Guild,SC040011,Orkney Islands,KW17 2QG,58.91881024,-2.81945536,S02002215,S01011814
Friends of St Ninians Ltd,SC040794,Orkney Islands,KW17 2QL,58.94404069,-2.76922356,S02002215,S01011814
East Mainland Agricultural Society SCIO,SC043870,Orkney Islands,KW17 2QG,58.91881024,-2.81945536,S02002215,S01011814
Friends of St Nicholas,SC044541,Orkney Islands,KW17 2SD,58.89662236,-2.84395464,S02002215,S01011814
Deerness Community Association,SC044828,Orkney Islands,KW17 2QL,58.94404069,-2.76922356,S02002215,S01011814
Scottish Community Drama Association Orkney District,SC021383,Orkney Islands,KW15 1SG,58.95049646,-3.0314251,S02002215,S01011817
2nd Kirkwall Brownies,SC031114,Orkney Islands,KW15 1RF,58.9874103,-2.9756129,S02002215,S01011817
2nd Kirkwall Guide Unit,SC031625,Orkney Islands,KW15 1RF,58.9874103,-2.9756129,S02002215,S01011817
Eunson Kloss Very Sheltered Housing Residents' Association,SC031677,Orkney Islands,KW15 1SE,58.9636813,-2.99580802,S02002215,S01011817
Orkney Heart Support Group,SC035467,Orkney Islands,KW15 1TP,58.98457715,-2.99503666,S02002215,S01011817
1st Kirkwall Guide Unit,SC038901,Orkney Islands,KW15 1RF,58.9874103,-2.9756129,S02002215,S01011817
Orkney Riding Centre,SC042791,Orkney Islands,KW15 1RZ,58.97272826,-2.97297157,S02002215,S01011817
Love Orkney (SCIO),SC049706,Orkney Islands,KW15 1UL,58.98660225,-2.98152333,S02002215,S01011817
Friends of Stoneworks Orkney,SC050892,Orkney Islands,KW15 1TP,58.98457715,-2.99503666,S02002215,S01011817
Orkney Natural History Society Museum,SC021455,Orkney Islands,KW16 3DH,58.95772092,-3.30196975,S02002213,S01011804
Stromness Rainbow Guide Unit,SC031206,Orkney Islands,KW16 3DS,58.95644206,-3.30320806,S02002213,S01011804
Friends Of Stromness Town Hall,SC038841,Orkney Islands,KW16 3DS,58.95644206,-3.30320806,S02002213,S01011804
Kirkwall Amateur Operatic Society,SC026942,Orkney Islands,KW15 1BZ,58.97857984,-2.9663175,S02002216,S01011820
Orkney Deaf Children's Society,SC046964,Orkney Islands,KW15 1AY,58.97766654,-2.96474376,S02002216,S01011820
Home-Start Orkney,SC030307,Orkney Islands,KW15 1BU,58.97810629,-2.96237289,S02002216,S01011819
1st Holm Brownie Unit,SC036561,Orkney Islands,KW15 1EJ,58.97650095,-2.95964936,S02002216,S01011819
Orkney Fossil & Vintage Centre Limited,SC030671,Orkney Islands,KW17 2SX,58.85510567,-2.92990567,S02002218,S01011829
1st Burray Brownie Unit,SC038963,Orkney Islands,KW17 2SZ,58.85565618,-2.9029491,S02002218,S01011829
Kirkwall City Pipe Band SCIO,SC032870,Orkney Islands,KW15 1UE,58.99819873,-2.9425693,S02002215,S01011816
Hugh Clyde Memorial Fund,SC036271,Orkney Islands,KW15 1SZ,58.97863454,-2.93688572,S02002215,S01011816
Vital Talk Orkney Counselling Service,SC042360,Orkney Islands,KW15 1LX,58.98505009,-2.94878674,S02002215,S01011816
Orkney Street Pastors,SC043821,Orkney Islands,KW15 1LX,58.98505009,-2.94878674,S02002215,S01011816
Orkney Foodbank,SC046553,Orkney Islands,KW15 1XN,58.97890073,-2.93609275,S02002215,S01011816
Inclusive Orkney (SCIO),SC051274,Orkney Islands,KW15 1RB,58.97968167,-2.93614873,S02002215,S01011816
Greener Orkney (SCIO),SC049148,Orkney Islands,KW15 1RL,58.97390073,-2.95907265,S02002216,S01011818
