Name,Charity Number,Local authority,Postcode,Latitude,Longitude,IntermediateZone2011Code,DataZone2011Code
Kirkoswald Parish Church Of Scotland,SC000213,South Ayrshire,KA26 9DZ,55.24158284,-4.84406436,S02002331,S01012432
Girvan : North Parish Church of Scotland,SC007347,South Ayrshire,KA26 9DZ,55.24158284,-4.84406436,S02002331,S01012432
Thomas Davidson's Trust,SC000976,South Ayrshire,KA26 9AE,55.24254183,-4.85572887,S02002331,S01012431
Age Concern Scotland Girvan Branch,SC006271,South Ayrshire,KA26 9AP,55.23791025,-4.85657658,S02002331,S01012431
Girvan Hospitals Auxiliary Association,SC007409,South Ayrshire,KA26 9AE,55.24254183,-4.85572887,S02002331,S01012431
Girvan And South Carrick Community Action Network,SC023218,South Ayrshire,KA26 9AE,55.24254183,-4.85572887,S02002331,S01012431
Friends Of Hillcrest,SC027683,South Ayrshire,KA26 9HR,55.24487161,-4.85336268,S02002331,S01012431
Girvan Community Garden,SC040969,South Ayrshire,KA26 9AL,55.24131625,-4.85815833,S02002331,S01012431
South Carrick Community Leisure,SC043090,South Ayrshire,KA26 9AG,55.24313993,-4.85821059,S02002331,S01012431
Milestone Christian Fellowship,SC044295,South Ayrshire,KA26 9HG,55.24586979,-4.85373321,S02002331,S01012431
Girvan Town Team,SC046542,South Ayrshire,KA26 9AG,55.24313993,-4.85821059,S02002331,S01012431
Age Concern Girvan SCIO ,SC050839,South Ayrshire,KA26 9AP,55.23791025,-4.85657658,S02002331,S01012431
Scottish Women’s Institutes Ayrshire Federation,SC001553,South Ayrshire,KA7 1BJ,55.46400373,-4.63364041,S02002339,S01012481
South Ayrshire Women's Aid,SC002364,South Ayrshire,KA7 1BW,55.46365115,-4.63331629,S02002339,S01012481
Ayrshire Dementia Care Limited,SC006915,South Ayrshire,KA7 1JJ,55.46439367,-4.6376534,S02002339,S01012481
South Ayrshire Befriending Project,SC020989,South Ayrshire,KA7 1JN,55.46383417,-4.63567003,S02002339,S01012481
Three Towers Trust Ayrshire,SC027772,South Ayrshire,KA7 1BX,55.46271622,-4.63415572,S02002339,S01012481
Voluntary Action South Ayrshire,SC028234,South Ayrshire,KA7 1QJ,55.46200563,-4.63167197,S02002339,S01012481
South Ayrshire Escape From Homelessness Ltd (Seascape),SC028570,South Ayrshire,KA7 1QJ,55.46200563,-4.63167197,S02002339,S01012481
St Andrew's Parish Church Of Scotland: Ayr,SC001757,South Ayrshire,KA7 4QD,55.43248759,-4.63244142,S02002335,S01012458
100th Ayrshire Alloway Scout Group,SC030759,South Ayrshire,KA7 4QU,55.42913537,-4.62739701,S02002335,S01012458
2nd Alloway Guides,SC033517,South Ayrshire,KA7 4QU,55.42913537,-4.62739701,S02002335,S01012458
1st Alloway Brownie Unit,SC033840,South Ayrshire,KA7 4QU,55.42913537,-4.62739701,S02002335,S01012458
Alloway Rangers,SC038670,South Ayrshire,KA7 4QU,55.42913537,-4.62739701,S02002335,S01012458
Ayr Community Rugby Trust,SC039365,South Ayrshire,KA7 4QQ,55.43129112,-4.63165039,S02002335,S01012458
Girlguiding Alloway District,SC049080,South Ayrshire,KA7 4QU,55.42913537,-4.62739701,S02002335,S01012458
Ayr Amateur Opera Company,SC050398,South Ayrshire,KA7 4QR,55.42949327,-4.62538164,S02002335,S01012458
Castlehill Parish Church of Scotland: Ayr,SC001792,South Ayrshire,KA7 3LW,55.44930392,-4.612828,S02002337,S01012467
South Ayrshire Autistic Society,SC032408,South Ayrshire,KA7 3EG,55.45088834,-4.61608016,S02002337,S01012467
Ayr Fort Players,SC001927,South Ayrshire,KA7 4HE,55.43469389,-4.65470588,S02002335,S01012453
1st Alloway Rainbow Unit,SC038846,South Ayrshire,KA7 4HZ,55.43513191,-4.64860112,S02002335,S01012453
9th Ayr Guides,SC040305,South Ayrshire,KA7 4HS,55.43227836,-4.65252016,S02002335,S01012453
"Kingcase Parish Church Of Scotland, Prestwick",SC001940,South Ayrshire,KA9 2AA,55.4848101,-4.61407082,S02002345,S01012515
Ayr: Newton Wallacetown Church of Scotland,SC001994,South Ayrshire,KA9 1BY,55.4963484,-4.59733892,S02002347,S01012527
Craigie Symington Parish Church (Church of Scotland),SC002144,South Ayrshire,KA1 5RU,55.55315465,-4.56288778,S02002350,S01012543
Symington Spark,SC045078,South Ayrshire,KA1 5PN,55.55817925,-4.55255797,S02002350,S01012543
Ayr Choral Union,SC002413,South Ayrshire,KA9 1AU,55.50373817,-4.61165147,S02002346,S01012518
Age Concern Prestwick,SC002691,South Ayrshire,KA9 1JN,55.50019187,-4.61060896,S02002346,S01012519
"St Nicholas Parish Church of Scotland, Prestwick",SC011750,South Ayrshire,KA9 1LH,55.49663431,-4.61262191,S02002346,S01012519
Maybole Parish Church of Scotland,SC003164,South Ayrshire,KA19 8AZ,55.35569942,-4.6883698,S02002332,S01012439
Maybole Baptist Church,SC021239,South Ayrshire,KA19 7DN,55.35334078,-4.68525952,S02002332,S01012439
The Carrick Centre,SC041794,South Ayrshire,KA19 7DE,55.35497168,-4.68426553,S02002332,S01012439
North Carrick Community Benefit ,SC045947,South Ayrshire,KA19 7BZ,55.35399964,-4.68227486,S02002332,S01012439
Portland Parish Church of Scotland:Troon,SC003477,South Ayrshire,KA10 6JU,55.5421611,-4.65985538,S02002353,S01012565
Schools Out In Troon,SC032098,South Ayrshire,KA10 6JX,55.54297911,-4.65819851,S02002353,S01012565
Ayr Baptist Church,SC003511,South Ayrshire,KA7 1DL,55.4621232,-4.63664743,S02002339,S01012482
Ayr Baptist Homes,SC004404,South Ayrshire,KA7 1EH,55.46162481,-4.63474736,S02002339,S01012482
Mrs Mary E Mclaurin's Trust,SC012798,South Ayrshire,KA7 1EN,55.46168951,-4.63633371,S02002339,S01012482
Relationships Scotland - Couple Counselling Ayrshire [SCIO],SC026111,South Ayrshire,KA7 2AX,55.4578592,-4.63179113,S02002339,S01012482
Ayrshire Horticultural Society,SC031169,South Ayrshire,KA7 1EN,55.46168951,-4.63633371,S02002339,S01012482
Low Green & Ayr Seafront Trust Ltd,SC031862,South Ayrshire,KA7 1XA,55.46092531,-4.63341927,S02002339,S01012482
Moving on Ayrshire,SC042073,South Ayrshire,KA7 1EZ,55.46075431,-4.63635037,S02002339,S01012482
RecoveryAyr SCIO,SC045041,South Ayrshire,KA7 1DL,55.4621232,-4.63664743,S02002339,S01012482
Brambles Ayr Limited,SC046102,South Ayrshire,KA7 1EN,55.46168951,-4.63633371,S02002339,S01012482
Holy Trinity Church,SC004207,South Ayrshire,KA9 1NX,55.4998024,-4.61116909,S02002346,S01012521
Ayrshire Philharmonic Opera Society,SC016729,South Ayrshire,KA9 1PW,55.49797982,-4.61443704,S02002346,S01012521
Prestwick Civic Pride Partnership,SC046765,South Ayrshire,KA9 1PG,55.49593457,-4.61339892,S02002346,S01012521
Coylton Community Nursery,SC004254,South Ayrshire,KA6 6LA,55.44561169,-4.49654437,S02002334,S01012449
St Quivox Parish Church: Ayr (Church of Scotland),SC004906,South Ayrshire,KA8 0PF,55.47246738,-4.59173207,S02002342,S01012497
Coylton Parish Church (Church of Scotland),SC005283,South Ayrshire,KA6 6JG,55.44374398,-4.51924388,S02002334,S01012447
Queen Margaret Academy School Fund,SC005676,South Ayrshire,KA7 3TL,55.44117482,-4.60243966,S02002336,S01012463
28th Ayrshire (Troon) Scout Group,SC006362,South Ayrshire,KA10 6TB,55.56497988,-4.65381619,S02002352,S01012557
McCandlish Hall,SC006604,South Ayrshire,KA19 7QS,55.29779261,-4.59866427,S02002333,S01012441
Straiton (St Cuthberts) Parish Church Of Scotland: Maybole,SC013366,South Ayrshire,KA19 7NN,55.28658197,-4.54929461,S02002333,S01012441
Kirkmichael Village Renaissance,SC046113,South Ayrshire,KA19 7PJ,55.34630309,-4.61521839,S02002333,S01012441
FLAIR (SCIO),SC051097,South Ayrshire,KA19 7NG,55.31251365,-4.5510694,S02002333,S01012441
Ayr And Craigie Film Society,SC006980,South Ayrshire,KA8 0LX,55.4724675,-4.59087756,S02002342,S01012499
North Ayr Thegither!,SC045150,South Ayrshire,KA8 0ND,55.47291713,-4.58704587,S02002342,S01012499
Troon Old Parish Church of Scotland,SC007246,South Ayrshire,KA10 6SA,55.55815236,-4.65238824,S02002352,S01012558
Prestwick South Church of Scotland,SC007403,South Ayrshire,KA9 1PY,55.49431478,-4.61558742,S02002346,S01012522
Heathfield Out of School Club,SC042375,South Ayrshire,KA9 1SL,55.49303013,-4.61849462,S02002346,S01012522
Prestwick Sailing Club,SC050995,South Ayrshire,KA9 1SN,55.4931936,-4.62051625,S02002346,S01012522
Glasgow Ayrshire Society,SC007902,South Ayrshire,KA10 6JN,55.53639442,-4.64638925,S02002353,S01012569
Troon Senior Citizens' Welfare Committee,SC039495,South Ayrshire,KA10 6ET,55.53486346,-4.65067675,S02002353,S01012569
Fisherton Church Of Scotland,SC008226,South Ayrshire,KA7 4LR,55.40549538,-4.75672999,S02002333,S01012442
Alloway Parish Church of Scotland,SC012456,South Ayrshire,KA7 4LD,55.42390227,-4.69355794,S02002333,S01012442
Kennedy Hall & Park Committee,SC018436,South Ayrshire,KA7 4LU,55.40449878,-4.75667636,S02002333,S01012442
Dunure Harbour Committee Association Limited,SC031494,South Ayrshire,KA7 4LW,55.40406865,-4.7602009,S02002333,S01012442
Dynamic Dunure,SC051144,South Ayrshire,KA7 4LU,55.40449878,-4.75667636,S02002333,S01012442
Dundonald Church Of Scotland,SC008482,South Ayrshire,KA2 9AT,55.55242271,-4.59041458,S02002350,S01012544
31st Ayrshire (Loans) Scout Group,SC037275,South Ayrshire,KA2 9JR,55.5742168,-4.58716983,S02002350,S01012544
Ayr St Paul Royal Arch Chapter No 18 Benevolent Fund,SC008525,South Ayrshire,KA7 3JX,55.45233409,-4.60772992,S02002338,S01012476
Ballantrae Parish Church of Scotland,SC008536,South Ayrshire,KA26 0NA,55.10041591,-5.00425983,S02002329,S01012417
Ballantrae Rural Initiative Care In The Community Limited,SC027489,South Ayrshire,KA26 0NB,55.10121783,-5.00491584,S02002329,S01012417
The Ballantrae Trust,SC048339,South Ayrshire,KA26 0NQ,55.102007,-5.00790716,S02002329,S01012417
St James' Parish Church of Scotland:Ayr,SC009336,South Ayrshire,KA8 9DZ,55.48170457,-4.61427661,S02002344,S01012508
8th Ayr Company Boys Brigade,SC032912,South Ayrshire,KA8 9DZ,55.48170457,-4.61427661,S02002344,S01012508
Girvan South Parish Church of Scotland,SC010381,South Ayrshire,KA26 0DB,55.23332541,-4.8500499,S02002330,S01012426
Girvan & District Attractions (SCIO),SC049002,South Ayrshire,KA26 0DS,55.23452173,-4.85117376,S02002330,S01012426
Ballantrae Parent & Toddler Group,SC010689,South Ayrshire,KA26 0LD,55.12999383,-4.96206309,S02002329,S01012418
Barrhill Playgroup,SC011270,South Ayrshire,KA26 0QS,55.10145929,-4.76566192,S02002329,S01012418
Lendalfoot Community Association Limited,SC037049,South Ayrshire,KA26 0JF,55.17071173,-4.9270281,S02002329,S01012418
Barrhill Development Trust ,SC049162,South Ayrshire,KA26 0PP,55.10370065,-4.77146126,S02002329,S01012418
Colmonell Community Association ,SC049177,South Ayrshire,KA26 0RY,55.13358259,-4.90640453,S02002329,S01012418
Ayr Boys Brigade Battalion,SC010978,South Ayrshire,KA7 4PW,55.43222341,-4.64260451,S02002335,S01012455
1st Alloway Boys Brigade,SC033015,South Ayrshire,KA7 4PW,55.43222341,-4.64260451,S02002335,S01012455
1st Alloway Guides,SC036782,South Ayrshire,KA7 4EE,55.41503792,-4.62962089,S02002335,S01012455
2nd Prestwick (Kingcase) Company The Boys Brigade,SC038720,South Ayrshire,KA7 4PW,55.43222341,-4.64260451,S02002335,S01012455
The Friends of Belleisle,SC041827,South Ayrshire,KA7 4PW,55.43222341,-4.64260451,S02002335,S01012455
Belleisle Conservatory Ltd,SC042074,South Ayrshire,KA7 4PW,55.43222341,-4.64260451,S02002335,S01012455
7th Ayr Boys Brigade Company,SC043267,South Ayrshire,KA7 4PW,55.43222341,-4.64260451,S02002335,S01012455
4th Ayr Company The Boys Brigade,SC044577,South Ayrshire,KA7 4PW,55.43222341,-4.64260451,S02002335,S01012455
12th Ayr Boys' Brigade Company,SC044980,South Ayrshire,KA7 4PW,55.43222341,-4.64260451,S02002335,S01012455
3rd Alloway Brownie Unit,SC045171,South Ayrshire,KA7 4EE,55.41503792,-4.62962089,S02002335,S01012455
"1st Girvan Company, The Boys' Brigade",SC046318,South Ayrshire,KA7 4PW,55.43222341,-4.64260451,S02002335,S01012455
1st Thurso BB Company,SC050316,South Ayrshire,KA7 4PW,55.43222341,-4.64260451,S02002335,S01012455
Richmond Fund,SC011299,South Ayrshire,KA26 0AY,55.23027107,-4.85725551,S02002330,S01012428
1st Troon Boys Brigade Company,SC011765,South Ayrshire,KA10 7BG,55.5487277,-4.63635756,S02002351,S01012550
Live@Troon Music Festival,SC041570,South Ayrshire,KA10 7BE,55.54943803,-4.63467688,S02002351,S01012550
St Oswalds Episcopal Church: Maybole,SC012040,South Ayrshire,KA6 5HE,55.46646183,-4.57304762,S02002334,S01012450
South Ayrshire School Clothing Bank,SC047477,South Ayrshire,KA6 5JG,55.45344757,-4.51987851,S02002334,S01012450
Dailly Parish Church of Scotland,SC012591,South Ayrshire,KA26 0EU,55.23690078,-4.84322651,S02002330,S01012424
1st Girvan Guide Unit,SC036231,South Ayrshire,KA26 0ES,55.2364949,-4.84521117,S02002330,S01012424
Girvan Community Playgroup,SC012705,South Ayrshire,KA26 9BT,55.24104417,-4.85557424,S02002331,S01012430
Girvan Youth Trust,SC029711,South Ayrshire,KA26 9BQ,55.23834038,-4.85586802,S02002331,S01012430
Girvan Youth Football Club,SC043168,South Ayrshire,KA26 9DH,55.24060631,-4.84931245,S02002331,S01012430
Woodpark Evangelical Church,SC012923,South Ayrshire,KA7 4EQ,55.42993965,-4.64803195,S02002335,S01012457
3rd Alloway Rainbow Unit,SC036380,South Ayrshire,KA7 4JA,55.43034718,-4.66279216,S02002335,S01012457
Annbank Parish Church Of Scotland,SC013225,South Ayrshire,KA6 5DU,55.48956797,-4.52620635,S02002349,S01012536
St Colmon (Arnsheen Barrhill And Colmonell) Church of Scotland,SC014381,South Ayrshire,KA26 0RU,55.14546221,-4.8572301,S02002329,S01012419
Barr Parish Church of Scotland,SC015366,South Ayrshire,KA26 9TW,55.21080963,-4.711178,S02002329,S01012419
Barr Community Association,SC020292,South Ayrshire,KA26 0TL,55.19329394,-4.71460714,S02002329,S01012419
Carrick Community Transport Group,SC020728,South Ayrshire,KA26 0RU,55.14546221,-4.8572301,S02002329,S01012419
Pinwherry and Pinmore Community Development Trust,SC048025,South Ayrshire,KA26 0RN,55.14425649,-4.83071305,S02002329,S01012419
Barr Community SCIO,SC049703,South Ayrshire,KA26 9TT,55.21035679,-4.70930788,S02002329,S01012419
Carrick Rugby Football Club,SC050725,South Ayrshire,KA26 9TU,55.21229861,-4.70970714,S02002329,S01012419
Janet M Stirling's Trust,SC014439,South Ayrshire,KA10 6AB,55.54328271,-4.66532125,S02002353,S01012566
Troon Cabin Club,SC035496,South Ayrshire,KA10 6EF,55.54117996,-4.65950375,S02002353,S01012566
Lodge St Paul No 204 Benevolent Fund,SC014623,South Ayrshire,KA8 8LY,55.47908855,-4.62310899,S02002344,S01012509
Tarbolton Parish Church of Scotland,SC014767,South Ayrshire,KA5 5LY,55.51777395,-4.49729603,S02002349,S01012541
Meadowgreen Foundation,SC015058,South Ayrshire,KA10 7JA,55.55721789,-4.63863914,S02002351,S01012553
Glenburn Miners Charitable Society,SC015695,South Ayrshire,KA9 2NS,55.49952502,-4.59165743,S02002348,S01012532
The Auld Kirk Of Ayr Church of Scotland,SC016648,South Ayrshire,KA7 3PA,55.45042863,-4.60308086,S02002338,S01012479
St Leonard's Parish Church of Scotland:Ayr,SC016860,South Ayrshire,KA7 4BD,55.44479333,-4.64410929,S02002335,S01012451
Crosshill Parish Church (Church of Scotland),SC017520,South Ayrshire,KA19 7PY,55.31561057,-4.65580111,S02002329,S01012423
3rd Ayrshire (1st Girvan) Scout Group,SC041710,South Ayrshire,KA19 7RJ,55.32498215,-4.63691011,S02002329,S01012423
1st Crosshill Guide Unit,SC042918,South Ayrshire,KA19 7PS,55.33593645,-4.6157493,S02002329,S01012423
May-Tag Ltd,SC017710,South Ayrshire,KA19 8BX,55.3552061,-4.69403221,S02002332,S01012438
Carrick Community Leisure Group,SC045601,South Ayrshire,KA19 8FD,55.35312362,-4.69471112,S02002332,S01012438
The Three Sixty Ayrshire Ltd.,SC018398,South Ayrshire,KA8 8LB,55.47452804,-4.62367628,S02002340,S01012487
Seagate Evangelical Church,SC018710,South Ayrshire,KA10 6NG,55.54488532,-4.64987715,S02002353,S01012564
Troon Water Sports Centre (SCIO),SC047691,South Ayrshire,KA10 6LA,55.54084657,-4.65166609,S02002353,S01012564
Martin's Fields,SC048064,South Ayrshire,KA10 6NQ,55.54513958,-4.65100404,S02002353,S01012564
Age Concern Ayr,SC018878,South Ayrshire,KA8 0BB,55.4662838,-4.62918826,S02002340,S01012492
Riverside Community Trust,SC046273,South Ayrshire,KA8 0BS,55.46358808,-4.62579709,S02002340,S01012492
Ayr Spiritualist Centre,SC023813,South Ayrshire,KA9 2AY,55.48454325,-4.61057068,S02002345,S01012516
Air Training Corps No 1371 Girvan Squadron Non Public Sports & Welfare Funds,SC024719,South Ayrshire,KA26 0BD,55.23255645,-4.8560195,S02002331,S01012429
Alloway Public Hall Management Committee,SC024878,South Ayrshire,KA6 6BU,55.41383367,-4.59977165,S02002333,S01012444
Alloway Village Hall,SC051253,South Ayrshire,KA6 6BU,55.41383367,-4.59977165,S02002333,S01012444
Scottish Women’s Institutes Kirkmichael Institute,SC025787,South Ayrshire,KA19 8LL,55.32711651,-4.68988617,S02002329,S01012422
Dailly Community Activity Centre Association Limited,SC041389,South Ayrshire,KA26 9SW,55.27867082,-4.7220398,S02002329,S01012422
Prestwick After School Care Service,SC027825,South Ayrshire,KA9 1HR,55.49834264,-4.60880804,S02002347,S01012526
Biggart Hospital Volunteers,SC032518,South Ayrshire,KA9 1JA,55.49759868,-4.60364425,S02002347,S01012526
1st Prestwick Boys Brigade Company,SC033197,South Ayrshire,KA9 1LU,55.49711451,-4.6078084,S02002347,S01012526
New Life Christian Fellowship,SC028120,South Ayrshire,KA9 2PA,55.50686361,-4.60460457,S02002348,S01012531
South Ayrshire Food Bank,SC044413,South Ayrshire,KA9 2PA,55.50686361,-4.60460457,S02002348,S01012531
Aoife's Sensory Bus,SC050233,South Ayrshire,KA9 2FD,55.519586,-4.60444735,S02002348,S01012531
2nd Troon Brownies,SC030749,South Ayrshire,KA10 6XE,55.5541723,-4.6518821,S02002352,S01012560
5th Troon Girl Guides,SC033455,South Ayrshire,KA10 6XE,55.5541723,-4.6518821,S02002352,S01012560
3rd Prestwick Guide Unit,SC031711,South Ayrshire,KA9 2TF,55.48406034,-4.59820783,S02002345,S01012514
South Ayrshire Visually Impaired Children,SC031746,South Ayrshire,KA5 5TF,55.50502224,-4.44101139,S02002349,S01012539
1st Tarbolton Brownies,SC034664,South Ayrshire,KA5 5QP,55.51095864,-4.49033837,S02002349,S01012539
7th Troon Brownie Unit,SC033709,South Ayrshire,KA10 7LS,55.55963985,-4.64595431,S02002351,S01012552
Troon Allotment Society,SC041591,South Ayrshire,KA10 7EJ,55.55533079,-4.64236608,S02002351,S01012552
1st Newton On Ayr Girls Brigade,SC033744,South Ayrshire,KA8 0SD,55.46171304,-4.61219356,S02002341,S01012494
Vics in the Community,SC048328,South Ayrshire,KA8 0HJ,55.46090958,-4.61193475,S02002341,S01012494
12th Ayrshire (Kingcase) Scout Group,SC033845,South Ayrshire,KA9 1HU,55.49874404,-4.60600012,S02002347,S01012525
Friends Of Newton Park,SC033873,South Ayrshire,KA8 9BL,55.47697816,-4.6204998,S02002344,S01012511
Wheels In Motion,SC041029,South Ayrshire,KA8 9AL,55.47523089,-4.62108012,S02002344,S01012511
Maybole Historical Society,SC034056,South Ayrshire,KA7 2PT,55.44830965,-4.62609418,S02002337,S01012469
2nd Prestwick Brownie Unit,SC038955,South Ayrshire,KA7 2SS,55.44964214,-4.63059527,S02002337,S01012469
Maybole Castle Community Trust,SC040827,South Ayrshire,KA7 2PT,55.44830965,-4.62609418,S02002337,S01012469
3rd Prestwick Brownie Unit,SC034409,South Ayrshire,KA7 3LJ,55.45804466,-4.5961955,S02002338,S01012473
4th Prestwick Rainbow Pack,SC034496,South Ayrshire,KA9 1QU,55.49804784,-4.61672176,S02002346,S01012520
1st Prestwick Brownie Unit,SC045167,South Ayrshire,KA9 1QZ,55.49652788,-4.61760263,S02002346,S01012520
Friends of the Broadway Prestwick,SC048992,South Ayrshire,KA9 1RF,55.49695513,-4.61653842,S02002346,S01012520
17th E Castlehill Brownies,SC034566,South Ayrshire,KA7 3PS,55.44390119,-4.60821703,S02002336,S01012462
Symington Community Projects Limited,SC034882,South Ayrshire,KA1 5QE,55.54975635,-4.56377637,S02002350,S01012542
69th Ayrshire (1st Tarbolton) Scout Group,SC035576,South Ayrshire,KA5 5RW,55.51245848,-4.47932928,S02002349,S01012540
1st Tarbolton Rainbow Unit,SC048816,South Ayrshire,KA5 5RN,55.51159316,-4.47944909,S02002349,S01012540
Minishant Hall Committee,SC035695,South Ayrshire,KA19 8EZ,55.39238373,-4.64471399,S02002333,S01012443
Prestwick Aviation Heritage Charitable Trustees Ltd,SC046170,South Ayrshire,KA19 8EN,55.39500304,-4.69271254,S02002333,S01012443
Whiteleys Retreat,SC047040,South Ayrshire,KA7 4EG,55.40853087,-4.65080151,S02002333,S01012443
18th Ayrshire Scout Group,SC035994,South Ayrshire,KA7 2DR,55.45610283,-4.63320845,S02002339,S01012484
The Moira Forbes Trust For The Benefit Of The Aged And The Physically And Mentally Infirm Of The Parish Of Kilwinning,SC037911,South Ayrshire,KA7 2EA,55.45835896,-4.62945159,S02002339,S01012484
Moira Forbes Trust for Students From Parish of Kilwinning Studying Medicine,SC037922,South Ayrshire,KA7 2EA,55.45835896,-4.62945159,S02002339,S01012484
Southside Church SCIO,SC049795,South Ayrshire,KA7 2EG,55.4571621,-4.62951428,S02002339,S01012484
Holmston Out of Skool Club,SC050355,South Ayrshire,KA7 2DL,55.45679806,-4.63306498,S02002339,S01012484
17th A Ayr Rainbow Unit,SC036378,South Ayrshire,KA7 3NU,55.45230212,-4.60121145,S02002338,S01012477
Kyle and Carrick District Scout Council,SC043146,South Ayrshire,KA7 3PQ,55.45025598,-4.59894162,S02002338,S01012477
Harvest Ayr,SC051213,South Ayrshire,KA7 3NS,55.45224652,-4.60002157,S02002338,S01012477
17c Castlehill Brownies,SC036448,South Ayrshire,KA8 0JY,55.46946417,-4.60278523,S02002342,S01012496
17th B Ayr Guide Unit,SC045829,South Ayrshire,KA8 0JY,55.46946417,-4.60278523,S02002342,S01012496
17th Ayr Senior Section Unit,SC046013,South Ayrshire,KA8 0JY,55.46946417,-4.60278523,S02002342,S01012496
Carrick Rural Arts Group,SC037589,South Ayrshire,KA26 9EY,55.24361598,-4.85438982,S02002331,S01012433
CRAG Community Arts SCIO ,SC050537,South Ayrshire,KA26 9EY,55.24361598,-4.85438982,S02002331,S01012433
Friends Of Culzean,SC037983,South Ayrshire,KA7 2QG,55.44520811,-4.62778568,S02002337,S01012471
4th Alloway Brownie Unit,SC038500,South Ayrshire,KA7 4RH,55.44096568,-4.62693435,S02002337,S01012471
Friends of Robert Burns Birthplace Museum,SC043931,South Ayrshire,KA7 2QG,55.44520811,-4.62778568,S02002337,S01012471
9th Ayr Brownie Unit,SC039499,South Ayrshire,KA7 2SL,55.45286506,-4.63036703,S02002339,S01012485
Ayr Lawn Tennis Club,SC049014,South Ayrshire,KA7 2TL,55.45204911,-4.63611732,S02002339,S01012485
Ayr Development Trust,SC050166,South Ayrshire,KA7 2TJ,55.45282883,-4.63455605,S02002339,S01012485
Little Art Stars Charity,SC050412,South Ayrshire,KA7 2SN,55.45203344,-4.6314188,S02002339,S01012485
17th Ayr Boys Brigade Company,SC042182,South Ayrshire,KA7 2JU,55.45256126,-4.6256809,S02002337,S01012466
48th Ayrshire (Dundonald) Scout  Group,SC043158,South Ayrshire,KA2 9JB,55.58185254,-4.59673322,S02002350,S01012546
Troon District Guide Association,SC043303,South Ayrshire,KA10 7EB,55.55356334,-4.63971024,S02002351,S01012551
1st Troon Rainbow Unit,SC043419,South Ayrshire,KA10 6ST,55.5615744,-4.64960546,S02002351,S01012556
Ayrshire Golf Trust,SC043425,South Ayrshire,KA19 8AD,55.35788511,-4.6825851,S02002332,S01012440
7th Ayrshire Scout Group,SC046139,South Ayrshire,KA19 8BD,55.35709005,-4.68276798,S02002332,S01012440
Carrick Coastal Rowing Club,SC046983,South Ayrshire,KA19 8BG,55.35660255,-4.6836817,S02002332,S01012440
Darroch Bequest Fund,SC043646,South Ayrshire,KA10 6AN,55.54110691,-4.67153075,S02002353,S01012567
Dundonald Games Society SCIO,SC044025,South Ayrshire,KA2 9HD,55.57761275,-4.59532666,S02002350,S01012547
"Dundonald Community Sports, Recreation and Heritage Association",SC048735,South Ayrshire,KA2 9EU,55.58009707,-4.60152041,S02002350,S01012547
TKS Martial Arts and Fitness Charitable Trust,SC044453,South Ayrshire,KA19 7ED,55.34910315,-4.68543004,S02002332,S01012436
St John's Primary Parent Council,SC044699,South Ayrshire,KA8 0JB,55.46594812,-4.62011574,S02002340,S01012491
Christ in Action Food Bank,SC045322,South Ayrshire,KA9 2BH,55.48971531,-4.61251193,S02002346,S01012523
Ayr and Prestwick Street Pastors (SCIO),SC046583,South Ayrshire,KA9 2DU,55.49045469,-4.6069248,S02002346,S01012523
1st Maybole Guide Unit,SC045833,South Ayrshire,KA19 7AW,55.35216605,-4.68431223,S02002332,S01012435
Friends of Fullarton,SC046018,South Ayrshire,KA10 7AH,55.54389049,-4.6305642,S02002353,S01012563
South Ayrshire Community Transport,SC046212,South Ayrshire,KA8 8AG,55.46807094,-4.63302565,S02002340,S01012490
Ayr Housing Aid Centre SCIO,SC049609,South Ayrshire,KA8 8AN,55.46864605,-4.63512101,S02002340,S01012490
Troon Community Sport Hub,SC047161,South Ayrshire,KA10 6EQ,55.5371734,-4.65359027,S02002353,S01012568
4th Prestwick Guide Unit,SC048421,South Ayrshire,KA9 1EJ,55.49165722,-4.59687169,S02002347,S01012529
Dementia Friendly Prestwick,SC048538,South Ayrshire,KA9 2HR,55.48591315,-4.6011159,S02002345,S01012513
HOPE Wellbeing ,SC049898,South Ayrshire,KA9 2NB,55.48471038,-4.60230296,S02002345,S01012513
Ayr Storm Basketball Club,SC048588,South Ayrshire,KA7 3NZ,55.44736559,-4.6151985,S02002336,S01012461
Carrick Resilience Team,SC049576,South Ayrshire,KA19 8AQ,55.35472133,-4.68910814,S02002332,S01012437
South Ayrshire Swim Team,SC050025,South Ayrshire,KA7 1HF,55.46673264,-4.64048364,S02002339,S01012480
"Fort, Seafield and Wallacetown Community Association SCIO",SC051189,South Ayrshire,KA7 1LB,55.46602877,-4.64061061,S02002339,S01012480
4th Prestwick Brownie Pack,SC034497,South Ayrshire,KA7 1QT,55.46124278,-4.6299442,S02002339,S01012483
