Name,Charity Number,Local authority,Postcode,Latitude,Longitude,IntermediateZone2011Code,DataZone2011Code
Cambuslang Parish Church of Scotland,SC000061,South Lanarkshire,G72 7EX,55.81945947,-4.16588326,S02002406,S01012846
Rutherglen and Cambuslang Citizens Advice Bureau,SC003214,South Lanarkshire,G72 7EX,55.81945947,-4.16588326,S02002406,S01012846
Upstairs Kids Klub,SC029588,South Lanarkshire,G72 7EX,55.81945947,-4.16588326,S02002406,S01012846
Routes to Work South,SC031487,South Lanarkshire,G72 7EX,55.81945947,-4.16588326,S02002406,S01012846
Carluke Day Centre For The Elderly,SC000209,South Lanarkshire,ML8 5DW,55.7368148,-3.83883644,S02002360,S01012602
The High Mill Trust,SC003256,South Lanarkshire,ML8 4BE,55.73713487,-3.83606401,S02002360,S01012602
Biggar Parish Church Of Scotland,SC000333,South Lanarkshire,ML12 6BJ,55.62343145,-3.52543025,S02002355,S01012576
Biggar Youth Project,SC024444,South Lanarkshire,ML12 6AD,55.62377798,-3.52285502,S02002355,S01012576
1st Biggar Guide Unit,SC033027,South Lanarkshire,ML12 6AD,55.62377798,-3.52285502,S02002355,S01012576
Biggar Primary School PTA,SC037129,South Lanarkshire,ML12 6ZJ,55.62315948,-3.52200521,S02002355,S01012576
St Cuthberts Episcopal Church: Cambuslang,SC000362,South Lanarkshire,G73 3NE,55.82169801,-4.18767122,S02002407,S01012850
Westwood Baptist Church,SC000588,South Lanarkshire,G75 8EY,55.75616167,-4.20176969,S02002427,S01012956
Blackmount Parish Church (Church Of Scotland),SC000603,South Lanarkshire,ML12 6QZ,55.676636,-3.49062185,S02002355,S01012580
Stonehouse Agricultural Society,SC008168,South Lanarkshire,ML12 6QZ,55.676636,-3.49062185,S02002355,S01012580
Tarbrax Village Hall Trust,SC029846,South Lanarkshire,EH55 8LW,55.77202433,-3.55232138,S02002355,S01012580
East Kilbride Old Parish Church Of Scotland,SC000609,South Lanarkshire,G74 4JS,55.76533946,-4.1764623,S02002422,S01012930
East Mains United Reformed Church,SC016671,South Lanarkshire,G74 4JP,55.76582158,-4.17562834,S02002422,S01012930
Skills Exchange SCIO,SC048438,South Lanarkshire,G74 4HG,55.76584418,-4.17384416,S02002422,S01012930
East Mains Baptist Church SCIO,SC050585,South Lanarkshire,G74 4HG,55.76584418,-4.17384416,S02002422,S01012930
Lesmahagow And District Resource Centre,SC000741,South Lanarkshire,ML11 0EQ,55.63881613,-3.88659428,S02002369,S01012645
Lesmahagow Development Trust,SC040828,South Lanarkshire,ML11 0EQ,55.63881613,-3.88659428,S02002369,S01012645
1st Lesmahagow Senior Section Unit,SC046637,South Lanarkshire,ML11 0ES,55.63696989,-3.8903504,S02002369,S01012645
Hamilton Division Girlguiding,SC048405,South Lanarkshire,ML11 0ES,55.63696989,-3.8903504,S02002369,S01012645
Abbeygreen Ministries Trust ,SC049960,South Lanarkshire,ML11 0DB,55.64078258,-3.88670472,S02002369,S01012645
Abbeygreen Free Church of Scotland,SC050191,South Lanarkshire,ML11 0DB,55.64078258,-3.88670472,S02002369,S01012645
Uddingston:  Park United Free Church of Scotland,SC000928,South Lanarkshire,G71 7EW,55.82057335,-4.08322171,S02002401,S01012809
Strathaven: Trinity Parish Church of Scotland,SC001020,South Lanarkshire,ML10 6FT,55.6821053,-4.05669967,S02002378,S01012691
Hamilton District Arts Guild,SC001699,South Lanarkshire,ML3 9UP,55.76970161,-4.08029924,S02002390,S01012747
Supporting Our Community (SOC),SC049428,South Lanarkshire,ML3 9TR,55.77037686,-4.07650892,S02002390,S01012747
The Douglas Valley Church (Church of Scotland),SC001718,South Lanarkshire,ML11 0RN,55.55519103,-3.80370643,S02002368,S01012638
Douglas St Bride's Community Group,SC020530,South Lanarkshire,ML11 0PT,55.5580463,-3.84491991,S02002368,S01012638
Friends Of The Lady Home Hospital,SC021709,South Lanarkshire,ML11 0QN,55.55726519,-3.84665913,S02002368,S01012638
Talamh Life Centre Ltd,SC029579,South Lanarkshire,ML11 0NJ,55.60012706,-3.85241888,S02002368,S01012638
1st Douglas Rainbow Unit,SC038540,South Lanarkshire,ML11 0RY,55.55868552,-3.84364966,S02002368,S01012638
1st Douglas Brownie Unit,SC040252,South Lanarkshire,ML11 0RY,55.55868552,-3.84364966,S02002368,S01012638
Mainshill Trust,SC042399,South Lanarkshire,ML11 0PZ,55.5549166,-3.84745266,S02002368,S01012638
Douglas Community Development Company,SC050572,South Lanarkshire,ML11 0QA,55.55485534,-3.84913038,S02002368,S01012638
Strathaven Avendale Old And Drumclog Memorial Parish Church of Scotland,SC001956,South Lanarkshire,ML10 6LB,55.67566159,-4.0652519,S02002377,S01012688
Strathaven Town Mill Arts and Heritage Centre,SC010579,South Lanarkshire,ML10 6LF,55.67669523,-4.05989879,S02002377,S01012688
National Trust For Scotland Lanarkshire Members,SC024465,South Lanarkshire,ML10 6LF,55.67669523,-4.05989879,S02002377,S01012688
The Strathaven John Hastie Museum Trust ,SC043189,South Lanarkshire,ML10 6AN,55.6766754,-4.06428744,S02002377,S01012688
Climate Action Strathaven,SC049872,South Lanarkshire,ML10 6LT,55.67745347,-4.06665057,S02002377,S01012688
Lanark Congregation Of Jehovahs Witnesses,SC001995,South Lanarkshire,ML11 9JL,55.67311329,-3.80025661,S02002367,S01012633
New Lanark Village Group,SC002757,South Lanarkshire,ML11 9DD,55.66479453,-3.78405511,S02002367,S01012633
2nd Lanark Scout Group,SC003551,South Lanarkshire,ML11 9TG,55.66669029,-3.79517579,S02002367,S01012633
Hamilton Old Parish Church of Scotland,SC010855,South Lanarkshire,ML11 9BA,55.6721196,-3.79631499,S02002367,S01012633
Kirkfieldbank Parish Church (Church of Scotland),SC011211,South Lanarkshire,ML11 9JL,55.67311329,-3.80025661,S02002367,S01012633
"St. Nicholas Parish Church, Lanark (Church of Scotland)",SC011368,South Lanarkshire,ML11 9WT,55.66996511,-3.79308373,S02002367,S01012633
Crossford Church Of Scotland,SC014659,South Lanarkshire,ML11 9UP,55.67608811,-3.83542894,S02002367,S01012633
Dalserf Parish Church of Scotland,SC016156,South Lanarkshire,ML11 9NZ,55.66940497,-3.79390085,S02002367,S01012633
3rd Carluke Rainbows,SC043452,South Lanarkshire,ML11 9UW,55.67320886,-3.84644175,S02002367,S01012633
Hear For You,SC044037,South Lanarkshire,ML11 9WT,55.66996511,-3.79308373,S02002367,S01012633
1st Carluke Senior Section Unit,SC044814,South Lanarkshire,ML11 9UW,55.67320886,-3.84644175,S02002367,S01012633
5th Carluke Guide Unit,SC049179,South Lanarkshire,ML11 9UW,55.67320886,-3.84644175,S02002367,S01012633
HAMILTON MAUSOLEUM TRUST (SCIO),SC050195,South Lanarkshire,ML11 9UP,55.67608811,-3.83542894,S02002367,S01012633
East Mains Baptist Church,SC002022,South Lanarkshire,G75 9GT,55.73812292,-4.21381626,S02002429,S01012964
Dunoon Amateur Boxing Club,SC045935,South Lanarkshire,G75 9GT,55.73812292,-4.21381626,S02002429,S01012964
Cargill House Club,SC002114,South Lanarkshire,ML11 7AB,55.67400458,-3.77485328,S02002365,S01012624
Clydesdale Community Activities Group,SC040866,South Lanarkshire,ML11 7AB,55.67400458,-3.77485328,S02002365,S01012624
"Biggar Babies, Toddlers & Playgroup",SC002182,South Lanarkshire,ML12 6EZ,55.61984885,-3.53096023,S02002355,S01012575
A K Mccosh Trust For Coulter Church,SC006875,South Lanarkshire,ML12 6PZ,55.59008557,-3.55028653,S02002355,S01012575
Coulter Public Library Trust,SC011207,South Lanarkshire,ML12 6PZ,55.59008557,-3.55028653,S02002355,S01012575
Biggar Corn Exchange Ltd,SC032641,South Lanarkshire,ML12 6PZ,55.59008557,-3.55028653,S02002355,S01012575
Biggar and District U3A,SC041468,South Lanarkshire,ML12 6LE,55.59676964,-3.58833845,S02002355,S01012575
St Machan's Parish Church of Scotland Larkhall,SC002870,South Lanarkshire,ML9 3BA,55.72994014,-3.93360572,S02002371,S01012655
Larkhall Christians Together,SC047032,South Lanarkshire,ML9 3BA,55.72994014,-3.93360572,S02002371,S01012655
Forth St Paul's Parish Church (Church of Scotland),SC003080,South Lanarkshire,ML11 8EW,55.77785166,-3.70782044,S02002357,S01012587
Carstairs Pre 5 Group,SC003629,South Lanarkshire,ML11 8NS,55.70231867,-3.67925246,S02002357,S01012587
Cambuslang & District Nurse Association,SC003248,South Lanarkshire,G72 8AQ,55.81640959,-4.18181952,S02002406,S01012844
Wilson Memorial Baptist Church,SC003662,South Lanarkshire,G72 0HS,55.78304299,-4.09537966,S02002391,S01012752
Biggar Museum Trust,SC003695,South Lanarkshire,ML12 6DH,55.62458049,-3.52118679,S02002355,S01012578
3rd Biggar Brownies,SC035228,South Lanarkshire,ML12 6AW,55.62623327,-3.51543782,S02002355,S01012578
Biggar Little Festival,SC036411,South Lanarkshire,ML12 6BD,55.62538331,-3.51513501,S02002355,S01012578
Biggar Community Action Group,SC050562,South Lanarkshire,ML12 6DH,55.62458049,-3.52118679,S02002355,S01012578
"St John’s Church, Church of Scotland, Carluke",SC004066,South Lanarkshire,ML8 5BW,55.7359782,-3.843687,S02002359,S01012599
St Andrews Church Of Scotland: Carluke,SC013968,South Lanarkshire,ML8 5EB,55.73622931,-3.84132555,S02002359,S01012599
Abbeyfield Strathaven District Society Ltd,SC004474,South Lanarkshire,ML10 6BE,55.67506467,-4.0654749,S02002377,S01012686
Avondale Civic Society,SC017916,South Lanarkshire,ML10 6BA,55.6743665,-4.06850753,S02002377,S01012686
Avondale Community Transport Group (SCIO),SC028693,South Lanarkshire,ML10 6ES,55.67351132,-4.0717862,S02002377,S01012686
1st Blackwood Rainbow Unit,SC039025,South Lanarkshire,ML10 6DS,55.67606659,-4.07427518,S02002377,S01012686
Dysfunction Gallery ,SC046829,South Lanarkshire,ML10 6DD,55.67534738,-4.06362902,S02002377,S01012686
Grow Together SCIO,SC051222,South Lanarkshire,ML10 6BA,55.6743665,-4.06850753,S02002377,S01012686
Tenants Assoc Coatshill Thornhill Community Hall Management Committee,SC004540,South Lanarkshire,G72 9EF,55.80101071,-4.0957706,S02002394,S01012773
Scottish National Memorial To David Livingstone Trust,SC015490,South Lanarkshire,G72 9BT,55.80026562,-4.08515228,S02002394,S01012773
Dungavel Under Fives Playgroup,SC004585,South Lanarkshire,ML10 6QF,55.63215634,-4.14315838,S02002379,S01012696
The Haven at Vanguard,SC050974,South Lanarkshire,ML10 6RH,55.62613285,-4.1288194,S02002379,S01012696
Lanark Amateur Musical Society,SC005126,South Lanarkshire,ML8 4EX,55.73898769,-3.82993862,S02002360,S01012605
Clydesdale Food Bank,SC045073,South Lanarkshire,ML8 4BH,55.73981558,-3.82926055,S02002360,S01012605
Lanark & District Civic Trust,SC005328,South Lanarkshire,ML11 7LG,55.67231209,-3.77070573,S02002366,S01012629
Lanark In Bloom,SC036000,South Lanarkshire,ML11 9AN,55.66998904,-3.7772315,S02002366,S01012629
Hamilton Hillhouse Parish Church of Scotland,SC005376,South Lanarkshire,ML3 0NN,55.78362117,-4.06761276,S02002396,S01012787
St Marys Episcopal Church: Hamilton,SC005876,South Lanarkshire,ML3 6JT,55.77673486,-4.04302688,S02002384,S01012718
St Mary's Family Support Project,SC032852,South Lanarkshire,ML3 6JT,55.77673486,-4.04302688,S02002384,S01012718
Parent and Child Support Group,SC040236,South Lanarkshire,ML3 6AF,55.77458124,-4.04066599,S02002384,S01012718
St Mary's For All ,SC046051,South Lanarkshire,ML3 6JT,55.77673486,-4.04302688,S02002384,S01012718
St Mary's Family Support Project SCIO,SC049697,South Lanarkshire,ML3 6JT,55.77673486,-4.04302688,S02002384,S01012718
The Rocca Foundation,SC050215,South Lanarkshire,ML3 6DA,55.77385026,-4.03868259,S02002384,S01012718
Blantyre St Andrew's Parish Church of Scotland,SC005955,South Lanarkshire,G72 0BZ,55.78900858,-4.09654543,S02002391,S01012757
Lindsay Bequest Fund,SC006030,South Lanarkshire,ML11 7NW,55.68330023,-3.77772401,S02002367,S01012635
Independent Community Entertainment (Ice),SC036275,South Lanarkshire,ML11 7DD,55.67759933,-3.76175212,S02002367,S01012635
New Beginnings - Clydesdale Supporting Homeless People in South Lanarkshire,SC042046,South Lanarkshire,ML11 7SG,55.68888812,-3.73451529,S02002367,S01012635
Lanark & District Round Table Charitable Fund,SC051159,South Lanarkshire,ML11 9JF,55.67933097,-3.81619272,S02002367,S01012635
Lesmahagow Old Peoples Welfare Committee,SC006055,South Lanarkshire,ML11 0BS,55.63817648,-3.88143155,S02002369,S01012644
Abbeygreen District,SC042708,South Lanarkshire,ML11 0ED,55.63521429,-3.88646878,S02002369,S01012644
"Cadzow Parish Church of Scotland, Hamilton",SC006611,South Lanarkshire,ML3 7HY,55.77123702,-4.03639381,S02002384,S01012717
Hamilton Information Project For Youth - Hipy,SC024752,South Lanarkshire,ML3 7BE,55.77543401,-4.03313678,S02002384,S01012717
Jubilee Key Scheme - Hamilton Churches Key To Housing,SC030049,South Lanarkshire,ML3 7EY,55.77137244,-4.03310064,S02002384,S01012717
Hyzone Limited,SC032663,South Lanarkshire,ML3 7DT,55.77395142,-4.03637596,S02002384,S01012717
Family Mediation South Lanarkshire,SC036744,South Lanarkshire,ML3 7ES,55.77236653,-4.03385393,S02002384,S01012717
South Lanarkshire Muslim Welfare Society,SC037284,South Lanarkshire,ML3 7HU,55.77227281,-4.0367986,S02002384,S01012717
SLC Radio,SC044866,South Lanarkshire,ML3 7BE,55.77543401,-4.03313678,S02002384,S01012717
Radio Lanarkshire,SC051223,South Lanarkshire,ML3 7BE,55.77543401,-4.03313678,S02002384,S01012717
Hamilton After School Project,SC030083,South Lanarkshire,ML3 7JP,55.77070354,-4.0376733,S02002384,S01012717
Burnside Blairbeth Church of Scotland,SC006633,South Lanarkshire,G73 5BX,55.81445428,-4.19925161,S02002414,S01012887
Flemington Hallside Parish Church of Scotland,SC006638,South Lanarkshire,G72 8UE,55.81076264,-4.14109339,S02002404,S01012831
Particip8 Overton,SC046290,South Lanarkshire,G72 8UB,55.81052586,-4.1412719,S02002404,S01012831
Rutherglen Old Parish Church of Scotland,SC006856,South Lanarkshire,G73 3LG,55.82373161,-4.19811487,S02002407,S01012853
Rutherglen Baptist Church,SC009643,South Lanarkshire,G73 3HS,55.82580611,-4.20121757,S02002407,S01012853
Enable Rutherglen & District Branch,SC021075,South Lanarkshire,G73 3JS,55.82463554,-4.1943022,S02002407,S01012853
Rutherglen Congregation Of Jehovahs Witnesses,SC006885,South Lanarkshire,G73 1AF,55.83435314,-4.20673103,S02002408,S01012859
Hamilton Trinity Parish Church of Scotland,SC007051,South Lanarkshire,ML3 8XE,55.76635043,-4.08871305,S02002389,S01012741
Lanarkshire Beekeepers,SC051101,South Lanarkshire,ML3 8XE,55.76635043,-4.08871305,S02002389,S01012741
Lanark YMCA,SC007063,South Lanarkshire,ML11 9DW,55.67068427,-3.76330171,S02002366,S01012628
Christ Church Lanark,SC014937,South Lanarkshire,ML11 9BG,55.66802727,-3.75807823,S02002366,S01012628
Healthy Valleys,SC034253,South Lanarkshire,ML11 7RX,55.67237735,-3.75364591,S02002366,S01012628
Clydesdale Community Initiatives,SC035206,South Lanarkshire,ML11 9TA,55.66078888,-3.73754831,S02002366,S01012628
Music In Lanark,SC036554,South Lanarkshire,ML11 9TB,55.65667891,-3.76483367,S02002366,S01012628
Border Biscuits Community Support,SC038418,South Lanarkshire,ML11 7SR,55.67880699,-3.74579057,S02002366,S01012628
East Kilbride Claremont Parish Church of Scotland,SC007396,South Lanarkshire,G74 2HB,55.75771974,-4.1636538,S02002421,S01012925
East Kilbride Coronary Club,SC033775,South Lanarkshire,G74 2EG,55.75803169,-4.16073846,S02002421,S01012925
Rutherglen West And Wardlawhill Parish Church Of Scotland,SC007585,South Lanarkshire,G73 1HF,55.82789897,-4.22673927,S02002410,S01012867
Netherburn Community Hall Management Committee,SC007600,South Lanarkshire,ML9 3BY,55.70776219,-3.90126512,S02002371,S01012653
Jack & Jill Pre 5s Group,SC007808,South Lanarkshire,G74 2AX,55.75878402,-4.1532093,S02002421,S01012923
Mounties Playgroup,SC020173,South Lanarkshire,G74 2EX,55.75584961,-4.15551782,S02002421,S01012923
Blantyre Miners Welfare Charitable Societies,SC007870,South Lanarkshire,G72 0AU,55.79131563,-4.08984216,S02002392,S01012760
Blantyre Volunteer Ltd,SC012393,South Lanarkshire,G72 0AU,55.79131563,-4.08984216,S02002392,S01012760
Community Links (South Lanarkshire),SC032729,South Lanarkshire,G72 0QD,55.79231141,-4.08889054,S02002392,S01012760
Parents & Friends of Calderside Nursery,SC040090,South Lanarkshire,G72 0BL,55.79218848,-4.09558374,S02002392,S01012760
Larkhall Baptist Church,SC007969,South Lanarkshire,ML9 1HX,55.73332264,-3.96846273,S02002373,S01012660
East Kilbride Citizens Advice Bureau,SC008170,South Lanarkshire,G74 1JT,55.76048201,-4.17365726,S02002421,S01012928
Agape Wellbeing ,SC044968,South Lanarkshire,G74 1JR,55.76106803,-4.17507661,S02002421,S01012928
Air Training Corps No 2414 East Kilbride Squadron Non Public Sports & Welfare Funds,SC024718,South Lanarkshire,G74 2HP,55.76253647,-4.1626614,S02002421,S01012928
East Kilbride South Parish Church of Scotland,SC008332,South Lanarkshire,G75 0LW,55.753544,-4.17465767,S02002435,S01012998
The South Lanarkshire College Foundation,SC044678,South Lanarkshire,G75 0NE,55.75338738,-4.15805926,S02002435,S01012998
United Reformed Church Carluke,SC008370,South Lanarkshire,ML8 5TP,55.73570945,-3.84901019,S02002359,S01012600
Lesmahagow Parish Historical Association,SC008400,South Lanarkshire,ML11 0BW,55.6272692,-3.88124231,S02002368,S01012641
1st Lesmahagow Brownie Guide Unit,SC046640,South Lanarkshire,ML11 0GP,55.62547396,-3.87817022,S02002368,S01012641
Lunar Gymnastics Club,SC047478,South Lanarkshire,ML11 0JR,55.62627054,-3.87838305,S02002368,S01012641
Hamilton West Parish Church of Scotland,SC008451,South Lanarkshire,ML3 9HJ,55.77546971,-4.06815361,S02002396,S01012781
Trinity Parish Church of Scotland,SC008611,South Lanarkshire,ML9 1EF,55.73822539,-3.9732017,S02002373,S01012661
Hamilton Congregation Of Jehovahs Witnesses,SC009051,South Lanarkshire,ML3 9QP,55.77618163,-4.09351245,S02002390,S01012751
Symington Parish Church (Church of Scotland),SC009095,South Lanarkshire,ML12 6LJ,55.59901964,-3.59500028,S02002355,S01012574
Friends of Biggar & Upper Clydesale Museum,SC019323,South Lanarkshire,ML12 6NZ,55.6254229,-3.63384128,S02002355,S01012574
Tinto School After School Club,SC036573,South Lanarkshire,ML12 6JR,55.5968323,-3.59389578,S02002355,S01012574
Clydesdale Christian Youth Trust,SC039824,South Lanarkshire,ML12 6LT,55.59881067,-3.59724558,S02002355,S01012574
Uddingston Pre School Playgroup,SC009161,South Lanarkshire,G71 7PA,55.81884443,-4.07864375,S02002401,S01012808
Uddingston Community Centre Management Association,SC029464,South Lanarkshire,G71 7PA,55.81884443,-4.07864375,S02002401,S01012808
Carluke Parish Historical Society,SC009403,South Lanarkshire,ML8 5BP,55.73797286,-3.8419174,S02002360,S01012603
Enable South Lanarkshire Branch,SC021270,South Lanarkshire,ML8 5EG,55.74488054,-3.84452117,S02002360,S01012603
Bothwell Parish Church of Scotland,SC009819,South Lanarkshire,G71 8HG,55.80611011,-4.0690286,S02002400,S01012804
Paterson United Free Church,SC011105,South Lanarkshire,ML9 3NP,55.6947179,-3.99053225,S02002376,S01012682
1st Stonehouse Guide Unit,SC030915,South Lanarkshire,ML9 3EA,55.69880271,-3.98524981,S02002376,S01012682
Hamilton Gilmour & Whitehill Parish Church of Scotland,SC011571,South Lanarkshire,ML3 0NJ,55.78395853,-4.0721281,S02002395,S01012777
15th A East Kilbride Brownie Pack,SC031832,South Lanarkshire,ML3 0QT,55.78393917,-4.07327535,S02002395,S01012777
Breathe Easy Clyde Valley Support Group,SC049822,South Lanarkshire,ML3 0QG,55.78348215,-4.07372952,S02002395,S01012777
Royal Burgh Of Lanark Museum Trust,SC011883,South Lanarkshire,ML11 9HD,55.67413898,-3.78355815,S02002364,S01012620
Friends Of The Royal Burgh Of Lanark Museum,SC023225,South Lanarkshire,ML11 9HD,55.67413898,-3.78355815,S02002364,S01012620
Lanark Camera Club,SC027179,South Lanarkshire,ML11 9HQ,55.67516797,-3.78880531,S02002364,S01012620
Friends Of New Lanark,SC011967,South Lanarkshire,ML8 4QN,55.72818255,-3.80158053,S02002363,S01012617
Kilncadzow Village Hall Association,SC026788,South Lanarkshire,ML8 4QT,55.71778069,-3.77906757,S02002363,S01012617
Larkhall Congregation Of Jehovahs Witnesses,SC012224,South Lanarkshire,ML11 0JY,55.67974399,-3.93499255,S02002379,S01012695
2nd Blackwood Brownie Unit,SC038861,South Lanarkshire,ML11 0JS,55.62313695,-3.8922255,S02002379,S01012695
Blackwood Estate Community Association SCIO ,SC049354,South Lanarkshire,ML11 0JG,55.66627505,-3.94789032,S02002379,S01012695
Strathaven Community Nursery,SC012310,South Lanarkshire,ML10 6JT,55.6832342,-4.06493532,S02002378,S01012692
Strathaven After School Club,SC029941,South Lanarkshire,ML10 6JT,55.6832342,-4.06493532,S02002378,S01012692
137th (1st St Columbkille's) Scout Group,SC012415,South Lanarkshire,G73 3PD,55.82025008,-4.20483079,S02002413,S01012881
South East District Scout Council,SC037077,South Lanarkshire,G73 3PD,55.82025008,-4.20483079,S02002413,S01012881
Little Pets Playgroup,SC012442,South Lanarkshire,G73 3DQ,55.8268652,-4.20731275,S02002407,S01012855
St Nicholas Pre School Playgroup,SC012553,South Lanarkshire,ML11 7PD,55.67600292,-3.78639429,S02002364,S01012621
Clydesdale RDA,SC028614,South Lanarkshire,ML11 7PE,55.67716718,-3.78667002,S02002364,S01012621
East Kilbride Mossneuk Parish Church of Scotland,SC012692,South Lanarkshire,G75 9HB,55.74554748,-4.20126719,S02002431,S01012975
Hamilton Presbytery Widows Fund,SC012887,South Lanarkshire,ML3 7JG,55.77189409,-4.03795865,S02002383,S01012715
Biggar Farmers Club,SC012947,South Lanarkshire,ML11 8SS,55.66903197,-3.66412002,S02002356,S01012582
Ravenstruther and Cleghorn Hall Association,SC014789,South Lanarkshire,ML11 7SS,55.68517383,-3.72323181,S02002356,S01012582
Cairngryffe Parish Church (Church Of Scotland),SC017001,South Lanarkshire,ML11 8SL,55.66698905,-3.69258877,S02002356,S01012582
1st Symington Guides Senior Section Unit,SC039517,South Lanarkshire,ML11 8SP,55.66621997,-3.65075667,S02002356,S01012582
Chalmers Parish Church of Scotland Larkhall,SC013309,South Lanarkshire,ML9 2RH,55.73228999,-3.95885457,S02002374,S01012667
"Stonelaw Parish Church of Scotland, Rutherglen",SC013558,South Lanarkshire,G73 2PJ,55.82508989,-4.21058095,S02002409,S01012861
Rutherglen United Reformed Church,SC017385,South Lanarkshire,G73 2QA,55.82401616,-4.21530964,S02002409,S01012861
Scots Mining Company House Trust,SC013667,South Lanarkshire,ML12 6XP,55.4156219,-3.76120745,S02002354,S01012571
Douglas Heritage Museum Trust,SC022058,South Lanarkshire,ML12 6SQ,55.49189145,-3.73815993,S02002354,S01012571
Crawfordjohn Public Hall Association,SC024171,South Lanarkshire,ML12 6SQ,55.49189145,-3.73815993,S02002354,S01012571
Glespin Community Group,SC024488,South Lanarkshire,ML11 0SF,55.53334946,-3.89207786,S02002354,S01012571
Leadhills Heritage Trust,SC024749,South Lanarkshire,ML12 6XS,55.41236396,-3.76215247,S02002354,S01012571
Association Of Local Voluntary Organisations (Rural South Lanarkshire),SC013691,South Lanarkshire,ML11 7LZ,55.67430715,-3.78188011,S02002364,S01012619
Clydesdale Citizens Advice Bureau,SC017611,South Lanarkshire,ML11 7LX,55.67404006,-3.78046853,S02002364,S01012619
Clydesdale Housing Association Ltd,SC034228,South Lanarkshire,ML11 7PT,55.67433668,-3.77860548,S02002364,S01012619
Care & Repair In South Lanarkshire,SC035271,South Lanarkshire,ML11 7LZ,55.67430715,-3.78188011,S02002364,S01012619
East Kilbride South Congregation Of Jehovah’s Witnesses,SC013856,South Lanarkshire,G75 8YR,55.75203109,-4.23243669,S02002426,S01012949
Moving the Goalposts (SCIO),SC045729,South Lanarkshire,G75 8YG,55.75386437,-4.2319518,S02002426,S01012949
East Kilbride Arts Council,SC013930,South Lanarkshire,G74 4SJ,55.77599636,-4.20931453,S02002425,S01012947
Righead United Reformed Church,SC014527,South Lanarkshire,G74 4SU,55.7722301,-4.18724199,S02002424,S01012939
Rutherglen Benevolent Fund,SC014764,South Lanarkshire,G73 3SA,55.81809384,-4.20228243,S02002413,S01012880
Cambuslang & Rutherglen Christian Reachout Charitable Trust,SC022459,South Lanarkshire,G73 3RT,55.81759286,-4.20766548,S02002413,S01012880
Cambuslang and Rutherglen Christian Reachout Trust SCIO ,SC048919,South Lanarkshire,G73 3RT,55.81759286,-4.20766548,S02002413,S01012880
Minerva Youth Theatre (SCIO),SC050115,South Lanarkshire,G73 3RR,55.81736484,-4.20334266,S02002413,S01012880
Clan Carmichael Charitable Trust,SC015291,South Lanarkshire,ML12 6PG,55.62936329,-3.70805754,S02002354,S01012573
Wiston Village Hall Association SCIO,SC050306,South Lanarkshire,ML12 6HT,55.56934871,-3.65511137,S02002354,S01012573
Coalburn Miners Welfare Charitable Society,SC015679,South Lanarkshire,ML11 0LH,55.59080438,-3.88971663,S02002368,S01012639
Libberton & Quothquan Parish Church (Church Of Scotland),SC016304,South Lanarkshire,ML11 8LT,55.67003828,-3.60750889,S02002355,S01012579
Libberton & Quothquan Village Hall,SC022684,South Lanarkshire,ML12 6ND,55.63765123,-3.598556,S02002355,S01012579
South Lanarkshire Reuse Initiative SCIO,SC046042,South Lanarkshire,ML12 6UG,55.62879131,-3.63193245,S02002355,S01012579
Carnwath Parish Church of Scotland,SC016360,South Lanarkshire,ML11 8NA,55.69713244,-3.56860371,S02002356,S01012586
Friends Of Kello Hospital,SC026657,South Lanarkshire,ML11 8TA,55.70693704,-3.58187219,S02002356,S01012586
1st Biggar Brownies,SC035081,South Lanarkshire,ML11 8NA,55.69713244,-3.56860371,S02002356,S01012586
1st Biggar Rainbows,SC043860,South Lanarkshire,ML11 8NA,55.69713244,-3.56860371,S02002356,S01012586
1st Tinto & Medwyn Guide Unit,SC045610,South Lanarkshire,ML11 8RX,55.70123975,-3.65213755,S02002356,S01012586
Larkhall East Pre School Playgroup,SC016494,South Lanarkshire,ML9 2EF,55.74113813,-3.96641894,S02002372,S01012656
"Greyfriars Parish Church, Lanark (Church Of Scotland)",SC016504,South Lanarkshire,ML11 9ET,55.67387747,-3.78114495,S02002366,S01012630
Lanark Tolbooth Heritage Centre Trust,SC020936,South Lanarkshire,ML11 9EG,55.67171658,-3.78575365,S02002366,S01012630
Wallaces Weans,SC039276,South Lanarkshire,ML11 9ET,55.67387747,-3.78114495,S02002366,S01012630
Lanark Community Development Trust,SC040584,South Lanarkshire,ML11 9EG,55.67171658,-3.78575365,S02002366,S01012630
Tolbooth Lanark (SCIO),SC048358,South Lanarkshire,ML11 7EX,55.67337136,-3.77886381,S02002366,S01012630
Lanark Boxing Club SCIO,SC050425,South Lanarkshire,ML11 9DT,55.67274408,-3.77873992,S02002366,S01012630
Blantyre Congregational Church,SC016528,South Lanarkshire,G72 9RJ,55.79232403,-4.10605551,S02002392,S01012762
East Kilbride Moncreiff Parish Church of Scotland,SC016751,South Lanarkshire,G75 8XY,55.75105733,-4.23013413,S02002426,S01012948
East Kilbride And District Talking Newspaper Association,SC016763,South Lanarkshire,G74 4DU,55.77198336,-4.17278294,S02002419,S01012915
Strathaven Agricultural Exposition,SC017243,South Lanarkshire,ML9 3JL,55.68717695,-3.99776925,S02002376,S01012676
Hamilton United Reformed Church,SC017428,South Lanarkshire,ML3 6LP,55.77848732,-4.04464944,S02002384,S01012719
The Upper Clyde Church Of Scotland,SC017506,South Lanarkshire,ML12 6TP,55.46727042,-3.65097318,S02002354,S01012570
South Lanarkshire Guide Association,SC018243,South Lanarkshire,G71 7DQ,55.82503423,-4.09519472,S02002401,S01012813
Blantyre Old Parish Church of Scotland,SC018492,South Lanarkshire,G74 3BB,55.77243135,-4.14884396,S02002418,S01012906
3rd East Kilbride Scout Group,SC018745,South Lanarkshire,G74 2AA,55.76453319,-4.15746369,S02002420,S01012919
20th C East Kilbride Brownie Pack,SC034927,South Lanarkshire,G74 3SS,55.76544388,-4.15627059,S02002420,S01012919
1st Claremont Rainbows,SC034935,South Lanarkshire,G74 3SS,55.76544388,-4.15627059,S02002420,S01012919
Church Of Christ Trust,SC019939,South Lanarkshire,G75 0HJ,55.74266425,-4.17950096,S02002435,S01012995
Royal British Legion Scotland Forth Branch,SC020574,South Lanarkshire,ML11 8BS,55.76482958,-3.68901632,S02002357,S01012590
Strathaven Parent & Toddler Group,SC020630,South Lanarkshire,ML10 6UZ,55.68551809,-4.06112638,S02002378,S01012693
Adam's Community Trust,SC039774,South Lanarkshire,ML10 6AZ,55.68759755,-4.06145855,S02002378,S01012693
Whiteshawgate 3G Sports Trust,SC045446,South Lanarkshire,ML10 6FG,55.68768148,-4.05699249,S02002378,S01012693
Friends of Strathaven Park,SC046626,South Lanarkshire,ML10 6AZ,55.68759755,-4.06145855,S02002378,S01012693
St Marks {Rutherglen} Special Needs Club,SC020827,South Lanarkshire,G73 4EP,55.81055574,-4.20265453,S02002414,S01012886
East Kilbride Repertory Theatre Club,SC020852,South Lanarkshire,G74 4QW,55.77022243,-4.19650415,S02002424,S01012938
5th East Kilbride Boys Brigade Company,SC034436,South Lanarkshire,G74 4NH,55.77052265,-4.19428896,S02002424,S01012938
Encore Stars Academy,SC045415,South Lanarkshire,G74 4QP,55.77055389,-4.195056,S02002424,S01012938
Cathkin High School General School Fund,SC020998,South Lanarkshire,G72 8ES,55.812839,-4.18146005,S02002405,S01012842
Enable East Kilbride Branch,SC021034,South Lanarkshire,G74 4SG,55.77174525,-4.1750656,S02002422,S01012933
East Kilbride & District Housing Association Limited,SC033749,South Lanarkshire,G74 4DP,55.76920202,-4.17556163,S02002422,S01012933
17th East Kilbride rainbow Unit,SC037266,South Lanarkshire,G74 4BD,55.7711734,-4.1753845,S02002422,S01012933
Greenhills Out Of School Care,SC021423,South Lanarkshire,G75 9DG,55.7423588,-4.20366856,S02002429,S01012966
Crawfordjohn Church Preservation Trust,SC021699,South Lanarkshire,ML12 6UD,55.48574538,-3.59209689,S02002354,S01012572
Crawfordjohn Heritage Venture Trust,SC030012,South Lanarkshire,ML12 6UD,55.48574538,-3.59209689,S02002354,S01012572
Abington Community Development Group,SC049976,South Lanarkshire,ML12 6SD,55.49327667,-3.69188796,S02002354,S01012572
Cambuslang Childcare Project,SC021738,South Lanarkshire,G72 8SQ,55.81144884,-4.15326065,S02002404,S01012832
The Friends Of Cambuslang Park,SC040279,South Lanarkshire,G72 8PZ,55.81206311,-4.15974253,S02002404,S01012832
Springwell Community Hall Management Committee,SC021767,South Lanarkshire,G72 0LW,55.78950201,-4.08073284,S02002395,S01012780
Blantyre Victoria Community Club,SC047368,South Lanarkshire,G72 0JL,55.79309958,-4.08269543,S02002395,S01012780
Street Level,SC022006,South Lanarkshire,ML8 5AA,55.73237815,-3.84404282,S02002359,S01012598
"Kirkton Parish Church, Carluke (Church Of Scotland)",SC026539,South Lanarkshire,ML8 5AA,55.73237815,-3.84404282,S02002359,S01012598
Hamilton South Parish Church of Scotland,SC022166,South Lanarkshire,ML9 2TJ,55.74974314,-3.98179817,S02002372,S01012659
Stonehouse Jubilee Club,SC044988,South Lanarkshire,ML9 1UR,55.74720539,-3.98479235,S02002372,S01012659
West Lanarkshire Guides Association,SC022675,South Lanarkshire,G73 5AL,55.81738511,-4.19215402,S02002413,S01012878
1st Bankhead Brownie Unit,SC030831,South Lanarkshire,G73 5AL,55.81738511,-4.19215402,S02002413,S01012878
15th East Kilbride Guides,SC034781,South Lanarkshire,G73 5AL,55.81738511,-4.19215402,S02002413,S01012878
1st Cathkin Guide Unit,SC036934,South Lanarkshire,G73 5AL,55.81738511,-4.19215402,S02002413,S01012878
The Lanark Choral,SC022840,South Lanarkshire,ML11 7DS,55.675689,-3.76898174,S02002365,S01012623
Clydesdale Counselling And Human Development Project,SC023208,South Lanarkshire,ML8 4HA,55.73285967,-3.83830004,S02002362,S01012614
Carluke Development Trust,SC029002,South Lanarkshire,ML8 4AJ,55.73434208,-3.8389272,S02002362,S01012614
The Blantyre Youth Development Team,SC023444,South Lanarkshire,G72 0NT,55.79040421,-4.08741662,S02002395,S01012778
LEAP Project,SC024196,South Lanarkshire,G72 7PJ,55.81234773,-4.14708577,S02002403,S01012822
Scottish Women’s Institutes Auchengray Institute,SC026612,South Lanarkshire,EH55 8LH,55.79665382,-3.58971974,S02002357,S01012588
Tarbrax Village Hall Association,SC027927,South Lanarkshire,EH55 8LN,55.77606829,-3.5833011,S02002357,S01012588
Tarbrax Woolfords And Auchengray Theatrical Society,SC033639,South Lanarkshire,EH55 8XD,55.78013879,-3.55446182,S02002357,S01012588
Tarbrax Common Association,SC040353,South Lanarkshire,EH55 8XA,55.77760708,-3.55640186,S02002357,S01012588
Auchengray Church Centre Trust,SC043509,South Lanarkshire,EH55 8XA,55.77760708,-3.55640186,S02002357,S01012588
Rutherglen Community Carers,SC027037,South Lanarkshire,G73 2SA,55.82575204,-4.21922424,S02002409,S01012862
Carstairs Community Centre Management Group,SC027158,South Lanarkshire,ML11 8QF,55.69599009,-3.68988027,S02002356,S01012583
Support For Play And Early Learning In Lanarkshire (SPELL),SC027970,South Lanarkshire,ML3 0JQ,55.78462774,-4.05851156,S02002398,S01012793
South Lanarkshire Leisure and Culture Limited,SC032549,South Lanarkshire,ML3 0EW,55.7782109,-4.05206579,S02002398,S01012793
Voluntary Action South Lanarkshire,SC037696,South Lanarkshire,ML3 0EW,55.7782109,-4.05206579,S02002398,S01012793
Carstairs Parish Church Of Scotland,SC028124,South Lanarkshire,ML11 8SE,55.68489902,-3.66832531,S02002356,S01012581
Carstairs Junction Welcome All Hub,SC050004,South Lanarkshire,ML11 8RB,55.68959613,-3.66787313,S02002356,S01012581
Larkhall And District Volunteer Group,SC028557,South Lanarkshire,ML9 2BL,55.7408692,-3.97198108,S02002373,S01012664
The Church at the Cross,SC033947,South Lanarkshire,ML9 1DP,55.73921785,-3.9746377,S02002373,S01012664
Larkhall Community Growers,SC042093,South Lanarkshire,ML9 1DP,55.73921785,-3.9746377,S02002373,S01012664
Royal Albert Cycling Club,SC050856,South Lanarkshire,ML9 2AG,55.7419846,-3.97415617,S02002373,S01012664
Carnwath 2000 Club,SC029201,South Lanarkshire,ML11 8HP,55.70098202,-3.62227356,S02002356,S01012585
Whitlawburn Community Resource Centre,SC029510,South Lanarkshire,G72 8PG,55.80807737,-4.18288522,S02002414,S01012882
West Whitlawburn Housing Co-Operative Ltd,SC038737,South Lanarkshire,G72 8PG,55.80807737,-4.18288522,S02002414,S01012882
Association Of Friends Of Crawfordjohn Heritage Venture,SC029638,South Lanarkshire,ML10 6RU,55.71061986,-4.09560672,S02002379,S01012698
South Lanarkshire Carers Network Limited,SC029663,South Lanarkshire,ML3 0DW,55.78940991,-4.05415415,S02002398,S01012794
Braidwood Pre-School Playgroup,SC029748,South Lanarkshire,ML8 5NY,55.71153643,-3.84173934,S02002363,S01012616
Carluke Division Girlguiding,SC049070,South Lanarkshire,ML8 5PX,55.70941264,-3.86573814,S02002363,S01012616
Cambuslang Out Of School Care Project,SC029820,South Lanarkshire,G72 8JS,55.81625754,-4.16295985,S02002404,S01012835
Wednesday Legends,SC042531,South Lanarkshire,G72 8JU,55.81589952,-4.16236535,S02002404,S01012835
Larkhall Community Centre Management Association,SC030006,South Lanarkshire,ML9 3BN,55.72739391,-3.91774609,S02002371,S01012654
East Kilbride Greenhills Parish Church of Scotland,SC030300,South Lanarkshire,G75 8RD,55.75183012,-4.20925443,S02002432,S01012983
Dynamica Drum Corps Ltd,SC037435,South Lanarkshire,G75 8PX,55.75284774,-4.21014067,S02002432,S01012983
West Scotland 4mm Group (SCIO),SC049403,South Lanarkshire,G75 8RD,55.75183012,-4.20925443,S02002432,S01012983
East Kilbride Womens Support Group,SC030373,South Lanarkshire,G72 9SE,55.79196702,-4.09908124,S02002392,S01012759
78th Lanarkshire (3rd Blantyre) Scout Group,SC036953,South Lanarkshire,G72 0BY,55.79011758,-4.09475471,S02002392,S01012759
Law Community Trust,SC030690,South Lanarkshire,ML8 5NT,55.74764007,-3.88473854,S02002358,S01012594
Burnside Rainbow Guides,SC030753,South Lanarkshire,G73 5RW,55.80364672,-4.19045606,S02002415,S01012890
Strathaven Scout/Guide Centre Management Committee,SC030935,South Lanarkshire,ML10 6EH,55.68177153,-4.07386145,S02002377,S01012690
Hamilton South Townswomen's Guild,SC030993,South Lanarkshire,ML3 7SA,55.75185221,-4.04880076,S02002381,S01012703
10th B Hamilton Brownie Pack,SC037854,South Lanarkshire,ML3 7HJ,55.74893496,-4.04912582,S02002381,S01012703
1st Bankhead Guides,SC031017,South Lanarkshire,G73 3PN,55.82279728,-4.20361792,S02002407,S01012852
113th (Burnside) Glasgow Scout Group,SC032143,South Lanarkshire,G73 3PH,55.82121738,-4.19497177,S02002407,S01012852
1st Rutherglen Rainbow Unit,SC032609,South Lanarkshire,G73 3PN,55.82279728,-4.20361792,S02002407,S01012852
3rd Burnside Guide Unit,SC034994,South Lanarkshire,G73 3PN,55.82279728,-4.20361792,S02002407,S01012852
25th East Kilbride Guide Unit,SC031078,South Lanarkshire,G75 8QR,55.76235535,-4.21469564,S02002427,S01012957
Mossneuk Out Of School Service,SC034456,South Lanarkshire,G75 8QR,55.76235535,-4.21469564,S02002427,S01012957
1st East Kilbride Brownie Unit,SC031080,South Lanarkshire,G75 0RX,55.74100984,-4.1550976,S02002416,S01012895
East Kilbride Community Trust,SC040731,South Lanarkshire,G75 0QZ,55.74828785,-4.14544455,S02002416,S01012895
2nd East Mains Rainbow Unit,SC031133,South Lanarkshire,G74 3TA,55.7670315,-4.15081051,S02002420,S01012921
2nd Rutherglen Brownie Guide Unit,SC031780,South Lanarkshire,G73 3EH,55.82520442,-4.20820853,S02002407,S01012854
Stonelaw Pre School Group,SC044604,South Lanarkshire,G73 3EG,55.82398653,-4.20796389,S02002407,S01012854
Parents Action Group (Playcare Out Of School Care),SC031906,South Lanarkshire,G75 0JP,55.75515003,-4.1778548,S02002434,S01012991
Forth Community Resource Centre Steering Group,SC031932,South Lanarkshire,ML11 8AT,55.7674234,-3.68270453,S02002357,S01012591
Forth Breast Cancer Care Group,SC033381,South Lanarkshire,ML11 8AQ,55.77098463,-3.68513768,S02002357,S01012591
Forth & District  Development Trust SCIO ,SC046894,South Lanarkshire,ML11 8AT,55.7674234,-3.68270453,S02002357,S01012591
1st Rutherglen Brownie Unit,SC032138,South Lanarkshire,G73 4QJ,55.81514976,-4.21956224,S02002412,S01012877
Hamilton Trefoil Guild,SC032265,South Lanarkshire,ML3 6QG,55.77145378,-4.0460667,S02002385,S01012725
1st Hamilton Company Girls Brigade,SC033647,South Lanarkshire,ML3 6PD,55.77377958,-4.04347809,S02002385,S01012725
112th Lanarkshire (St Annes) Beaver & Cub Group,SC034313,South Lanarkshire,ML3 6RH,55.77113337,-4.04263809,S02002385,S01012725
Self-Directed Support Network South Lanarkshire,SC043405,South Lanarkshire,ML3 6RJ,55.77028902,-4.04315191,S02002385,S01012725
Speak Out Advocacy SCIO,SC044671,South Lanarkshire,ML3 6QR,55.77245583,-4.03822712,S02002385,S01012725
Hamilton Spiritualist Church,SC050088,South Lanarkshire,ML3 6PD,55.77377958,-4.04347809,S02002385,S01012725
20th East Kilbride Guide Company,SC032280,South Lanarkshire,G74 3NJ,55.77860775,-4.15385634,S02002418,S01012910
Kilbryde Hospice,SC032424,South Lanarkshire,G75 8GJ,55.75934553,-4.21812716,S02002427,S01012955
Church @ Lindsayfield,SC042016,South Lanarkshire,G75 8QP,55.76204514,-4.21644739,S02002427,S01012955
Healthy n Happy,SC032654,South Lanarkshire,G73 1DL,55.8285661,-4.21018742,S02002409,S01012863
Older & Active in East Kilbride Ltd,SC032831,South Lanarkshire,G74 1LL,55.76018498,-4.18280573,S02002423,S01012934
University of theThird Age (U3A) in East Kilbride,SC041004,South Lanarkshire,G74 1AJ,55.76327063,-4.17757441,S02002423,S01012934
Women's Aid South Lanarkshire and East Renfrewshire,SC041781,South Lanarkshire,G74 1LJ,55.76088929,-4.17806326,S02002423,S01012934
East Kilbride Trefoil Guild,SC032906,South Lanarkshire,G74 2HE,55.75373673,-4.15146495,S02002416,S01012896
Spectrum Gymnastic Club,SC048084,South Lanarkshire,G74 2EE,55.75518622,-4.1543975,S02002416,S01012896
1st Strathaven Scout Group Executive Committee,SC032957,South Lanarkshire,G75 8RT,55.74770721,-4.22406318,S02002428,S01012961
Priestfield Senior Citizens Hall Committee,SC033250,South Lanarkshire,G72 0DL,55.7854129,-4.10132835,S02002391,S01012753
11th Hamilton Brownie Unit,SC033409,South Lanarkshire,ML3 9DW,55.76627627,-4.09043075,S02002389,S01012744
13th Hamilton Rainbow Unit,SC038756,South Lanarkshire,ML3 9DW,55.76627627,-4.09043075,S02002389,S01012744
185th Glasgow ( Burnside Church ) Scout Group,SC033844,South Lanarkshire,G74 3HZ,55.77450488,-4.14693311,S02002418,S01012909
Rutherglen Repertory Theatre,SC033989,South Lanarkshire,G73 3DG,55.82717314,-4.20918233,S02002408,S01012857
East Kilbride: Stewartfield Church of Scotland,SC034242,South Lanarkshire,G74 4TN,55.77240576,-4.200055,S02002425,S01012944
Carnwath In Bloom,SC034314,South Lanarkshire,ML11 8JZ,55.70023738,-3.62828958,S02002356,S01012584
20th D East Kilbride Brownie Pack,SC035113,South Lanarkshire,G74 2ES,55.76053618,-4.16141895,S02002421,S01012926
23rd East Kilbride Guide Company,SC035219,South Lanarkshire,G74 4EQ,55.76919656,-4.1738395,S02002422,S01012931
17th East Kilbride Brownie Unit,SC037268,South Lanarkshire,G74 4EH,55.76875777,-4.17324114,S02002422,S01012931
East Renfrewshire Group of the RoSPA Advanced Drivers and Riders Association,SC039483,South Lanarkshire,G74 4EN,55.76898844,-4.17290324,S02002422,S01012931
Community Transport (Lanarkshire) Limited,SC035608,South Lanarkshire,ML11 9PP,55.60805942,-3.7878598,S02002368,S01012640
Glenbuck Football Academy ,SC044281,South Lanarkshire,ML11 9NH,55.59585896,-3.77648073,S02002368,S01012640
Loudon Pond Volunteer Group,SC050037,South Lanarkshire,ML11 9NR,55.59817516,-3.78036295,S02002368,S01012640
5th Hamilton Guides,SC035851,South Lanarkshire,ML3 8UX,55.76692511,-4.0860975,S02002389,S01012746
138th Scout Group Cambuslang,SC035886,South Lanarkshire,G72 8SR,55.80735523,-4.16782793,S02002405,S01012840
Milan Centre Lunch And Social Club,SC035949,South Lanarkshire,ML3 7NB,55.76716938,-4.03618167,S02002383,S01012712
Hamilton District Youth Theatre,SC046243,South Lanarkshire,ML3 7NG,55.76773796,-4.03440991,S02002383,S01012712
2nd Bothwell Scout Group,SC036160,South Lanarkshire,ML3 7LY,55.76821838,-4.03687405,S02002383,S01012713
13th A Hamilton Brownie Unit,SC036680,South Lanarkshire,ML9 2JG,55.73822929,-3.96286372,S02002374,S01012670
The MachanTrust (SCIO),SC049358,South Lanarkshire,ML9 2HD,55.73639901,-3.97052907,S02002374,S01012670
217th Gilbertfield Company Boys Brigade,SC036731,South Lanarkshire,G72 9HW,55.7980288,-4.10302911,S02002392,S01012764
South Lanarkshire Access Panel,SC036965,South Lanarkshire,ML3 0NU,55.78189527,-4.06976993,S02002396,S01012786
St Andrew's Methodist Church East Kilbride,SC038424,South Lanarkshire,G74 3ZB,55.76852876,-4.15153069,S02002420,S01012922
Regen: FX Youth Trust,SC038525,South Lanarkshire,ML9 2UH,55.7478025,-3.97674448,S02002372,S01012658
Drumsagard Trust,SC038812,South Lanarkshire,G72 7PA,55.80713931,-4.12823958,S02002402,S01012815
1st East Kilbride Scout Group,SC038881,South Lanarkshire,G75 8TR,55.75541599,-4.21624653,S02002428,S01012962
17th Hamilton Rainbow Unit,SC038896,South Lanarkshire,ML3 0PT,55.79010277,-4.06589859,S02002398,S01012797
17th Hamilton Guide Unit,SC038897,South Lanarkshire,ML3 0PT,55.79010277,-4.06589859,S02002398,S01012797
17th Hamilton Brownie Unit,SC038899,South Lanarkshire,ML3 0PT,55.79010277,-4.06589859,S02002398,S01012797
Hamilton District 3 Senior Section Unit,SC038898,South Lanarkshire,G72 0GS,55.77280235,-4.10141482,S02002416,S01012897
11th Hamilton Guide Unit,SC038900,South Lanarkshire,G72 0GS,55.77280235,-4.10141482,S02002416,S01012897
13th Hamilton Guide Unit,SC038983,South Lanarkshire,ML3 7YG,55.75517562,-4.03810632,S02002381,S01012707
10th Hamilton Guide Unit,SC039314,South Lanarkshire,ML3 6UH,55.76911872,-4.04812843,S02002385,S01012723
Rutherglen Old People's Welfare Committee,SC039631,South Lanarkshire,G75 9DY,55.74867686,-4.19363559,S02002431,S01012979
High Flyers Community Childcare,SC039706,South Lanarkshire,G72 7JQ,55.8190622,-4.16445642,S02002403,S01012825
1st Strathaven Rangers Unit,SC040265,South Lanarkshire,ML10 6XQ,55.67415958,-4.08603841,S02002379,S01012697
Strathaven Dynamo AFC,SC041035,South Lanarkshire,ML10 6XL,55.67467659,-4.08417336,S02002379,S01012697
1st Strathaven Brownie Unit,SC048746,South Lanarkshire,ML10 6XQ,55.67415958,-4.08603841,S02002379,S01012697
2nd Larkhall Scout Group,SC040410,South Lanarkshire,ML9 1NY,55.72395975,-3.96499785,S02002375,S01012671
2nd Blantyre Brownie Unit,SC041052,South Lanarkshire,G72 9NF,55.80364901,-4.10441727,S02002393,S01012767
Hamilton Bowling Club,SC041155,South Lanarkshire,ML3 9BU,55.77610112,-4.06267003,S02002397,S01012791
CANAPE Choosing a New and Positive Employment SCIO,SC041536,South Lanarkshire,ML3 0PG,55.78774201,-4.06358845,S02002398,S01012796
Coalburn Brass Band Family,SC041761,South Lanarkshire,ML11 9SR,55.67404891,-3.92281575,S02002370,S01012652
1st Carluke Scout Group,SC042180,South Lanarkshire,ML8 4JE,55.72855898,-3.82960985,S02002362,S01012613
21st Century Families,SC042725,South Lanarkshire,G74 3QT,55.77854428,-4.15029677,S02002417,S01012904
Chill Out Club,SC042843,South Lanarkshire,G74 3RX,55.77477615,-4.13859287,S02002417,S01012901
Childcare in the Community,SC043033,South Lanarkshire,ML3 0LH,55.78677796,-4.06159161,S02002398,S01012795
Burnside Primary School Parent Council,SC043047,South Lanarkshire,G73 4JE,55.81624026,-4.20591283,S02002414,S01012888
Hamilton Gymnastics Club,SC043190,South Lanarkshire,G71 7QA,55.82168856,-4.08794279,S02002401,S01012811
John Ogilvie High School PTA,SC043260,South Lanarkshire,G72 0EL,55.78515524,-4.09589181,S02002391,S01012754
Blantyre Soccer Academy SCIO,SC043613,South Lanarkshire,G72 9PL,55.79512598,-4.0977676,S02002392,S01012761
Archways,SC043614,South Lanarkshire,G72 8XJ,55.80767976,-4.13749302,S02002404,S01012830
Hamilton District Food Bank,SC043982,South Lanarkshire,ML3 6EE,55.77618408,-4.03451524,S02002384,S01012720
Stonehouse Senior Citizens Pavillion,SC044022,South Lanarkshire,ML9 3NY,55.68949759,-3.99764898,S02002376,S01012678
The Hope Cafe Lanarkshire,SC044352,South Lanarkshire,ML9 3NY,55.68949759,-3.99764898,S02002376,S01012678
"St Ninian's Church, Stonehouse",SC044497,South Lanarkshire,ML9 3QS,55.69129567,-3.99705656,S02002376,S01012678
The Acting Bairns of Stonehouse,SC044116,South Lanarkshire,ML9 3HR,55.68977914,-3.98916753,S02002376,S01012677
Ebenezer Hall Burnbank,SC044277,South Lanarkshire,ML3 0QJ,55.78367587,-4.07503163,S02002395,S01012775
Open Space Ministries Grace Community Church ,SC044349,South Lanarkshire,ML11 0DU,55.64256636,-3.88583709,S02002369,S01012646
8th Clyde (St Vincent de Paul) Scout Group,SC044494,South Lanarkshire,G75 9NG,55.73983435,-4.19709014,S02002429,S01012965
Newlands Junior College Limited,SC045144,South Lanarkshire,G74 5PA,55.76818619,-4.2277326,S02002425,S01012945
Deaf Equality & Accessibility Forum ,SC045566,South Lanarkshire,G74 5BA,55.76859096,-4.20879981,S02002425,S01012945
East Kilbride Boxing Academy,SC051252,South Lanarkshire,G74 5BA,55.76859096,-4.20879981,S02002425,S01012945
East Kilbride United Community Sports Club,SC045247,South Lanarkshire,G74 3DE,55.77042239,-4.15885732,S02002419,S01012913
East Kilbride United,SC049010,South Lanarkshire,G74 3DE,55.77042239,-4.15885732,S02002419,S01012913
Thornton Road Community Centre Association  ,SC045713,South Lanarkshire,ML11 9QE,55.66629996,-3.91951001,S02002370,S01012651
Camglen Buddies Leisure and Social Club ,SC045841,South Lanarkshire,G72 7FZ,55.81044136,-4.12594613,S02002402,S01012814
Hope Hub SCIO,SC046076,South Lanarkshire,ML11 9AT,55.66966504,-3.92040628,S02002370,S01012649
Hope Church (Blackwood & Kirkmuirhill),SC045956,South Lanarkshire,ML11 9SB,55.66755524,-3.91682071,S02002370,S01012649
Swap and Save One-Stop Shop,SC046246,South Lanarkshire,G75 0LP,55.75283315,-4.17622765,S02002435,S01013000
Friends of Douglas Park (SCIO),SC046569,South Lanarkshire,G72 8DF,55.81389292,-4.16964399,S02002406,S01012843
Cambuslang Baptist Church SCIO,SC049709,South Lanarkshire,G72 8ND,55.81595268,-4.16904037,S02002406,S01012843
Hamilton Model Flying Club,SC046658,South Lanarkshire,G71 7PD,55.81931009,-4.08139825,S02002401,S01012810
Hamilton and District Men's Shed,SC046855,South Lanarkshire,ML3 7ND,55.76920239,-4.03498042,S02002383,S01012714
23rd East Kilbride Brownie Unit,SC046902,South Lanarkshire,G75 8NQ,55.74854086,-4.22219849,S02002428,S01012958
17th Hamilton Senior Section Unit,SC046908,South Lanarkshire,ML3 8TZ,55.75601332,-4.06970519,S02002388,S01012733
Kirklandpark After School Club,SC047078,South Lanarkshire,ML10 6HZ,55.67347953,-4.07844806,S02002377,S01012687
Wooddean Community Project Organisation ,SC047195,South Lanarkshire,G71 8SB,55.79755022,-4.0660697,S02002399,S01012799
"Douglasdale Recreation, Environment, Access and Leisure Group",SC047566,South Lanarkshire,ML11 0PE,55.55119817,-3.84551845,S02002368,S01012637
Biggar Rugby Football Club ,SC047700,South Lanarkshire,ML11 9DB,55.66246769,-3.78029268,S02002366,S01012627
New Lanark Hotels Limited,SC050734,South Lanarkshire,ML11 9DB,55.66246769,-3.78029268,S02002366,S01012627
New Lanark Trading Limited,SC050735,South Lanarkshire,ML11 9DB,55.66246769,-3.78029268,S02002366,S01012627
The Friends of Sanderson,SC047822,South Lanarkshire,G74 4FT,55.77575425,-4.16994727,S02002416,S01012900
1st East Mains Rainbow Unit,SC047832,South Lanarkshire,G74 1AL,55.76433314,-4.17796841,S02002423,S01012936
Blacklaw Out of School Care,SC048516,South Lanarkshire,G74 2BP,55.76161202,-4.15696758,S02002421,S01012927
East Kilbride Tennis Club,SC049071,South Lanarkshire,G74 2BD,55.76153997,-4.15390319,S02002421,S01012929
East Kilbride Vineyard Church,SC049657,South Lanarkshire,G75 9FU,55.74266803,-4.22043064,S02002416,S01012894
Carluke Men's Shed,SC049768,South Lanarkshire,ML8 5SL,55.7465488,-3.88264655,S02002358,S01012593
Strathaven Evangelical Church (SCIO),SC049920,South Lanarkshire,ML10 6AD,55.67713346,-4.06857409,S02002377,S01012689
3rd Strathaven Rainbows,SC050997,South Lanarkshire,ML10 6AR,55.67964854,-4.08035004,S02002377,S01012689
Waist Not Want Not,SC050053,South Lanarkshire,G75 8TT,55.74517833,-4.20631312,S02002431,S01012976
Biggar Arts Ltd,SC050058,South Lanarkshire,ML12 6LX,55.63839928,-3.52931663,S02002355,S01012577
Westwoodhill Evangelical Church SCIO,SC050059,South Lanarkshire,G75 9RT,55.75435057,-4.19197802,S02002432,S01012981
Fountain Church,SC050113,South Lanarkshire,ML3 8QA,55.7658144,-4.07792416,S02002389,S01012743
Glassford Community Group,SC050214,South Lanarkshire,ML10 6TE,55.70040009,-4.03152956,S02002380,S01012699
My Support Day,SC050458,South Lanarkshire,G74 3JN,55.77403088,-4.15757403,S02002418,S01012908
Friends of Healthy Valleys,SC050589,South Lanarkshire,ML8 5BS,55.7380608,-3.84324364,S02002359,S01012601
18th B East Kilbride Guide Unit,SC050758,South Lanarkshire,G75 8EG,55.75725849,-4.19974363,S02002432,S01012985
Champions Of Autism Spectrum Together (COAST),SC050788,South Lanarkshire,ML3 8LU,55.76570609,-4.06355559,S02002388,S01012736
