Name,Charity Number,Local authority,Postcode,Latitude,Longitude,IntermediateZone2011Code,DataZone2011Code
Melness Community Centre,SC000035,Highland,IV27 4YP,58.5219561,-4.42566575,S02002033,S01010812
Durness Parish Hall Trustees,SC021539,Highland,IV27 4PN,58.56822393,-4.75042727,S02002033,S01010812
Durness Community Group,SC032179,Highland,IV27 4QA,58.5635271,-4.72458978,S02002033,S01010812
Marty Mackay Memorial Fund,SC044264,Highland,IV27 4PN,58.56822393,-4.75042727,S02002033,S01010812
Durness Active Health,SC044267,Highland,IV27 4QA,58.5635271,-4.72458978,S02002033,S01010812
Alvie and Insh Church of Scotland,SC000043,Highland,PH22 1QJ,57.20210722,-3.82921245,S02001983,S01010538
Rothiemurchus & Aviemore Church Of Scotland,SC003282,Highland,PH22 1SH,57.20515208,-3.82495929,S02001983,S01010538
Aviemore Tiny Tots,SC034881,Highland,PH22 1TS,57.20450731,-3.82295737,S02001983,S01010538
1st Aviemore and  Rothiemurchus Rainbow Unit,SC044800,Highland,PH22 1QQ,57.20303145,-3.82867876,S02001983,S01010538
1st Aviemore and Rothiemurchus Guide Unit,SC045805,Highland,PH22 1US,57.19353224,-3.83252877,S02001983,S01010538
Bonar Bridge Community Hall,SC000057,Highland,IV24 3EN,57.89379102,-4.34488238,S02002024,S01010763
Culrain & District Hall Committee,SC000517,Highland,IV24 3EL,57.89397663,-4.34553567,S02002024,S01010763
"Kinlochbervie,Lairg,Rogart Congregation of the Associated Presbyterian Churches of Scotland",SC022824,Highland,IV24 3AR,57.8984332,-4.30927346,S02002024,S01010763
River Naver Foundation,SC030277,Highland,IV24 3EA,57.89397177,-4.34725647,S02002024,S01010763
Bonar Bridge O.A.P Fund,SC033569,Highland,IV24 3AP,57.89254121,-4.33371544,S02002024,S01010763
North Highlands Refuge,SC048791,Highland,IV24 3AR,57.8984332,-4.30927346,S02002024,S01010763
Bonar Bridge Football Club,SC050022,Highland,IV24 3AW,57.91063628,-4.37111702,S02002024,S01010763
Rosemarkie Parent & Toddler Group,SC000093,Highland,IV10 8XB,57.58711093,-4.11430011,S02002018,S01010719
Knockbain Parish Church Of Scotland,SC014467,Highland,IV10 8UP,57.59229253,-4.1166088,S02002018,S01010719
Gordon Memorial Hall,SC021298,Highland,IV10 8UL,57.58930752,-4.112972,S02002018,S01010719
Black Isle Swimming Pool Foundation,SC024448,Highland,IV10 8UL,57.58930752,-4.112972,S02002018,S01010719
Royal British Legion Scotland Black Isle Branch,SC029753,Highland,IV10 8UF,57.59060553,-4.11540647,S02002018,S01010719
Rosemarkie and Fortrose Trust ,SC049686,Highland,IV10 8UF,57.59060553,-4.11540647,S02002018,S01010719
The Laurandy Centre,SC000156,Highland,KW1 4QS,58.45033785,-3.08988893,S02002029,S01010788
Ackergill Village Hall,SC009973,Highland,KW1 4RL,58.47401858,-3.09988089,S02002029,S01010788
Reiss and Killimster Village Hall SCIO,SC043939,Highland,KW1 4RT,58.47480148,-3.14688639,S02002029,S01010788
Dornoch Cathedral (Church of Scotland),SC000315,Highland,IV25 3NH,57.89833275,-4.10848817,S02002024,S01010761
Carnegie Hall Trust,SC016552,Highland,IV24 3AB,57.87187075,-4.2970311,S02002024,S01010761
Spinningdale Ladies Committee,SC042027,Highland,IV24 3AD,57.87802134,-4.2348682,S02002024,S01010761
The Dornoch Trust,SC051210,Highland,IV25 3RW,57.87093561,-4.0748813,S02002024,S01010761
Dingwall Primary School Parents Association,SC000356,Highland,IV15 9UT,57.6089293,-4.42287966,S02002017,S01010718
Friends Of Urray House,SC012527,Highland,IV15 9UB,57.60701462,-4.42993399,S02002017,S01010718
Kingussie & Alvie Free Church,SC015150,Highland,IV15 9PB,57.60762851,-4.42791583,S02002017,S01010718
Dingwall & District Choral Society,SC022971,Highland,IV15 9UB,57.60701462,-4.42993399,S02002017,S01010718
 Ross Skye and Lochalsh District Scout Council,SC038366,Highland,IV15 9PE,57.60621809,-4.42040574,S02002017,S01010718
Rionnagan Rois,SC045872,Highland,IV15 9RB,57.60798155,-4.42216365,S02002017,S01010718
Dingwall Men's Shed,SC047255,Highland,IV15 9RB,57.60798155,-4.42216365,S02002017,S01010718
Tain & Easter Ross Civic Trust,SC000364,Highland,IV20 1UX,57.7500155,-3.920282,S02002022,S01010751
Seaboard Mother & Toddler Group,SC022905,Highland,IV20 1UP,57.75488971,-3.9158179,S02002022,S01010751
Balintore & District Residents Group,SC044952,Highland,IV20 1UU,57.75032447,-3.91945816,S02002022,S01010751
Portree Church of Scotland,SC000416,Highland,IV51 9NH,57.33251903,-6.1099803,S02002009,S01010677
Braes Village Hall,SC034804,Highland,IV51 9NJ,57.34039903,-6.1162171,S02002009,S01010677
Raasay Community Association (Comann Muinntir Ratharsair),SC036239,Highland,IV40 8PA,57.34816328,-6.06833245,S02002009,S01010677
Collie and Mackenzie Heritage Group,SC038527,Highland,IV48 8TD,57.31114979,-6.11282626,S02002009,S01010677
Raasay DevelopmentTrust Limited,SC045185,Highland,IV40 8PA,57.34816328,-6.06833245,S02002009,S01010677
Ardersier War Memorial Hall Association,SC000437,Highland,IV2 7RS,57.56591926,-4.03811435,S02001988,S01010570
Ardersier And District Senior Citizens Social Club,SC025733,Highland,IV2 7SB,57.56445347,-4.03707941,S02001988,S01010570
Ardersier Boat Club,SC042773,Highland,IV2 7SD,57.5635434,-4.03779764,S02001988,S01010570
Please Love Ardersier's Youth,SC043596,Highland,IV2 7SL,57.56540717,-4.03532696,S02001988,S01010570
Inverness Spiritualist Church,SC046093,Highland,IV2 7RT,57.56578157,-4.03773881,S02001988,S01010570
Petty and Ardersier Community Heritage,SC046614,Highland,IV2 7SU,57.56817416,-4.03534767,S02001988,S01010570
2nd Cawdor Rainbow Unit,SC048500,Highland,IV2 7RD,57.56689585,-4.03326985,S02001988,S01010570
Laidhay Preservation Trust,SC000441,Highland,KW3 6DA,58.31729584,-3.29874289,S02002026,S01010774
Lybster Day Care Association,SC001114,Highland,KW3 6AF,58.3016386,-3.28639554,S02002026,S01010774
Latheron Hall Committee,SC024166,Highland,KW3 6BX,58.2957918,-3.32415936,S02002026,S01010774
Lybster Heritage Trust,SC027408,Highland,KW3 6AH,58.29953595,-3.28647278,S02002026,S01010774
Lybster Community Association,SC030843,Highland,KW3 6AN,58.29807345,-3.28273446,S02002026,S01010774
1st Lybster Rainbow Unit,SC044331,Highland,KW3 6AQ,58.30017002,-3.28415826,S02002026,S01010774
1st Lybster Guide Unit,SC047100,Highland,KW3 6DA,58.31729584,-3.29874289,S02002026,S01010774
Lybster Community Hall,SC049494,Highland,KW3 6AN,58.29807345,-3.28273446,S02002026,S01010774
James Paton Charitable Trust,SC000496,Highland,IV2 4AY,57.47000014,-4.21781242,S02001999,S01010626
"Inshes Church of Scotland, Inverness",SC005553,Highland,IV2 4AL,57.47008404,-4.22070263,S02001999,S01010626
Inverness YMCA,SC008143,Highland,IV2 4AL,57.47008404,-4.22070263,S02001999,S01010626
Aultnaskiach Dell SCIO,SC043574,Highland,IV2 4NA,57.46521781,-4.21997381,S02001999,S01010626
Spokes for Folks,SC050236,Highland,IV2 4AG,57.47236031,-4.22359267,S02001999,S01010626
Dornoch Pipe Band,SC000557,Highland,IV25 3SZ,57.88031145,-4.03573611,S02002024,S01010760
Creich Parish Church Of Scotland,SC003840,Highland,IV25 3TF,57.8793175,-4.03832778,S02002024,S01010760
Dornoch Heritage SCIO,SC008747,Highland,IV25 3SF,57.87939953,-4.03433534,S02002024,S01010760
East Sutherland Rescue Assoc,SC016041,Highland,IV25 3SL,57.88078241,-4.03213655,S02002024,S01010760
Dornoch Allsorts After School Club,SC034176,Highland,IV25 3TD,57.8809602,-4.03897733,S02002024,S01010760
Dornoch Beach Wheelchairs,SC050093,Highland,IV25 3HR,57.88280312,-4.04560917,S02002024,S01010760
Strathpeffer Community Development Trust Limited,SC000688,Highland,IV14 9AG,57.58595778,-4.54370826,S02002013,S01010696
Fodderty & Strathpeffer Parish Church of Scotland,SC003499,Highland,IV14 9BD,57.5871268,-4.54188243,S02002013,S01010696
"Community Support and Information, Ross-Shire",SC006582,Highland,IV14 9AG,57.58595778,-4.54370826,S02002013,S01010696
Strathpeffer Under 5's Group,SC015526,Highland,IV14 9AG,57.58595778,-4.54370826,S02002013,S01010696
Strathpeffer Residents Association ,SC046287,Highland,IV14 9AG,57.58595778,-4.54370826,S02002013,S01010696
Stathpeffer & District Community Rowing Club ,SC048977,Highland,IV14 9DA,57.5837878,-4.54748845,S02002013,S01010696
Strathpeffer Pavilion Community Trust ,SC049405,Highland,IV14 9DW,57.58827287,-4.53851546,S02002013,S01010696
Astley Hall Trust,SC000696,Highland,PH39 4NP,56.91041388,-5.84136053,S02001978,S01010506
Mallaig & District Swimming Pool Association,SC018367,Highland,PH39 4NJ,56.91114964,-5.84199506,S02001978,S01010506
North West Lochaber Church Of Scotland,SC021584,Highland,PH40 4PE,56.97048222,-5.76289891,S02001978,S01010506
Morar & Mallaig Games Field Association,SC023710,Highland,PH40 4PE,56.97048222,-5.76289891,S02001978,S01010506
Knoydart Foundation,SC026246,Highland,PH41 4PL,57.04052258,-5.69779614,S02001978,S01010506
Friends Of The Mackintosh Centre,SC026335,Highland,PH40 4PB,56.96711049,-5.81625465,S02001978,S01010506
Feis Na Mara,SC027661,Highland,PH40 4PB,56.96711049,-5.81625465,S02001978,S01010506
Knoydart Community Hall and Events SCIO,SC027845,Highland,PH41 4PL,57.04052258,-5.69779614,S02001978,S01010506
Knoydart Forest Trust,SC029274,Highland,PH41 4PL,57.04052258,-5.69779614,S02001978,S01010506
Comunn Eachdraidh Arasaig - (Arisaig Historical Society),SC033105,Highland,PH39 4NP,56.91041388,-5.84136053,S02001978,S01010506
Morar Community Trust,SC039820,Highland,PH40 4PA,56.9720403,-5.82322966,S02001978,S01010506
Arisaig Community Trust,SC040977,Highland,PH39 4NU,56.90274473,-5.85271612,S02001978,S01010506
Road to The Isles Facilities Group SCIO ,SC048758,Highland,PH41 4RH,56.99412138,-5.82828076,S02001978,S01010506
Mallaig & District Newspaper SCIO,SC048780,Highland,PH40 4PB,56.96711049,-5.81625465,S02001978,S01010506
Merkinch Community Centre Association,SC000706,Highland,IV3 8AD,57.48799132,-4.23902592,S02002002,S01010644
Corbett Value Inclusion Project,SC030446,Highland,IV3 8AD,57.48799132,-4.23902592,S02002002,S01010644
Halkirk Youth Club,SC000762,Highland,KW12 6XU,58.5138683,-3.49086301,S02002030,S01010795
Halkirk Playgroup/Toddler Group,SC012690,Highland,KW12 6YN,58.5167235,-3.49405722,S02002030,S01010795
1st Halkirk Guides,SC035159,Highland,KW12 6YD,58.51281965,-3.48989156,S02002030,S01010795
Halkirk District Benefit Fund,SC039254,Highland,KW12 6YQ,58.50906202,-3.48859944,S02002030,S01010795
Halkirk Heritage & Vintage Motor Society,SC046910,Highland,KW12 6XU,58.5138683,-3.49086301,S02002030,S01010795
Caithness Dog Training,SC049132,Highland,KW12 6XN,58.51554616,-3.48947497,S02002030,S01010795
Fearn Amenities ,SC000786,Highland,IV20 1TR,57.79186512,-3.9279223,S02002022,S01010749
Inver Hall Committee,SC005320,Highland,IV20 1SF,57.82054474,-3.91653938,S02002022,S01010749
Ross-Shire Health Protection Trust,SC008895,Highland,IV19 1LZ,57.79744544,-4.03419516,S02002022,S01010749
Tain Congregation Of Jehovahs Witnesses,SC015061,Highland,IV20 1SF,57.82054474,-3.91653938,S02002022,S01010749
Royal British Legion Scotland Tain Branch,SC030773,Highland,IV20 1TR,57.79186512,-3.9279223,S02002022,S01010749
Abbeyfield Strathspey Society Ltd,SC000872,Highland,PH21 1JU,57.08195714,-4.05110661,S02001982,S01010534
Badenoch Community Project,SC025693,Highland,PH21 1LW,57.08054897,-4.05040182,S02001982,S01010534
Rotary Club Of Spey Valley Charitable Trust Fund,SC027861,Highland,PH21 1JU,57.08195714,-4.05110661,S02001982,S01010534
1st Kingussie Guides,SC031036,Highland,PH21 1LH,57.08263731,-4.04962599,S02001982,S01010534
2nd Kingussie Brownies,SC036418,Highland,PH21 1PB,57.08365104,-4.04367509,S02001982,S01010534
Cairngorms RDA SCIO,SC043835,Highland,PH21 1JU,57.08195714,-4.05110661,S02001982,S01010534
Badenoch and Strathspey Therapy Gardens,SC044544,Highland,PH21 1LA,57.08417494,-4.05010691,S02001982,S01010534
Am fasgadh Regeneration Company (Kingussie) (SCIO),SC045859,Highland,PH21 1HS,57.08026629,-4.05230031,S02001982,S01010534
Kingussie Camanachd Club,SC048864,Highland,PH21 1LW,57.08054897,-4.05040182,S02001982,S01010534
1st Kingussie Rainbow Unit,SC049262,Highland,PH21 1LH,57.08263731,-4.04962599,S02001982,S01010534
Lochaber Sensory Care,SC000879,Highland,PH33 7DR,56.83759464,-5.105666,S02001979,S01010514
Lochaber Action On Disability,SC022335,Highland,PH33 7DB,56.83830773,-5.10410153,S02001979,S01010514
Caol Regeneration Company Limited,SC036941,Highland,PH33 7DS,56.83916566,-5.10863341,S02001979,S01010514
Avoch Congregational Church,SC000911,Highland,IV11 8XT,57.67043809,-4.04595603,S02002019,S01010731
Cromarty Parish Church Of Scotland,SC006666,Highland,IV11 8UY,57.68111387,-4.03525271,S02002019,S01010731
Cromarty Courthouse Trust,SC018438,Highland,IV11 8XA,57.68027753,-4.03082815,S02002019,S01010731
Cromarty Primary School Parent Council,SC040438,Highland,IV11 8XR,57.68166227,-4.03355581,S02002019,S01010731
The Middleton Trust,SC043079,Highland,IV11 8XZ,57.68367423,-4.03638597,S02002019,S01010731
Cromarty & Resolis Film Society (CRFS),SC045451,Highland,IV11 8YG,57.68186251,-4.03563016,S02002019,S01010731
Cromarty Care Project,SC045704,Highland,IV11 8XB,57.68046019,-4.0300836,S02002019,S01010731
Friends of Cromarty Harbour,SC049166,Highland,IV11 8YT,57.6791171,-4.03594582,S02002019,S01010731
James Support Group,SC050519,Highland,IV11 8YP,57.67913196,-4.03948557,S02002019,S01010731
Nairn Old Parish Church Of Scotland,SC000947,Highland,IV12 5QA,57.57190342,-3.87334846,S02001985,S01010548
Croy & Dalcross Parish Church (Church of Scotland),SC013601,Highland,IV2 7QR,57.54645128,-3.9855569,S02001985,S01010548
Feis Inbhir Narainn,SC038460,Highland,IV2 7UR,57.55458956,-3.96731301,S02001985,S01010548
Nairn Improvement Community Enterprise,SC042118,Highland,IV12 5NT,57.57683447,-3.91359001,S02001985,S01010548
Nairn Men's Shed,SC046885,Highland,IV12 5NT,57.57683447,-3.91359001,S02001985,S01010548
Isle Of Skye Pipe Band,SC000953,Highland,IV51 9ES,57.41071332,-6.20126579,S02002009,S01010680
Colonel Jock Macdonald Memorial Trust,SC006019,Highland,IV51 9HD,57.41484113,-6.20610565,S02002009,S01010680
Skye & Lochalsh Friends Of Arms,SC008293,Highland,IV51 9BD,57.41990188,-6.21020387,S02002009,S01010680
Skye & Lochalsh Young Music Makers,SC015469,Highland,IV51 9EE,57.41331596,-6.20223091,S02002009,S01010680
Portree District Gaelic Choir,SC016619,Highland,IV51 9HQ,57.41657735,-6.20823836,S02002009,S01010680
Skye And Lochalsh Mental Health Association,SC021154,Highland,IV51 9HQ,57.41657735,-6.20823836,S02002009,S01010680
Skye and Lochalsh Community Care Forum SCIO,SC027909,Highland,IV51 9GF,57.41335122,-6.20790101,S02002009,S01010680
Cleas Ltd,SC031936,Highland,IV51 9EU,57.40620046,-6.20068162,S02002009,S01010680
1st Isle Of Skye Rainbow Unit,SC033026,Highland,IV51 9HQ,57.41657735,-6.20823836,S02002009,S01010680
Viewfield Garden Collective SCIO,SC038323,Highland,IV51 9EU,57.40620046,-6.20068162,S02002009,S01010680
Lucky2BHere,SC041103,Highland,IV51 9EU,57.40620046,-6.20068162,S02002009,S01010680
Skye Sailing Club,SC044451,Highland,IV51 9EU,57.40620046,-6.20068162,S02002009,S01010680
Dingwall St Clements Parish Church Of Scotland,SC001056,Highland,IV15 9LQ,57.60006867,-4.42665843,S02002017,S01010714
Dingwall Castle Street Church Of Scotland,SC001167,Highland,IV15 9JY,57.59598115,-4.42754077,S02002017,S01010714
Dingwall Museum Trust,SC005010,Highland,IV15 9LQ,57.60006867,-4.42665843,S02002017,S01010714
Highland Members Centre Of The National Trust For Scotland,SC006203,Highland,IV15 9LQ,57.60006867,-4.42665843,S02002017,S01010714
Highland Community Care Forum,SC020501,Highland,IV15 9TF,57.59543149,-4.43229048,S02002017,S01010714
1st Ross-Shire Scout Group,SC026581,Highland,IV15 9PG,57.59662334,-4.4338596,S02002017,S01010714
Ceuman Beaga (Inbhir Pheofharain),SC034916,Highland,IV15 9SB,57.59598944,-4.428512,S02002017,S01010714
Dingwall Royal British Legion Juvenile Novice Pipe Band,SC040824,Highland,IV15 9LQ,57.60006867,-4.42665843,S02002017,S01010714
Lochluichart Community Trust,SC044939,Highland,IV15 9SB,57.59598944,-4.428512,S02002017,S01010714
Polish Wolves,SC049471,Highland,IV15 9PS,57.59806584,-4.43501045,S02002017,S01010714
Relationships Scotland - Counselling Highland Limited,SC001163,Highland,IV2 4SA,57.4747289,-4.22532115,S02001999,S01010627
Inverness Baptist Church,SC002888,Highland,IV2 3EA,57.47558557,-4.22463936,S02001999,S01010627
Highland Childrens Trust Scheme 1983,SC006008,Highland,IV2 3EA,57.47558557,-4.22463936,S02001999,S01010627
Highland Group RDA SCIO,SC007357,Highland,IV2 4QN,57.46665956,-4.2263646,S02001999,S01010627
"Ness Bank Church of Scotland, Inverness",SC010870,Highland,IV2 4SF,57.47248777,-4.22756982,S02001999,S01010627
Sradagan Inbhir Pheofharain,SC024355,Highland,IV2 3HQ,57.47459364,-4.22331143,S02001999,S01010627
The Liam Colgan Music Fund,SC050393,Highland,IV2 4TA,57.46919409,-4.22480111,S02001999,S01010627
Royal British Legion Scotland Inverness Branch,SC001188,Highland,IV3 5DF,57.47720897,-4.2298923,S02002001,S01010640
Birchwood Highland,SC003198,Highland,IV3 5DT,57.47520609,-4.23288928,S02002001,S01010640
Cameron Highlanders War Memorial Fund,SC013977,Highland,IV3 5DN,57.47578609,-4.23362522,S02002001,S01010640
Glenurquhart Free Church Of Scotland,SC014814,Highland,IV3 5NQ,57.47529849,-4.22817463,S02002001,S01010640
St Andrews Cathedral Inverness,SC015830,Highland,IV3 5NR,57.47560687,-4.23004484,S02002001,S01010640
Queenâ€™s Own Cameron Highlanders War Memorial Youth Club,SC024365,Highland,IV3 5DN,57.47578609,-4.23362522,S02002001,S01010640
Communities Housing Trust,SC027544,Highland,IV3 5NQ,57.47529849,-4.22817463,S02002001,S01010640
Spirit Advocacy,SC042513,Highland,IV3 5PR,57.47772677,-4.22957358,S02002001,S01010640
High Life Highland,SC042593,Highland,IV3 5NS,57.47479679,-4.23164671,S02002001,S01010640
City of Inverness Pipe Band,SC047623,Highland,IV3 5DL,57.47691555,-4.23377759,S02002001,S01010640
Samaritans of Inverness SCIO,SC047836,Highland,IV3 5DT,57.47520609,-4.23288928,S02002001,S01010640
East Inverness Sports Hub,SC049468,Highland,IV3 5DA,57.47620133,-4.22996432,S02002001,S01010640
Highland Migrant and Refugee Action,SC050899,Highland,IV3 5DT,57.47520609,-4.23288928,S02002001,S01010640
Nairn Bonus Club,SC001283,Highland,IV12 4AG,57.58392547,-3.86965082,S02001986,S01010555
Nairn United Reformed Church,SC009963,Highland,IV12 4NB,57.58671503,-3.86996127,S02001986,S01010555
Nairn Citizens Advice Bureau Limited,SC023356,Highland,IV12 4BJ,57.58375026,-3.87056184,S02001986,S01010555
The Pentecostal Church Of God Nairn,SC038077,Highland,IV12 4NB,57.58671503,-3.86996127,S02001986,S01010555
Strath and Sleat Church of Scotland,SC001285,Highland,IV41 8PN,57.27171951,-5.72726132,S02002008,S01010674
Kyleakin Connections Limited,SC001460,Highland,IV41 8PH,57.27223972,-5.73335522,S02002008,S01010674
Strath Gaelic Choir,SC005981,Highland,IV41 8PR,57.2700432,-5.74461705,S02002008,S01010674
Elgol Village Hall Association,SC026922,Highland,IV49 9BJ,57.14749874,-6.10312489,S02002008,S01010674
Kyleakin Community Hall Committee,SC026949,Highland,IV41 8PN,57.27171951,-5.72726132,S02002008,S01010674
Eilean Ban Trust,SC029021,Highland,IV41 8PL,57.27287314,-5.72807512,S02002008,S01010674
CounsellingCare: Skye and Lochalsh (SCIO),SC033321,Highland,IV49 9BD,57.24064271,-5.91142942,S02002008,S01010674
16th Isle of Skye Brownie Unit,SC043887,Highland,IV49 9AS,57.21683402,-5.94183784,S02002008,S01010674
4th Isle of Skye Rainbow Unit,SC047311,Highland,IV49 9AJ,57.28066275,-6.00895279,S02002008,S01010674
Pulteneytown & Thrumster Church of Scotland,SC001291,Highland,KW1 5SR,58.44158413,-3.11246982,S02002026,S01010775
Wick St Fergus Church of Scotland,SC013840,Highland,KW1 5SB,58.42962978,-3.11550037,S02002026,S01010775
Bilbster & Thuster Hall Committee,SC039734,Highland,KW1 5SG,58.43129003,-3.16413722,S02002026,S01010775
North Apex Gymnastics Club,SC049379,Highland,KW1 5SD,58.42757499,-3.1498192,S02002026,S01010775
Scottish Community Drama Assoc Highland Division,SC001314,Highland,KW14 7HS,58.59189305,-3.52878088,S02002032,S01010805
Thurso Youth Club,SC005849,Highland,KW14 7DZ,58.59042161,-3.53917683,S02002032,S01010805
Playden Nursery (SCIO),SC017968,Highland,KW14 7DG,58.59210244,-3.52627808,S02002032,S01010805
Rionnagan Beaga Inbhir Theorsa,SC030325,Highland,KW14 7NJ,58.59039007,-3.53354967,S02002032,S01010805
Thurso Youth Club SCIO,SC049685,Highland,KW14 7DZ,58.59042161,-3.53917683,S02002032,S01010805
Glenferness Village Hall,SC001334,Highland,IV12 5XB,57.49021676,-3.7048708,S02001985,S01010553
Auldearn Parent Council,SC031260,Highland,IV12 5HZ,57.56092175,-3.79877862,S02001985,S01010553
Fornightly Hall,SC037662,Highland,IV12 5UZ,57.51432676,-3.76394467,S02001985,S01010553
East Nairnshire Community Organisation (SCIO),SC049756,Highland,IV12 5UP,57.47086552,-3.74487374,S02001985,S01010553
Smithton Culloden Youth Club,SC001366,Highland,IV2 7LL,57.48742547,-4.14230278,S02001989,S01010572
Kids Zone,SC033242,Highland,IV2 7LL,57.48742547,-4.14230278,S02001989,S01010572
Meeting Place,SC038122,Highland,IV2 7LL,57.48742547,-4.14230278,S02001989,S01010572
Tain Guildry Trust,SC001382,Highland,IV19 1DW,57.80650959,-4.05099828,S02002023,S01010752
Tain Initiative Group,SC034007,Highland,IV19 1DL,57.80774479,-4.05128724,S02002023,S01010752
Lochbroom Free Presbyterian Church Of Scotland,SC001388,Highland,IV26 2TP,57.96927185,-5.12208573,S02002012,S01010693
Coigach Community Trust,SC024351,Highland,IV26 2YG,58.02143199,-5.34628536,S02002012,S01010693
Assynt Leisure,SC030350,Highland,IV27 4JP,58.14740601,-5.24652529,S02002012,S01010693
Assynt Christian Community Youth Project,SC030498,Highland,IV27 4LR,58.12981093,-5.26046942,S02002012,S01010693
Ullapool Dance Ltd,SC045691,Highland,IV26 2TJ,57.92337415,-5.21240844,S02002012,S01010693
Ullapool Garden of Reflection,SC046750,Highland,IV26 2TH,57.90823771,-5.17851744,S02002012,S01010693
Coigach Community Development Company,SC047971,Highland,IV26 2YG,58.02143199,-5.34628536,S02002012,S01010693
Assynt Mountain Rescue Team,SC049089,Highland,IV26 2TP,57.96927185,-5.12208573,S02002012,S01010693
Killearnan Public Hall,SC001459,Highland,IV6 7SB,57.54237855,-4.320667,S02002019,S01010729
Ferintosh Public Hall,SC005925,Highland,IV7 8HY,57.56533884,-4.38515084,S02002019,S01010729
Tore Toddler Group,SC038075,Highland,IV6 7SF,57.53895728,-4.37702659,S02002019,S01010729
Friends of Alcaig Telephone Box (SCIO),SC050920,Highland,IV7 8HS,57.58200666,-4.40461057,S02002019,S01010729
Voluntary Groups Sutherland,SC001528,Highland,KW10 6TG,57.97312792,-3.97659126,S02002025,S01010766
Golspie (St Andrews) Church Of Scotland,SC004560,Highland,KW10 6SX,57.97326188,-3.98873942,S02002025,S01010766
Golspie Youth Action Project,SC022176,Highland,KW10 6TL,57.97400879,-3.97829691,S02002025,S01010766
Golspie Heritage Society,SC030553,Highland,KW10 6SR,57.97227713,-3.98564128,S02002025,S01010766
Caithness And Sutherland Women's Aid,SC034356,Highland,KW10 6TG,57.97312792,-3.97659126,S02002025,S01010766
East and Central Sutherland Citizens Advice Bureau Ltd,SC039847,Highland,KW10 6SN,57.97220577,-3.98215415,S02002025,S01010766
Kilbraur Windfarm Community Benefit Trust,SC040268,Highland,KW10 6TG,57.97312792,-3.97659126,S02002025,S01010766
Beinn Tharsuinn Windfarm Community Limited,SC041233,Highland,KW10 6TA,57.96686787,-4.00628885,S02002025,S01010766
The Embo Trust (Urras Euraboil),SC041360,Highland,KW10 6UB,57.97014227,-3.99059549,S02002025,S01010766
Sutherland Care Forum (SCIO),SC042741,Highland,KW10 6TG,57.97312792,-3.97659126,S02002025,S01010766
Silver Rock Foundation (SCIO),SC044557,Highland,KW10 6TY,57.97135794,-3.98006142,S02002025,S01010766
Go Golspie,SC046438,Highland,KW10 6TG,57.97312792,-3.97659126,S02002025,S01010766
Munlochy Hall Trust,SC001584,Highland,IV8 8PP,57.55140228,-4.27114747,S02002018,S01010724
Munlochy Playgroup/Mother & Toddler Group,SC004191,Highland,IV8 8PL,57.55131746,-4.26886903,S02002018,S01010724
East Church Of Scotland Inverness,SC016866,Highland,IV8 8NU,57.54809578,-4.26213391,S02002018,S01010724
Cawdor Parish Church (Church of Scotland),SC001695,Highland,IV12 5QY,57.53796852,-3.90102673,S02001985,S01010552
Cawdor Heritage Group,SC019919,Highland,IV12 5XU,57.49752052,-3.96489163,S02001985,S01010552
1st Cawdor Brownie Unit,SC040897,Highland,IV12 5XY,57.49431769,-4.01132643,S02001985,S01010552
Stay Safe Highland,SC044253,Highland,IV12 5XP,57.52444525,-3.93188668,S02001985,S01010552
1st Cawdor Guide Unit,SC045765,Highland,IV12 5XY,57.49431769,-4.01132643,S02001985,S01010552
Cawdor and West Nairnshire Community Benefit Organisation (SCIO),SC048704,Highland,IV12 5XP,57.52444525,-3.93188668,S02001985,S01010552
Scoraig Community Centre Group,SC001711,Highland,IV23 2RE,57.91003932,-5.35470679,S02002012,S01010691
Lochbroom & Ullapool Church of Scotland,SC015631,Highland,IV26 2SZ,57.89023193,-5.13346879,S02002012,S01010691
Scoraig Community Association,SC033367,Highland,IV23 2RE,57.91003932,-5.35470679,S02002012,S01010691
Ullapool Toddler Group,SC036432,Highland,IV23 2QW,57.83827416,-5.18464991,S02002012,S01010691
Scorraig Cemetery Trust,SC036480,Highland,IV23 2RE,57.91003932,-5.35470679,S02002012,S01010691
Laide Jetty Users Association,SC040048,Highland,IV22 2NQ,57.87203651,-5.43922718,S02002012,S01010691
Braemore Hall Committee,SC043292,Highland,IV23 2RU,57.77220015,-5.03695514,S02002012,S01010691
Ullapool Befrienders,SC045570,Highland,IV26 2SW,57.89076439,-5.13083171,S02002012,S01010691
Ullapool & District Men's Shed,SC047457,Highland,IV26 2SZ,57.89023193,-5.13346879,S02002012,S01010691
Clachan Lochbroom Heritage Trust,SC047544,Highland,IV23 2RZ,57.80706025,-5.06133763,S02002012,S01010691
Castletown and Community Free Church of Scotland,SC001754,Highland,KW1 4UD,58.54314469,-3.20380204,S02002029,S01010789
Keiss Amenities Association,SC010840,Highland,KW1 4XG,58.52847176,-3.13538116,S02002029,S01010789
Bower Community Association,SC033222,Highland,KW1 4TW,58.55496213,-3.30701345,S02002029,S01010789
Flow Country Rivers Trust,SC044673,Highland,KW1 4XF,58.54216399,-3.11855883,S02002029,S01010789
Lyth Arts Centre Ltd,SC047359,Highland,KW1 4UD,58.54314469,-3.20380204,S02002029,S01010789
North Coast Parish Church of Scotland,SC001815,Highland,KW13 6YT,58.45068828,-3.89231907,S02002033,S01010810
Strathy Village Hall Association,SC017252,Highland,KW14 7RZ,58.55586221,-3.99170341,S02002033,S01010810
Armadale Practice Development Association,SC019642,Highland,KW14 7RY,58.57444198,-4.01405054,S02002033,S01010810
Melvich Village Hall Association,SC029590,Highland,KW14 7YL,58.56445999,-3.93285778,S02002033,S01010810
Halladale Hall and Amenities Association,SC038349,Highland,KW13 6YT,58.45068828,-3.89231907,S02002033,S01010810
Melvich Community SCIO,SC050942,Highland,KW14 7YX,58.56384996,-3.93220521,S02002033,S01010810
Mulbuie Village Hall Committee,SC001988,Highland,IV7 8AW,57.54485176,-4.43220971,S02002016,S01010707
Ross & Cromarty Heritage Society,SC008351,Highland,IV7 8DS,57.57717166,-4.45738329,S02002016,S01010707
Enable Inverness,SC020681,Highland,IV7 8AP,57.54515237,-4.42078177,S02002016,S01010707
North Kessock Community Pier [SCIO],SC042532,Highland,IV7 8HH,57.58223105,-4.47759935,S02002016,S01010707
Pink Panther Playgroup,SC002032,Highland,IV2 4YL,57.45165339,-4.24210418,S02001994,S01010605
27th Inverness Brownie Unit,SC035207,Highland,IV2 4XW,57.45268192,-4.24338402,S02001994,S01010605
27th Inverness (Holm) Guide Unit,SC035391,Highland,IV2 4XW,57.45268192,-4.24338402,S02001994,S01010605
Inverness Vineyard Church SCIO,SC047802,Highland,IV2 4XG,57.4532543,-4.24555278,S02001994,S01010605
Dream Believe Achieve Highland,SC049026,Highland,IV2 4RE,57.45645058,-4.24064752,S02001994,S01010605
Wick High School Parent Council,SC002051,Highland,KW1 5SA,58.43553778,-3.10537673,S02002027,S01010780
Friends of Annie,SC046533,Highland,KW1 5LX,58.43720944,-3.09479265,S02002027,S01010780
Music in Thurso,SC002227,Highland,KW14 8YE,58.64332224,-3.33893313,S02002029,S01010791
Mey & District Senior Citizens Club,SC004503,Highland,KW14 8XH,58.63715142,-3.22917179,S02002029,S01010791
Scallywags Nursery,SC013353,Highland,KW14 8XP,58.64096134,-3.30559204,S02002029,S01010791
Britannia Hall Committee,SC017961,Highland,KW14 8YD,58.6261973,-3.35401784,S02002029,S01010791
Queen Elizabeth Castle Of Mey Trust,SC024983,Highland,KW14 8XH,58.63715142,-3.22917179,S02002029,S01010791
Canisbay And Dunnet Day Care Centre,SC028766,Highland,KW14 8XN,58.65133964,-3.26287911,S02002029,S01010791
Wick Rbls Pipe Band,SC034121,Highland,KW14 8SY,58.6194962,-3.28130626,S02002029,S01010791
Caithness Community Connections,SC048936,Highland,KW14 8SY,58.6194962,-3.28130626,S02002029,S01010791
Northern Pilgrims' Way Group SCIO,SC049930,Highland,KW14 8YD,58.6261973,-3.35401784,S02002029,S01010791
Northern Saints' Trail Group,SC050139,Highland,KW14 8YD,58.6261973,-3.35401784,S02002029,S01010791
Caithness Voluntary Group,SC002484,Highland,KW1 5QB,58.43863624,-3.09178806,S02002027,S01010781
Wick Youth Club,SC015669,Highland,KW1 5AW,58.4388993,-3.08725708,S02002027,S01010781
Wick Society,SC016927,Highland,KW1 5EY,58.43986004,-3.08941074,S02002027,S01010781
Wick Players,SC019008,Highland,KW1 5QJ,58.43714855,-3.09139942,S02002027,S01010781
Wick Baptist Church,SC021252,Highland,KW1 5LF,58.43983551,-3.0965015,S02002027,S01010781
Keiss Baptist Church,SC021347,Highland,KW1 5LF,58.43983551,-3.0965015,S02002027,S01010781
Air Training Corps No 1285 Caithness Squadron Non Public Sports & Welfare Funds,SC024729,Highland,KW1 5LF,58.43983551,-3.0965015,S02002027,S01010781
Hearing and Sight Care,SC027221,Highland,KW1 5EQ,58.44043706,-3.08915451,S02002027,S01010781
Wick Academy Development Fund,SC032787,Highland,KW1 5LF,58.43983551,-3.0965015,S02002027,S01010781
Wick League Of Friends Of Caithness General Hospital,SC034483,Highland,KW1 5LE,58.44081557,-3.10161954,S02002027,S01010781
Science 03,SC040089,Highland,KW1 5LE,58.44081557,-3.10161954,S02002027,S01010781
No Limits Caithness,SC043206,Highland,KW1 5EY,58.43986004,-3.08941074,S02002027,S01010781
Wick Community Hub,SC047287,Highland,KW1 5AW,58.4388993,-3.08725708,S02002027,S01010781
Seafarers Memorial Group,SC048732,Highland,KW1 5QB,58.43863624,-3.09178806,S02002027,S01010781
Brough Bay Association,SC049998,Highland,KW1 5ES,58.44051631,-3.08828335,S02002027,S01010781
Caithness Street Pastors,SC050806,Highland,KW1 5LF,58.43983551,-3.0965015,S02002027,S01010781
Inverness Musical Theatre Company,SC002505,Highland,IV2 7RW,57.48958591,-4.12294065,S02001989,S01010574
Balloch Community Association Trust,SC049031,Highland,IV2 7RW,57.48958591,-4.12294065,S02001989,S01010574
Inverness Unit (No 194) of the Sea Cadet Corps,SC002580,Highland,IV3 8AJ,57.49444394,-4.24300909,S02002002,S01010643
Glencoe Folk Museum,SC002786,Highland,PH49 4HS,56.68263418,-5.10105411,S02001981,S01010525
Church Of Scotland Presbytery Of Lochaber,SC010199,Highland,PA38 4BS,56.64811233,-5.26798319,S02001981,S01010525
St Marys Episcopal Church: Glencoe,SC017038,Highland,PH49 4HS,56.68263418,-5.10105411,S02001981,S01010525
Kentallen & Duror Community SCIO,SC025839,Highland,PA38 4BF,56.67366641,-5.24371217,S02001981,S01010525
Talk Lochaber,SC029132,Highland,PH49 4HT,56.68487686,-5.09798839,S02001981,S01010525
Glencoe Village Hall,SC032288,Highland,PH49 4HU,56.68195566,-5.09436771,S02001981,S01010525
Glencoe & Glenetive Community SCIO,SC035068,Highland,PH49 4HT,56.68487686,-5.09798839,S02001981,S01010525
Lochaber Sports Association,SC040898,Highland,PH49 4HT,56.68487686,-5.09798839,S02001981,S01010525
Glencoe Play Sports,SC042248,Highland,PH49 4HU,56.68195566,-5.09436771,S02001981,S01010525
Watten And District Parish Hall Committee,SC002787,Highland,KW1 5XQ,58.47284559,-3.30896957,S02002029,S01010787
Watten Church Of Scotland,SC003365,Highland,KW1 5XQ,58.47284559,-3.30896957,S02002029,S01010787
Halkirk & Westerdale Church Of Scotland,SC008544,Highland,KW1 5XJ,58.46486957,-3.3185983,S02002029,S01010787
Caithness Agricultural Society,SC010186,Highland,KW1 5UP,58.50862409,-3.33228805,S02002029,S01010787
Bower Busy Bees,SC013192,Highland,KW1 5UR,58.51630243,-3.35388371,S02002029,S01010787
Wick Unit (No 364) of the Sea Cadets Corps,SC039388,Highland,KW1 5UG,58.46843398,-3.27251224,S02002029,S01010787
Watten Hall (SCIO) ,SC048840,Highland,KW1 5YN,58.47270505,-3.2998256,S02002029,S01010787
Caithness Citizens Advice Bureau,SC002849,Highland,KW14 8AD,58.59551022,-3.51992244,S02002031,S01010799
Caithness Mental Health Support Group,SC018142,Highland,KW14 8BU,58.59504195,-3.51621995,S02002031,S01010799
Caithness Heritage Trust,SC019998,Highland,KW14 7AH,58.59285677,-3.5232656,S02002031,S01010799
Caithness Guides Association,SC022672,Highland,KW14 8BY,58.59479372,-3.51746527,S02002031,S01010799
Royal British Legion Scotland Thurso Branch,SC031053,Highland,KW14 8BU,58.59504195,-3.51621995,S02002031,S01010799
1st Thurso Rainbow Guide Unit,SC033486,Highland,KW14 8BY,58.59479372,-3.51746527,S02002031,S01010799
3rd Thurso Brownie Unit,SC034567,Highland,KW14 8BY,58.59479372,-3.51746527,S02002031,S01010799
Pentland Housing Association Ltd,SC037286,Highland,KW14 8EG,58.59408914,-3.52159859,S02002031,S01010799
5th Thurso Brownies,SC040975,Highland,KW14 8BY,58.59479372,-3.51746527,S02002031,S01010799
Samaritans of Caithness SCIO,SC046706,Highland,KW14 8BZ,58.59415532,-3.51828071,S02002031,S01010799
Daniel McLean Memorial Fund SCIO,SC046754,Highland,KW14 7BE,58.59397224,-3.52236778,S02002031,S01010799
North Highland Cancer Information and Support Centre SCIO,SC048935,Highland,KW14 8AG,58.59535164,-3.51890038,S02002031,S01010799
Thurso Community Development Trust ,SC049082,Highland,KW14 8AA,58.59514274,-3.51985488,S02002031,S01010799
Caithness Cycling Club,SC051245,Highland,KW14 8BH,58.59609386,-3.52297619,S02002031,S01010799
2nd Thurso Scouts Group,SC035426,Highland,KW14 8DB,58.59436436,-3.51655195,S02002031,S01010799
Cromdale & Advie Church Of Scotland,SC002884,Highland,PH26 3LG,57.3441464,-3.57703518,S02001984,S01010547
Cromdale and Advie Community Development Trust,SC044846,Highland,PH26 3LH,57.33667845,-3.54242403,S02001984,S01010547
Dulnain Bridge Community Development Trust (SCIO),SC048247,Highland,PH26 3LS,57.30144522,-3.65935932,S02001984,S01010547
Advie Hall and Children's Fund,SC048698,Highland,PH26 3LP,57.39312676,-3.45239771,S02001984,S01010547
Cromdale Village Hall,SC051192,Highland,PH26 3LQ,57.33849909,-3.54560731,S02001984,S01010547
Shielbridge Hall Committee,SC002907,Highland,PH36 4JU,56.74796482,-5.80322166,S02001978,S01010505
Acharacle Parish Church Of Scotland,SC002916,Highland,PH36 4JU,56.74796482,-5.80322166,S02001978,S01010505
Feis Nan Garbh-Chriochan,SC017646,Highland,PH36 4JX,56.76160695,-5.76349558,S02001978,S01010505
Glenuig Community Association,SC020339,Highland,PH38 4NG,56.8317683,-5.83160367,S02001978,S01010505
Sradagan Ath - Tharacaill,SC024454,Highland,PH36 4JZ,56.76044805,-5.82162528,S02001978,S01010505
Acharacle Community Company,SC033393,Highland,PH36 4JJ,56.74084886,-5.79332276,S02001978,S01010505
Three Lochs Book and Arts Festival,SC046316,Highland,PH36 4JZ,56.76044805,-5.82162528,S02001978,S01010505
Lochalsh & Skye Swimming Pool Association,SC002981,Highland,IV40 8AT,57.28288385,-5.71580722,S02002007,S01010672
Hamilton Park Trustees,SC008926,Highland,IV40 8AB,57.2816385,-5.71596378,S02002007,S01010672
Royal British Legion Scotland Lochalsh Branch,SC030740,Highland,IV40 8AH,57.28102243,-5.71186764,S02002007,S01010672
Kyle & Lochalsh Community Trust,SC043360,Highland,IV40 8AZ,57.28180123,-5.72685395,S02002007,S01010672
LIVING HOPE (Skye and Lochalsh),SC050950,Highland,IV40 8AE,57.28082347,-5.71525072,S02002007,S01010672
Kilmuir Easter Parish Trust,SC003005,Highland,IV18 0PB,57.76135927,-4.0694009,S02002022,S01010747
Kilmuir & Logie Easter Action & Development Group,SC024561,Highland,IV18 0PX,57.74168223,-4.07492957,S02002022,S01010747
The Polnicol Hall Management Group,SC041450,Highland,IV18 0NY,57.7490175,-4.07195545,S02002022,S01010747
Miss Andrewina Junor Trust For Poor Of Fortrose And Rosemarkie,SC003158,Highland,IV10 8TW,57.57997397,-4.12997721,S02002018,S01010721
"The Black Isle Charge St John the Evangelist - Arpafeelie, St Regulus - Cromarty & St Andrew's - Fortrose",SC010781,Highland,IV10 8SP,57.57956439,-4.14303358,S02002018,S01010721
11th Ross-shire Chanonry Scout Group,SC041879,Highland,IV10 8TW,57.57997397,-4.12997721,S02002018,S01010721
The Fortrose Academy Educational Trust Fund,SC042233,Highland,IV10 8TW,57.57997397,-4.12997721,S02002018,S01010721
Chanonry Sailing Club,SC049615,Highland,IV10 8TP,57.57952537,-4.13366432,S02002018,S01010721
Dunbeath Preservation Trust,SC003175,Highland,KW6 6ED,58.2464266,-3.43457314,S02002026,S01010772
Dunbeath & District Centre,SC019367,Highland,KW6 6EP,58.24693159,-3.43839283,S02002026,S01010772
Dunbeath Community Centre,SC025697,Highland,KW6 6ED,58.2464266,-3.43457314,S02002026,S01010772
Ben Gunn Memorial Charitable Trust,SC028537,Highland,KW7 6HA,58.20151431,-3.48241271,S02002026,S01010772
Caithness Archaeological Trust Limited,SC034082,Highland,KW6 6ET,58.25075239,-3.44289255,S02002026,S01010772
The Parish of Latheron Church of Scotland,SC034424,Highland,KW6 6EH,58.25389976,-3.41365974,S02002026,S01010772
Berriedale Portland Hall,SC037444,Highland,KW7 6HA,58.20151431,-3.48241271,S02002026,S01010772
Berriedale Church and Cemetery Association,SC040737,Highland,KW7 6HD,58.18162832,-3.52642974,S02002026,S01010772
Dingwall Congregation Of Jehovahs Witnesses,SC003249,Highland,IV7 8DZ,57.57665902,-4.43933379,S02002016,S01010709
Maryburgh Amenities Company Limited,SC009562,Highland,IV7 8EA,57.57762688,-4.43993386,S02002016,S01010709
Wild Willows,SC003268,Highland,PH21 1NX,57.07194533,-3.90795512,S02001982,S01010535
Kincraig Community Hall Association,SC008510,Highland,PH21 1NB,57.12999536,-3.92985946,S02001982,S01010535
St John The Baptist Episcopal Church: Rothiemurchus,SC023265,Highland,PH21 1NQ,57.13153779,-3.88636839,S02001982,S01010535
The Emergency Medical Equipment Fund,SC034961,Highland,PH21 1NT,57.09016438,-3.96109569,S02001982,S01010535
31st Inverness-shire (Aviemore) Scout Group,SC037147,Highland,PH21 1QD,57.12771139,-3.93172317,S02001982,S01010535
Friends of St Vincent's Hospital,SC043233,Highland,PH21 1AD,57.13173911,-3.92806658,S02001982,S01010535
Kingussie High School Parent Council,SC045172,Highland,PH21 1AD,57.13173911,-3.92806658,S02001982,S01010535
Insh Community Holdings,SC049955,Highland,PH21 1NT,57.09016438,-3.96109569,S02001982,S01010535
Daviot & Dunlichity Church of Scotland,SC003301,Highland,IV2 6XG,57.39613159,-4.18488609,S02001993,S01010596
Farr Community Hall Association,SC027983,Highland,IV2 6XG,57.39613159,-4.18488609,S02001993,S01010596
Strathnairn Community Woodlands,SC033499,Highland,IV2 6XF,57.37270982,-4.20069082,S02001993,S01010596
Blackthorn Allotments Association,SC044883,Highland,IV2 6BF,57.44553375,-4.22286373,S02001993,S01010596
Strathnairn Community Access  & Transport Association ,SC045251,Highland,IV2 6XG,57.39613159,-4.18488609,S02001993,S01010596
Highland Rugby Football Club,SC047400,Highland,IV2 6DN,57.40929816,-4.29976935,S02001993,S01010596
Inverness Gymnastics Club,SC048577,Highland,IV2 6BE,57.44562356,-4.22490242,S02001993,S01010596
23rd Inverness (Culduthel) Rainbow Unit,SC049912,Highland,IV2 6BF,57.44553375,-4.22286373,S02001993,S01010596
Farr Community Hall SCIO,SC050946,Highland,IV2 6XG,57.39613159,-4.18488609,S02001993,S01010596
1st Thurso Scout Group,SC003348,Highland,KW12 6XA,58.49865469,-3.45463002,S02002030,S01010796
Wick Congregation Of Jehovahs Witnesses,SC003668,Highland,KW12 6XF,58.52180216,-3.49760427,S02002030,S01010796
Archie Sinclair Fossil Centre,SC006069,Highland,KW1 5XW,58.4626149,-3.41632127,S02002030,S01010796
Spittal Village Hall,SC012341,Highland,KW1 5XW,58.4626149,-3.41632127,S02002030,S01010796
Caithness Deaf Club,SC022001,Highland,KW12 6XF,58.52180216,-3.49760427,S02002030,S01010796
Halkirk Sports And Recreation Club,SC031181,Highland,KW12 6UL,58.48801488,-3.48793169,S02002030,S01010796
Caithness Junior Pipe Band,SC032879,Highland,KW12 6UZ,58.50894458,-3.4188742,S02002030,S01010796
Caithness Countryside Volunteers,SC033075,Highland,KW12 6YX,58.51963249,-3.49725424,S02002030,S01010796
Council Of Management Of Scotscalder Hall,SC033353,Highland,KW12 6XJ,58.48014881,-3.55066036,S02002030,S01010796
1st Halkirk Brownie Unit,SC036453,Highland,KW12 6UW,58.45983663,-3.48329576,S02002030,S01010796
Caithness Motocross Club Ltd,SC040688,Highland,KW12 6XA,58.49865469,-3.45463002,S02002030,S01010796
Urras An Eilein,SC003432,Highland,IV56 8FJ,57.38215325,-6.47081709,S02002010,S01010684
Dunvegan Community Hall Association,SC018099,Highland,IV55 8ZL,57.40433757,-6.49791955,S02002010,S01010684
Rionnagan Beaga Dhunbheagain,SC033229,Highland,IV55 8GW,57.55231299,-6.63977861,S02002010,S01010684
Artsplay Skye And Lochalsh,SC037583,Highland,IV55 8WA,57.43501907,-6.57814231,S02002010,S01010684
Dunvegan Community Trust,SC040318,Highland,IV55 8ZJ,57.37827615,-6.51911686,S02002010,S01010684
4th Isle of Skye Guides,SC042627,Highland,IV55 8ZE,57.40589599,-6.52617366,S02002010,S01010684
Northwest Skye Recreational Association,SC043810,Highland,IV55 8GZ,57.4140691,-6.53673484,S02002010,S01010684
Waternish Community Hall SCIO,SC045241,Highland,IV55 8GL,57.54059689,-6.60632101,S02002010,S01010684
Struan Community Development Group (SCIO),SC049381,Highland,IV56 8FD,57.35238948,-6.44908729,S02002010,S01010684
Friends Of Portree Hospital,SC003462,Highland,IV51 9NY,57.49596072,-6.37387877,S02002010,S01010682
Comann Nam Parant (Portree),SC029911,Highland,IV51 9NT,57.47721915,-6.33510508,S02002010,S01010682
Skye Old Peoples Welfare Committee SCIO,SC034783,Highland,IV51 9NA,57.4387528,-6.24440854,S02002010,S01010682
Edinbane Community Company,SC040297,Highland,IV51 9PW,57.46913329,-6.43222784,S02002010,S01010682
1st Isle of Skye Brownies,SC041913,Highland,IV51 9PX,57.49729006,-6.40231946,S02002010,S01010682
The Skye Youth Pipe Band ,SC046687,Highland,IV51 9PR,57.47446868,-6.42654777,S02002010,S01010682
Avoch Amenities Association,SC003620,Highland,IV9 8RW,57.56905068,-4.18452154,S02002018,S01010722
Avoch Parish Church Of Scotland,SC003921,Highland,IV9 8QJ,57.56856058,-4.17387378,S02002018,S01010722
1st Avoch Sea Scouts,SC039121,Highland,IV9 8PS,57.5666592,-4.17732197,S02002018,S01010722
Ness Bridge Club,SC044339,Highland,IV9 8QS,57.56462843,-4.17524444,S02002018,S01010722
Church Of St Peter & The Holy Rood,SC003626,Highland,IV1 3XD,57.5271446,-4.31547259,S02002018,S01010725
St Columba's Episcopal Church: Brora,SC023271,Highland,IV1 3XD,57.5271446,-4.31547259,S02002018,S01010725
Artsplay Highland,SC034648,Highland,IV1 3AD,57.51104038,-4.28999194,S02002018,S01010725
Abernethy Church Of Scotland,SC003652,Highland,PH26 3LD,57.33038616,-3.61149488,S02001984,S01010545
Strathspey Pre School Trust,SC004451,Highland,PH26 3EL,57.3282014,-3.61091751,S02001984,S01010545
Grantown-On-Spey YMCA,SC022363,Highland,PH26 3EL,57.3282014,-3.61091751,S02001984,S01010545
Speyside Full Gospel Church,SC036611,Highland,PH26 3QH,57.32836546,-3.61213724,S02001984,S01010545
1st Grantown-On-Spey Brownie Unit,SC036776,Highland,PH26 3JR,57.32707161,-3.60933996,S02001984,S01010545
Croileagan Loch Ailse,SC003664,Highland,IV52 8TH,57.34229886,-5.65029622,S02002007,S01010671
Kyle Public Hall,SC010347,Highland,IV40 8BB,57.30088202,-5.71797319,S02002007,S01010671
"Glenelg, Kintail and Lochalsh Church of Scotland",SC016505,Highland,IV52 8TP,57.33639257,-5.65306786,S02002007,S01010671
Plockton Village Hall,SC022380,Highland,IV52 8TJ,57.34159085,-5.64743244,S02002007,S01010671
Achmore Community Hall Association (Acha),SC024849,Highland,IV53 8UW,57.3443875,-5.57702196,S02002007,S01010671
Skye And Lochalsh Access Panel,SC030160,Highland,IV52 8TJ,57.34159085,-5.64743244,S02002007,S01010671
Plockton Amateur Dramatic Society,SC030791,Highland,IV52 8TF,57.33301546,-5.66623074,S02002007,S01010671
The Fernaig Community Trust,SC033722,Highland,IV53 8UP,57.33264317,-5.5489167,S02002007,S01010671
Friends of Plockton Playpark,SC044767,Highland,IV52 8TR,57.33514468,-5.66381642,S02002007,S01010671
Plockton & District Community Trust,SC050271,Highland,IV52 8TH,57.34229886,-5.65029622,S02002007,S01010671
"Clan Munro Association Benevolent, Educational, Foulis Castle Restoration & Maintenance, And Journal Funds",SC003688,Highland,IV16 9UX,57.64576059,-4.37081936,S02002014,S01010700
Rosskeen Parish Church Of Scotland,SC010093,Highland,IV16 9UZ,57.6627034,-4.35371726,S02002014,S01010700
Clan Munro Heritage Ltd,SC023942,Highland,IV16 9UX,57.64576059,-4.37081936,S02002014,S01010700
Ross & Cromarty Disability Access Group,SC033514,Highland,IV16 9UT,57.65947036,-4.34297961,S02002014,S01010700
Lochinver Pre School Centre Association,SC003705,Highland,IV27 4LN,58.15437337,-5.24751747,S02002033,S01010813
Assynt Development Trust Limited,SC015208,Highland,IV27 4LE,58.14653807,-5.24284243,S02002033,S01010813
Culag Community Woodland Trust Limited,SC024450,Highland,IV27 4LE,58.14653807,-5.24284243,S02002033,S01010813
Lochinver Primary School Parent Council,SC033663,Highland,IV27 4LN,58.15437337,-5.24751747,S02002033,S01010813
Assynt Foundation,SC036540,Highland,IV27 4LW,58.14759689,-5.2023957,S02002033,S01010813
Community Care Assynt Ltd,SC044803,Highland,IV27 4LT,58.15383426,-5.24680522,S02002033,S01010813
Connect Assynt Ltd,SC045852,Highland,IV27 4LE,58.14653807,-5.24284243,S02002033,S01010813
St Marys In The Fields,SC003726,Highland,IV2 5BP,57.47515857,-4.12704038,S02001991,S01010584
Comann Nam Parant (Inbhir Nis),SC010052,Highland,IV2 7FZ,57.48766693,-4.12378027,S02001991,S01010584
"Kinmylies Church of Scotland, Inverness",SC020888,Highland,IV2 5JE,57.47592632,-4.14800088,S02001991,S01010584
D.R.Munro Memorial Fund,SC043553,Highland,IV2 5DX,57.47748898,-4.14540714,S02001991,S01010584
Badenoch & Strathspey Conservation Group,SC003846,Highland,PH25 3DJ,57.26057567,-3.64085799,S02001984,S01010542
Nethy Bridge Community Centre,SC012389,Highland,PH25 3DA,57.2648922,-3.65834483,S02001984,S01010542
Nethy Bridge Community Development Company,SC040740,Highland,PH25 3DR,57.26505222,-3.64686077,S02001984,S01010542
Castle Roy Trust SCIO,SC041335,Highland,PH25 3DS,57.26423744,-3.64115352,S02001984,S01010542
Abernethy Old Kirk Association,SC041557,Highland,PH25 3EB,57.2681723,-3.65487714,S02001984,S01010542
Abernethy Highland Games Association,SC042969,Highland,PH25 3DA,57.2648922,-3.65834483,S02001984,S01010542
Speyside Fields For Wildlife,SC048467,Highland,PH25 3EF,57.22760049,-3.68112055,S02001984,S01010542
Alpine Training Centre SCIO,SC050509,Highland,PH25 3DR,57.26505222,-3.64686077,S02001984,S01010542
Kiltarlity and Kirkhill Church of Scotland,SC003866,Highland,IV4 7JJ,57.43798866,-4.52459284,S02002005,S01010656
Kiltarlity Hall Association,SC023358,Highland,IV4 7HD,57.43908016,-4.49370564,S02002005,S01010656
Inverness Badenoch and Strathspey Citizens Advice Bureau,SC003951,Highland,IV1 1QA,57.47851932,-4.22540161,S02001998,S01010620
Highland Print Studio,SC004981,Highland,IV1 1QU,57.47827609,-4.22747191,S02001998,S01010620
Relationships Scotland - Family Mediation Highland,SC013780,Highland,IV1 1EH,57.47893103,-4.22651093,S02001998,S01010620
Inverness Kirk Session,SC017499,Highland,IV1 1HT,57.47814099,-4.22392737,S02001998,S01010620
Safe Strong And Free Project,SC017744,Highland,IV1 1LE,57.4796813,-4.22422119,S02001998,S01010620
Shopmobility Highland SCIO,SC022861,Highland,IV2 3PR,57.4795606,-4.2193429,S02001998,S01010620
Inverness Local History Forum,SC025287,Highland,IV1 1LS,57.48034979,-4.22554634,S02001998,S01010620
Calman Trust Ltd,SC027878,Highland,IV1 1LR,57.48028945,-4.22489208,S02001998,S01010620
Highland Homeless Trust,SC028837,Highland,IV1 1DR,57.47859187,-4.22689063,S02001998,S01010620
Inverness Access Panel,SC029255,Highland,IV2 3PR,57.4795606,-4.2193429,S02001998,S01010620
Befrienders Highland Limited,SC029386,Highland,IV1 1JT,57.47967939,-4.22483829,S02001998,S01010620
Triratna Buddhist Community (Highlands),SC034310,Highland,IV1 1LP,57.47990041,-4.22555236,S02001998,S01010620
Nairn Book & Arts Festival,SC037105,Highland,IV1 1HT,57.47814099,-4.22392737,S02001998,S01010620
In This Together,SC042210,Highland,IV1 1EP,57.48022515,-4.22802433,S02001998,S01010620
RCCG Jesus House Inverness,SC045743,Highland,IV1 1PX,57.47871032,-4.22578021,S02001998,S01010620
Culbokie Community Trust Limited,SC045867,Highland,IV1 1HT,57.47814099,-4.22392737,S02001998,S01010620
Strokeness,SC046265,Highland,IV1 1EA,57.47795238,-4.22545052,S02001998,S01010620
Highland Pride SCIO,SC050189,Highland,IV1 1DJ,57.47931199,-4.2268177,S02001998,S01010620
Kildonan & Loth Helmsdale Church of Scotland,SC004056,Highland,KW8 6HL,58.09824673,-3.6875102,S02002025,S01010771
Helmsdale Heritage And Arts Society,SC009796,Highland,KW8 6JA,58.11666829,-3.65279991,S02002025,S01010771
Helmsdale Medical Equipment Fund,SC017585,Highland,KW8 6LE,58.11630327,-3.64351438,S02002025,S01010771
Helmsdale And District Community Association,SC019808,Highland,KW8 6JA,58.11666829,-3.65279991,S02002025,S01010771
Sutherland Guides Association,SC022682,Highland,KW8 6JQ,58.11802879,-3.65248943,S02002025,S01010771
Kildonan And Kinbrace Amenities Association,SC026566,Highland,KW11 6UB,58.25775107,-3.94193201,S02002025,S01010771
Portgower Public Hall Association,SC026599,Highland,KW8 6HH,58.11694954,-3.66432256,S02002025,S01010771
Loth And Helmsdale Flower Show,SC029615,Highland,KW8 6LJ,58.11597831,-3.64711516,S02002025,S01010771
Royal British Legion Scotland Helmsdale Branch,SC030936,Highland,KW8 6JS,58.12253169,-3.63629677,S02002025,S01010771
Sutherland Access Panel,SC031379,Highland,KW8 6JS,58.12253169,-3.63629677,S02002025,S01010771
Helmsdale Youth Project,SC034348,Highland,KW8 6JJ,58.11845115,-3.65317108,S02002025,S01010771
Helmsdale Community Golf Club,SC036795,Highland,KW8 6JL,58.12008882,-3.6564217,S02002025,S01010771
Helmsdale & District Development Trust,SC043078,Highland,KW8 6JL,58.12008882,-3.6564217,S02002025,S01010771
Helmsdale Community Transport,SC044983,Highland,KW8 6JA,58.11666829,-3.65279991,S02002025,S01010771
Dementia Friendly Communities Ltd,SC047864,Highland,KW8 6JA,58.11666829,-3.65279991,S02002025,S01010771
Garbh Allt Community Initiative,SC047935,Highland,KW8 6HH,58.11694954,-3.66432256,S02002025,S01010771
Davy Duff Tape Service,SC004069,Highland,KW10 6TH,57.97449212,-3.97725824,S02002025,S01010770
Feis Chataibh,SC007773,Highland,KW10 6SB,57.97909173,-3.97149108,S02002025,S01010770
Golspie & District Community Association,SC011875,Highland,KW10 6SA,57.97876241,-3.97071196,S02002025,S01010770
Sutherland Caledonian Pipe Band,SC026343,Highland,KW10 6SA,57.97876241,-3.97071196,S02002025,S01010770
Friends Of The Golspie And Rogart Health Centre,SC031540,Highland,KW10 6TH,57.97449212,-3.97725824,S02002025,S01010770
East Sutherland Gymnastics And Trampolining Club,SC034276,Highland,KW10 6RS,57.97733091,-3.96510344,S02002025,S01010770
Tykes,SC036398,Highland,KW10 6RN,57.97586602,-3.97151678,S02002025,S01010770
East Sutherland Swimming Club,SC037237,Highland,KW10 6RW,57.97485896,-3.97908781,S02002025,S01010770
East Highland Concert Band,SC039841,Highland,KW10 6SE,57.99241179,-3.97865221,S02002025,S01010770
East Sutherland Schools Sport Association,SC042898,Highland,KW10 6SF,57.98532862,-3.94805171,S02002025,S01010770
Sutherland Community Sports and Recreation Hub,SC044217,Highland,KW10 6SE,57.99241179,-3.97865221,S02002025,S01010770
Planet Sutherland SCIO,SC050376,Highland,KW10 6RA,57.97474337,-3.97323064,S02002025,S01010770
Brora Scout And Guide Hall Group,SC004331,Highland,KW9 6LP,58.02638812,-3.8485289,S02002025,S01010769
Clyne Church Of Scotland,SC004973,Highland,KW9 6NJ,58.00376237,-3.88858656,S02002025,S01010769
Sutherland Outdoor Activities Project,SC019996,Highland,KW9 6LP,58.02638812,-3.8485289,S02002025,S01010769
Doll Community Association,SC021410,Highland,KW9 6NJ,58.00376237,-3.88858656,S02002025,S01010769
Clyne Heritage Society,SC028193,Highland,KW9 6NH,58.02667357,-3.88783023,S02002025,S01010769
Groam House Museum,SC004435,Highland,IV9 8RF,57.57309409,-4.20416377,S02002018,S01010723
Fortrose & Rosemarkie Parish Church of Scotland,SC004472,Highland,IV10 8SL,57.61121706,-4.11272043,S02002018,S01010723
Knockbain Free Church,SC004591,Highland,IV10 8SW,57.61151035,-4.16440151,S02002018,S01010723
Presbytery Of Ross Church of Scotland,SC005213,Highland,IV10 8SL,57.61121706,-4.11272043,S02002018,S01010723
Black Isle Need To Play Association,SC023244,Highland,IV9 8RT,57.57542979,-4.16995173,S02002018,S01010723
Highland & Islands Youth For Christ,SC029001,Highland,IV10 8SL,57.61121706,-4.11272043,S02002018,S01010723
Portree Community Centre Association SCIO,SC004464,Highland,IV51 9BW,57.41446575,-6.1966133,S02002009,S01010679
Skye & Lochalsh Council For Voluntary Organisations,SC013885,Highland,IV51 9ER,57.41336293,-6.19705354,S02002009,S01010679
Crossroads Care Skye & Lochalsh,SC015158,Highland,IV51 9BS,57.41248789,-6.19417032,S02002009,S01010679
St Columba's Episcopal Church: Portree,SC020146,Highland,IV51 9EH,57.41335329,-6.19518598,S02002009,S01010679
Applecross Trust,SC020693,Highland,IV51 9EH,57.41335329,-6.19518598,S02002009,S01010679
Portree Nursery Ltd,SC021324,Highland,IV51 9BW,57.41446575,-6.1966133,S02002009,S01010679
Skye & Lochalsh Citizens Advice Bureau,SC022578,Highland,IV51 9BT,57.41260566,-6.19468374,S02002009,S01010679
5th Isle Of Skye Girl Guide Company,SC032897,Highland,IV51 9EA,57.41463462,-6.19451615,S02002009,S01010679
Skyedance,SC036272,Highland,IV51 9EH,57.41335329,-6.19518598,S02002009,S01010679
Fuaran Nan Ealan (am Fuaran),SC036629,Highland,IV51 9EB,57.41414079,-6.19449292,S02002009,S01010679
Buidheann Tigheadas Loch Aillse Agus An Eilein Sgitheanaich Ltd,SC038019,Highland,IV51 9EW,57.41112352,-6.19436404,S02002009,S01010679
Skye Mountain Rescue Team,SC038386,Highland,IV51 9EH,57.41335329,-6.19518598,S02002009,S01010679
Skye & Lochalsh Rivers Trust,SC039771,Highland,IV51 9BT,57.41260566,-6.19468374,S02002009,S01010679
Uig Community Trust,SC041733,Highland,IV51 9ER,57.41336293,-6.19705354,S02002009,S01010679
Portree & Braes Community Trust,SC046593,Highland,IV51 9ER,57.41336293,-6.19705354,S02002009,S01010679
Croileagan Gaidhlig Ulapul,SC004493,Highland,IV26 2TD,57.89852386,-5.16440756,S02002012,S01010690
Episcopal Church Of St Mary The Virgin,SC009230,Highland,IV26 2UR,57.89444035,-5.16308629,S02002012,S01010690
Ullapool Museum Trust,SC018225,Highland,IV26 2TY,57.89586222,-5.16265428,S02002012,S01010690
Ullapool Village Hall Association,SC022904,Highland,IV26 2UU,57.89794221,-5.16646647,S02002012,S01010690
Isle Martin Trust,SC028934,Highland,IV26 2UB,57.89652339,-5.15812108,S02002012,S01010690
Royal British Legion Scotland Loch Broom Branch,SC030692,Highland,IV26 2UB,57.89652339,-5.15812108,S02002012,S01010690
An Talla Solais,SC040348,Highland,IV26 2XE,57.89795319,-5.15917503,S02002012,S01010690
Ullapool Community Trust Limited,SC041228,Highland,IV26 2UB,57.89652339,-5.15812108,S02002012,S01010690
Trustees For The Scourie Public Hall Committee,SC004614,Highland,IV27 4TG,58.34748447,-5.16480727,S02002033,S01010814
Eddrachilles Parish Church of Scotland,SC007326,Highland,IV27 4TG,58.34748447,-5.16480727,S02002033,S01010814
Assynt & Stoer Parish Church Of Scotland,SC010171,Highland,IV27 4JH,58.23437885,-5.37790624,S02002033,S01010814
Lochinver Public Hall Committee,SC011545,Highland,IV27 4JB,58.17040535,-5.27572054,S02002033,S01010814
Iris Hurlock Moncur's Charitable Trust,SC016709,Highland,IV27 4JB,58.17040535,-5.27572054,S02002033,S01010814
Scourie Community Hall Association,SC020690,Highland,IV27 4TG,58.34748447,-5.16480727,S02002033,S01010814
West Sutherland Fisheries Trust,SC024426,Highland,IV27 4SX,58.35198245,-5.15153246,S02002033,S01010814
Comunn Eachdraidh Asainte/Assynt History Society,SC025456,Highland,IV27 4JD,58.19157366,-5.33152423,S02002033,S01010814
Historic Assynt SCIO,SC027390,Highland,IV27 4JH,58.23437885,-5.37790624,S02002033,S01010814
1st Assynt Brownies,SC041622,Highland,IV27 4NW,58.2431638,-5.20131579,S02002033,S01010814
Scourie Community Development Company Limited,SC043558,Highland,IV27 4TE,58.35076171,-5.14964558,S02002033,S01010814
Drumbeg Development Association,SC044105,Highland,IV27 4NW,58.2431638,-5.20131579,S02002033,S01010814
North West Highlands Geopark Limited,SC046510,Highland,IV27 4HW,58.25029644,-5.01123113,S02002033,S01010814
Kintail Mountain Rescue Association (Team),SC004625,Highland,IV40 8EQ,57.27934091,-5.56449486,S02002007,S01010670
Lochalsh Christian Fellowship,SC025503,Highland,IV40 8EG,57.28616414,-5.58660506,S02002007,S01010670
Dornie & District Community Village Hall,SC035534,Highland,IV40 8EY,57.28262302,-5.53552976,S02002007,S01010670
Lochalsh Pipe Band,SC039538,Highland,IV40 8ET,57.28997218,-5.49522538,S02002007,S01010670
Kinlochshiel Shinty and Community Sports Club,SC046462,Highland,IV40 8ET,57.28997218,-5.49522538,S02002007,S01010670
Balmacara Community Trust,SC051242,Highland,IV40 8DJ,57.2924395,-5.64251143,S02002007,S01010670
West Alness Residents Assoc,SC004734,Highland,IV17 0RX,57.69742536,-4.27251358,S02002020,S01010732
The Place,SC018055,Highland,IV17 0PW,57.69863791,-4.27253921,S02002020,S01010732
Alness Baptist Church SCIO,SC049415,Highland,IV17 0RX,57.69742536,-4.27251358,S02002020,S01010732
Seaboard Playgroup,SC004775,Highland,IV20 1XD,57.76353888,-3.89689311,S02002022,S01010750
Balintore United Free Church,SC016370,Highland,IV20 1UZ,57.76124247,-3.90025232,S02002022,S01010750
Inver Mother & Toddlers,SC016402,Highland,IV20 1SL,57.81211983,-3.85722648,S02002022,S01010750
Seaboard Memorial Hall,SC025484,Highland,IV20 1UA,57.75787787,-3.90652994,S02002022,S01010750
Tain Christian Bookshop,SC028281,Highland,IV20 1TW,57.79557818,-3.86531058,S02002022,S01010750
Seaboard Cares (SCIO),SC045184,Highland,IV20 1XD,57.76353888,-3.89689311,S02002022,S01010750
National Deaf Childrens Society Highland Region,SC004788,Highland,IV6 7QX,57.52057487,-4.45432496,S02002015,S01010704
Inverness Musical Theatre Company SCIO,SC050783,Highland,IV6 7TB,57.51913167,-4.46013999,S02002015,S01010704
Kiltearn Free Church,SC004880,Highland,IV17 0XJ,57.72559738,-4.34475198,S02002014,S01010699
Kiltearn Parish Church Of Scotland,SC009180,Highland,IV16 9AD,57.67735583,-4.30755271,S02002014,S01010699
Ardross Community Hall,SC027764,Highland,IV17 0YD,57.74740231,-4.28791766,S02002014,S01010699
Petty Church Of Scotland,SC004952,Highland,IV3 8RQ,57.46658309,-4.31685895,S02002005,S01010658
Aird Community Trust,SC012797,Highland,IV3 8RL,57.47405899,-4.3709902,S02002005,S01010658
Kirkhill Parent & Toddlers (Or Kirkhill Tots Toddler Group),SC021627,Highland,IV3 8RJ,57.47911686,-4.36147574,S02002005,S01010658
1st Milton of Leys Rainbow Unit,SC049258,Highland,IV3 8DZ,57.46219313,-4.2771975,S02002005,S01010658
Nairn Senior Citizens Luncheon & Social Club,SC005056,Highland,IV12 4SB,57.57936784,-3.87829823,S02001987,S01010560
St. Ninian's and Auldearn & Dalmore Church of Scotland,SC015361,Highland,IV12 4QW,57.58067482,-3.87438478,S02001987,S01010560
Nigg & Shandwick Friendship Fund,SC005075,Highland,IV19 1QX,57.71908661,-4.02494278,S02002022,S01010746
Fearn Abbey & Nigg Church of Scotland,SC009309,Highland,IV19 1QW,57.73589176,-3.99754346,S02002022,S01010746
St Andrews Episcopal Church: Tain,SC009500,Highland,IV19 1QS,57.69745421,-3.98451907,S02002022,S01010746
Nigg Old Trust,SC017816,Highland,IV19 1QW,57.73589176,-3.99754346,S02002022,S01010746
The Peter Fraser Memorial Hall (SCIO) ,SC046886,Highland,IV20 1TT,57.77453954,-3.96153865,S02002022,S01010746
Nairnshire Dragons,SC047891,Highland,IV20 1XJ,57.73863162,-3.97523368,S02002022,S01010746
Durness & Kinlochbervie Church Of Scotland,SC005079,Highland,IV27 4RG,58.46096347,-5.03498059,S02002033,S01010815
Kinlochbervie Hall Committee,SC017406,Highland,IV27 4RG,58.46096347,-5.03498059,S02002033,S01010815
Kinlochbervie Community Care Group,SC017763,Highland,IV27 4RP,58.45808345,-5.04349471,S02002033,S01010815
North and West Sutherland Citizens Advice Bureau,SC019489,Highland,IV27 4RR,58.45877475,-5.05221425,S02002033,S01010815
North West Training Centre Association,SC019802,Highland,IV27 4RG,58.46096347,-5.03498059,S02002033,S01010815
Kinlochbervie Planning For Play Association,SC022454,Highland,IV27 4RJ,58.44355612,-4.99602852,S02002033,S01010815
Kinlochbervie Pre-School Centre Association,SC029455,Highland,IV27 4RG,58.46096347,-5.03498059,S02002033,S01010815
Kinlochbervie High School - School Fund Committee,SC041324,Highland,IV27 4RG,58.46096347,-5.03498059,S02002033,S01010815
Kinlochbervie Community Company,SC043794,Highland,IV27 4RB,58.40941404,-5.06669168,S02002033,S01010815
North and West Sutherland Trust,SC046029,Highland,IV27 4RR,58.45877475,-5.05221425,S02002033,S01010815
Kinlochbervie Playing Field Association,SC047706,Highland,IV27 4RP,58.45808345,-5.04349471,S02002033,S01010815
Grantown Museum & Heritage Trust,SC005132,Highland,PH26 3HH,57.33268439,-3.60460179,S02001984,S01010546
Voluntary Action In Badenoch And Strathspey,SC006932,Highland,PH26 3HF,57.33147972,-3.60677522,S02001984,S01010546
Grantown Playgroup,SC015664,Highland,PH26 3HX,57.33418259,-3.60265698,S02001984,S01010546
Grantown Health Centre Equipment Fund,SC026877,Highland,PH26 3HS,57.33506329,-3.60334326,S02001984,S01010546
Royal British Legion Scotland Strathspey Branch,SC029129,Highland,PH26 3HF,57.33147972,-3.60677522,S02001984,S01010546
Anagach Woods Trust,SC032822,Highland,PH26 3HF,57.33147972,-3.60677522,S02001984,S01010546
1st Grantown Girl Guides,SC034835,Highland,PH26 3JW,57.32867855,-3.60803157,S02001984,S01010546
Sound Start Plus,SC035412,Highland,PH26 3HZ,57.33128249,-3.60392603,S02001984,S01010546
The Friends of Grantown Primary ,SC046378,Highland,PH26 3HZ,57.33128249,-3.60392603,S02001984,S01010546
1st Badenoch & Strathspey Ranger Unit,SC049240,Highland,PH26 3JW,57.32867855,-3.60803157,S02001984,S01010546
Glencoe St Munda's Church Of Scotland,SC005211,Highland,PH33 6SA,56.69107601,-5.15996895,S02001981,S01010524
Callart House Heritage Trust,SC036370,Highland,PH33 6SA,56.69107601,-5.15996895,S02001981,S01010524
Nether Lochaber Community Association (SCIO),SC047546,Highland,PH33 6RY,56.7026033,-5.20484411,S02001981,S01010524
Ardgay Bonar Pipe Band,SC005305,Highland,IV27 4DN,58.07715573,-4.44443389,S02002024,S01010765
Lairg Friendship Club,SC011913,Highland,IV27 4EF,58.01378578,-4.42971311,S02002024,S01010765
Lairg Community Association,SC025630,Highland,IV27 4DB,58.02310387,-4.39462971,S02002024,S01010765
Lairg Primary School Parent Council,SC032574,Highland,IV27 4DL,58.0651841,-4.42581271,S02002024,S01010765
Lairg & District Community Initiatives,SC033349,Highland,IV27 4DD,58.02355863,-4.39720036,S02002024,S01010765
Lairg & District Learning Centre,SC033900,Highland,IV27 4DD,58.02355863,-4.39720036,S02002024,S01010765
Lairg Christian Fellowship,SC043801,Highland,IV27 4DB,58.02310387,-4.39462971,S02002024,S01010765
Loch Shin Sailing Club,SC044909,Highland,IV27 4DH,58.01116705,-4.39725155,S02002024,S01010765
Lochview Rural Training,SC050948,Highland,IV27 4DN,58.07715573,-4.44443389,S02002024,S01010765
Laggan and Newtonmore Church of Scotland,SC005490,Highland,PH20 1DR,57.06751875,-4.11531777,S02001982,S01010531
Croileagan Bhaideanach,SC005563,Highland,PH20 1DY,57.06823833,-4.12058789,S02001982,S01010531
Clan Macpherson Trust,SC010820,Highland,PH20 1DE,57.0636172,-4.12444768,S02001982,S01010531
Clan Macpherson Museum Trust,SC020005,Highland,PH20 1DE,57.0636172,-4.12444768,S02001982,S01010531
Dachaidh Community Support,SC021576,Highland,PH20 1DG,57.06311468,-4.12864131,S02001982,S01010531
Feis Spe,SC024250,Highland,PH20 1AY,57.06986706,-4.10553705,S02001982,S01010531
Newtonmore Drama Group,SC027117,Highland,PH20 1DG,57.06311468,-4.12864131,S02001982,S01010531
Newtonmore Community Woodland And Development Trust,SC027576,Highland,PH20 1DD,57.06383613,-4.12213456,S02001982,S01010531
Cairngorms Learning Partnership (SCIO),SC030486,Highland,PH20 1AT,57.06402011,-4.11869783,S02001982,S01010531
"Sheila, Lady Cluny Museum Endowment Fund",SC035718,Highland,PH20 1DE,57.0636172,-4.12444768,S02001982,S01010531
Newtonmore Village Hall,SC042495,Highland,PH20 1DA,57.06480611,-4.12110132,S02001982,S01010531
Badenoch and Strathspey Access Panel,SC043905,Highland,PH20 1AT,57.06402011,-4.11869783,S02001982,S01010531
Badenoch Heritage (SCIO),SC049818,Highland,PH20 1AT,57.06402011,-4.11869783,S02001982,S01010531
Fort William Baptist Church,SC005713,Highland,PH33 6HA,56.82003804,-5.10103188,S02001980,S01010517
Fort William Town Team,SC046428,Highland,PH33 6EZ,56.8131298,-5.11421081,S02001980,S01010517
Fort William Town Team SCIO,SC050566,Highland,PH33 6EZ,56.8131298,-5.11421081,S02001980,S01010517
Gairloch Free Presbyterian Church,SC005739,Highland,IV21 2AS,57.6972093,-5.77083475,S02002011,S01010686
Poolewe & District Swimming Pool Association,SC008522,Highland,IV22 2JU,57.76519986,-5.60596554,S02002011,S01010686
Poolewe Village Hall Committee,SC028447,Highland,IV22 2JY,57.7591187,-5.59979196,S02002011,S01010686
Gairloch Community Car Scheme,SC039516,Highland,IV22 2JU,57.76519986,-5.60596554,S02002011,S01010686
Wester Loch Ewe Trust,SC045512,Highland,IV22 2LR,57.82038382,-5.6684263,S02002011,S01010686
West Coast Arts (SCIO) ,SC046021,Highland,IV22 2JY,57.7591187,-5.59979196,S02002011,S01010686
Loch Ewe Community Skiff Group,SC046741,Highland,IV22 2LN,57.80023731,-5.66966221,S02002011,S01010686
Gairloch Aid & Mobility Support SCIO,SC047047,Highland,IV21 2AT,57.68541391,-5.78135817,S02002011,S01010686
Russian Arctic Convoy Project (SCIO),SC047909,Highland,IV22 2LD,57.76748956,-5.59753019,S02002011,S01010686
Scrabster Community Association,SC005874,Highland,KW14 7UW,58.61378975,-3.5492425,S02002032,S01010809
Thurso Heritage Society,SC015758,Highland,KW14 7UD,58.59996962,-3.5466865,S02002032,S01010809
Caithness Spina Bifida and Hydrocephalus,SC021693,Highland,KW14 7UB,58.60087649,-3.54596934,S02002032,S01010809
1st Thurso Rangers,SC033712,Highland,KW14 7XB,58.59869847,-3.54258641,S02002032,S01010809
3rd Thurso Guides,SC033713,Highland,KW14 7XB,58.59869847,-3.54258641,S02002032,S01010809
Caithness Disability Multi-Sport,SC043912,Highland,KW14 7UE,58.60106898,-3.54415363,S02002032,S01010809
Old St Peter's Kirk Preservation Association ,SC048879,Highland,KW14 7XB,58.59869847,-3.54258641,S02002032,S01010809
Nairn Literary Institute,SC005880,Highland,IV12 4PS,57.587923,-3.86604167,S02001986,S01010554
Community Violence And Abuse Support Service,SC037634,Highland,IV12 4PD,57.58746496,-3.86481371,S02001986,S01010554
Safe Place Accommodation Network (SCIO),SC050358,Highland,IV12 4PD,57.58746496,-3.86481371,S02001986,S01010554
Scottish Exotic Animal Rescue,SC041507,Highland,IV12 4NU,57.58681882,-3.86476391,S02001986,S01010554
Bettyhill Village Hall,SC006146,Highland,KW14 7SA,58.55121772,-4.08564242,S02002033,S01010811
North Coast Community Transport Association,SC007795,Highland,KW14 7SG,58.51150282,-4.22044196,S02002033,S01010811
Farr Secondary School Fund Committee,SC009439,Highland,KW14 7SS,58.52871345,-4.22165042,S02002033,S01010811
Strathnaver Museum,SC012016,Highland,KW14 7SS,58.52871345,-4.22165042,S02002033,S01010811
Bettyhill & District Pipe Band Association,SC014632,Highland,KW14 7SA,58.55121772,-4.08564242,S02002033,S01010811
Tongue Village Hall Committee,SC014656,Highland,IV27 4XF,58.47598518,-4.41736701,S02002033,S01010811
Altnaharra & Farr Church of Scotland,SC016038,Highland,KW14 7SP,58.52535446,-4.22210776,S02002033,S01010811
Friends of Cala Sona,SC018984,Highland,KW14 7TH,58.52235087,-4.2781285,S02002033,S01010811
North Coast Community Enterprises Ltd,SC020618,Highland,KW14 7TJ,58.53594856,-4.31503944,S02002033,S01010811
Naver Teleservice Centre,SC020662,Highland,KW14 7SS,58.52871345,-4.22165042,S02002033,S01010811
Skerray Village Hall,SC021475,Highland,KW14 7TH,58.52235087,-4.2781285,S02002033,S01010811
Comunn Eachdraidh Sgeireadh (Skerray Historical Association),SC024992,Highland,KW14 7TJ,58.53594856,-4.31503944,S02002033,S01010811
North West Sutherland Council For Community Action,SC026869,Highland,KW11 6UA,58.38782956,-4.21142749,S02002033,S01010811
Farr Edge 2000,SC029802,Highland,KW14 7SS,58.52871345,-4.22165042,S02002033,S01010811
Stag - Sutherland Teenage Action Group,SC029829,Highland,KW14 7SS,58.52871345,-4.22165042,S02002033,S01010811
Strathnaver Public Hall,SC030420,Highland,KW11 6UA,58.38782956,-4.21142749,S02002033,S01010811
Allt Beag Armadale Trust,SC032791,Highland,KW14 7SA,58.55121772,-4.08564242,S02002033,S01010811
North Sutherland Community Forestry Trust,SC034731,Highland,KW14 7SZ,58.53251433,-4.1991805,S02002033,S01010811
UpNorth! Community Development Trust,SC040813,Highland,IV27 4XJ,58.46414104,-4.42224623,S02002033,S01010811
North Coast Connection,SC042907,Highland,IV27 4XA,58.47717627,-4.4180492,S02002033,S01010811
Armadale Village Hall Limited,SC049779,Highland,KW14 7SA,58.55121772,-4.08564242,S02002033,S01010811
"Tongue, Melness & Skerray Wildlife Group",SC050726,Highland,KW14 7TJ,58.53594856,-4.31503944,S02002033,S01010811
Farr North Community Development Trust,SC050787,Highland,KW14 7SS,58.52871345,-4.22165042,S02002033,S01010811
Rainbow Baby and Toddler Group,SC006241,Highland,PH49 4JJ,56.67522912,-5.13898082,S02001981,S01010526
Nether Lochaber Parish Church of Scotland,SC006700,Highland,PH49 4HN,56.6801728,-5.11430819,S02001981,S01010526
Ballachulish Community Association Scottish Charitable Incorporated Organisation,SC023308,Highland,PH49 4LE,56.67870059,-5.13249277,S02001981,S01010526
Ballachulish Community Company,SC034120,Highland,PH49 4JG,56.67298402,-5.13247507,S02001981,S01010526
4th Lochaber Scout Group,SC044853,Highland,PH49 4JE,56.67480487,-5.13334479,S02001981,S01010526
Kinlochlovin',SC046213,Highland,PH49 4JH,56.67392927,-5.13670096,S02001981,S01010526
Gairloch Community Hall,SC006465,Highland,IV21 2BP,57.72889455,-5.69274385,S02002011,S01010687
Gairloch & District Heritage Company Ltd,SC010249,Highland,IV21 2BH,57.72417875,-5.68859968,S02002011,S01010687
Dundonnell Mountain Rescue Team SCIO,SC011603,Highland,IV21 2BS,57.72789796,-5.69331439,S02002011,S01010687
Gairloch and Dundonnell Church of Scotland,SC015448,Highland,IV21 2DE,57.73294509,-5.69719095,S02002011,S01010687
Toybox Childrens Centre,SC030007,Highland,IV21 2BH,57.72417875,-5.68859968,S02002011,S01010687
Gairloch & Loch Ewe Action Forum,SC032184,Highland,IV21 2BH,57.72417875,-5.68859968,S02002011,S01010687
Den Youth CafÃ©,SC034129,Highland,IV21 2DH,57.7322013,-5.73170451,S02002011,S01010687
Wester Ross Youth Football Club,SC036530,Highland,IV21 2AH,57.71027469,-5.67581222,S02002011,S01010687
Gairloch & District Times (SCIO),SC041926,Highland,IV21 2BP,57.72889455,-5.69274385,S02002011,S01010687
Wester Ross Radio Ltd,SC049942,Highland,IV21 2BQ,57.71140912,-5.68471239,S02002011,S01010687
Gairloch Boat Club,SC050456,Highland,IV21 2BQ,57.71140912,-5.68471239,S02002011,S01010687
Wester Ross Biosphere Ltd,SC050721,Highland,IV21 2BP,57.72889455,-5.69274385,S02002011,S01010687
Wester Ross Fisheries Trust,SC050755,Highland,IV21 2BQ,57.71140912,-5.68471239,S02002011,S01010687
Rosehall Public Hall Committee,SC006510,Highland,IV27 4EU,57.96415488,-4.51131189,S02002024,S01010757
Bonar Bridge Primary Parent Council,SC009459,Highland,IV24 3BS,57.86967728,-4.63330662,S02002024,S01010757
Invershin Hall Committee,SC016390,Highland,IV27 4EY,57.94207709,-4.4130337,S02002024,S01010757
Rosehall Church of Scotland,SC017558,Highland,IV27 4EU,57.96415488,-4.51131189,S02002024,S01010757
Ladybird Club,SC022751,Highland,IV24 3BW,57.88301759,-4.44954327,S02002024,S01010757
Kyle Of Sutherland Fisheries Trust,SC030207,Highland,IV24 3BG,57.88422935,-4.37155397,S02002024,S01010757
Kyle of Sutherland Hub Ltd,SC036130,Highland,IV24 3AQ,57.89041993,-4.3522552,S02002024,S01010757
Gearrchoille Community Wood Ardgay,SC036181,Highland,IV24 3BP,57.88886418,-4.44923247,S02002024,S01010757
Kyle of Sutherland Development Trust,SC043587,Highland,IV24 3AL,57.88143244,-4.36398163,S02002024,S01010757
Skeabost Memorial Hall Association,SC007175,Highland,IV51 9XE,57.48824507,-6.31153072,S02002010,S01010683
Kilmuir and Stenscholl Church of Scotland,SC014072,Highland,IV51 9YS,57.65020423,-6.39525602,S02002010,S01010683
Royal Scottish Country Dance Society Isle Of Skye Branch,SC025420,Highland,IV51 9XF,57.48059405,-6.29883989,S02002010,S01010683
Sluggans Woodland Park Group,SC030218,Highland,IV51 9UT,57.50829726,-6.34380963,S02002010,S01010683
Kingsburgh Forest Trust,SC032778,Highland,IV51 9UT,57.50829726,-6.34380963,S02002010,S01010683
Skye Cancer Care SCIO,SC047224,Highland,IV51 9XU,57.58939664,-6.37953189,S02002010,S01010683
Kilmuir Community Trust,SC050251,Highland,IV51 9WS,57.64671403,-6.38104531,S02002010,S01010683
Portree Angling Association SCIO,SC050888,Highland,IV51 9XU,57.58939664,-6.37953189,S02002010,S01010683
Thurso West Church Of Scotland,SC007248,Highland,KW14 7NX,58.59454547,-3.53459189,S02002032,S01010808
Scottish Community Drama Association Caithness District,SC021388,Highland,KW14 7LU,58.59418195,-3.53344037,S02002032,S01010808
Highland Blind Tandem Club,SC007258,Highland,IV2 3AX,57.47598249,-4.21894235,S02001999,S01010628
7th Inverness Brownies,SC034205,Highland,IV2 3AY,57.47586595,-4.22198766,S02001999,S01010628
Crown Connects,SC050700,Highland,IV2 3AQ,57.47736592,-4.22151163,S02001999,S01010628
Lawson Cambusavie Memorial Hospital Friends,SC007310,Highland,KW9 6QS,58.01305653,-3.8472656,S02002025,S01010767
Brora Rangers Youth Initiative,SC042372,Highland,KW9 6QY,58.01508439,-3.85114516,S02002025,S01010767
Brora Community Events Group ,SC043369,Highland,KW9 6AD,58.01340657,-3.8546979,S02002025,S01010767
Blue Highlands Raptor Rescue & Avian Conservation Centre Ltd,SC050767,Highland,KW9 6QS,58.01305653,-3.8472656,S02002025,S01010767
Brora Community Enterprises,SC051297,Highland,KW9 6QL,58.01274857,-3.85361436,S02002025,S01010767
Stratherrick Public Hall,SC007540,Highland,IV2 6UH,57.27134486,-4.38718383,S02002006,S01010665
Dores Youth Club,SC029942,Highland,IV2 6TS,57.38188762,-4.33174289,S02002006,S01010665
NO EXCEPTIONS (Counselling And Psychotherapy Services),SC042524,Highland,IV2 6UJ,57.24911831,-4.42118942,S02002006,S01010665
Boleskine Community Care,SC044996,Highland,IV2 6YB,57.25399077,-4.49456239,S02002006,S01010665
Hilton Family Support,SC048719,Highland,IV2 6TW,57.38463711,-4.32641011,S02002006,S01010665
The Boleskine House Foundation SCIO,SC049568,Highland,IV2 6XT,57.266579,-4.47420016,S02002006,S01010665
Glenelg Mountain Rescue Association,SC007565,Highland,IV40 8JT,57.2096973,-5.62836568,S02002007,S01010669
Glenelg Village Hall,SC028045,Highland,IV40 8JD,57.21361707,-5.61965408,S02002007,S01010669
Arnisdale And Loch Hourn Community Association,SC030650,Highland,IV40 8JH,57.12459243,-5.55252109,S02002007,S01010669
Christian Outlook On Lochalsh,SC031455,Highland,IV40 8LA,57.22047324,-5.56325053,S02002007,S01010669
Inverinate And Loch Duich Community Centre,SC032489,Highland,IV40 8HE,57.23362566,-5.42375917,S02002007,S01010669
Glenelg and Arnisdale Development Trust,SC039874,Highland,IV40 8JT,57.2096973,-5.62836568,S02002007,S01010669
Loch Duich Lunch Club,SC042320,Highland,IV40 8HQ,57.23486797,-5.38092186,S02002007,S01010669
Glenelg and Arnisdale Bus User Group,SC046425,Highland,IV40 8JS,57.21262319,-5.62169408,S02002007,S01010669
Friends of Birnie,SC007653,Highland,IV2 3UJ,57.47383055,-4.19249287,S02001998,S01010624
Inverness Hospitals Broadcasting Service,SC007993,Highland,IV2 3UJ,57.47383055,-4.19249287,S02001998,S01010624
Raigmore Community Centre Management Committee,SC022627,Highland,IV2 3UY,57.47967506,-4.19174221,S02001998,S01010624
Clan Sinclair Trust,SC028778,Highland,IV2 3BW,57.47247657,-4.18664115,S02001998,S01010624
Stewart Bursary,SC030609,Highland,IV2 3BW,57.47247657,-4.18664115,S02001998,S01010624
Highland Senior Citizens Network,SC034260,Highland,IV2 3BL,57.47325059,-4.18967283,S02001998,S01010624
Community Action for Raigmore Estate,SC042209,Highland,IV2 3XA,57.47819369,-4.19425563,S02001998,S01010624
Reay Playgroup,SC007735,Highland,KW14 7RW,58.56370385,-3.75919046,S02002030,S01010798
Lieurary Hall Committee,SC012342,Highland,KW14 7QW,58.57116515,-3.62509705,S02002030,S01010798
Forss & District Public Hall Committee,SC020220,Highland,KW14 7YD,58.58053274,-3.68311633,S02002030,S01010798
Tongue & Farr Sports Association,SC023067,Highland,KW14 7RL,58.55651244,-3.79590549,S02002030,S01010798
Reay Hall,SC045134,Highland,KW14 7RE,58.56019955,-3.76907102,S02002030,S01010798
The Pilkington Trust,SC049666,Highland,KW14 7RQ,58.55692754,-3.78997941,S02002030,S01010798
Alness Community Association Ltd,SC007744,Highland,IV17 0SG,57.69562744,-4.25296873,S02002020,S01010737
Ross & Cromarty Citizens Advice Bureau,SC014736,Highland,IV17 0UD,57.69539437,-4.24788649,S02002020,S01010737
Alness Baptist Church,SC021217,Highland,IV17 0SJ,57.69616467,-4.25105549,S02002020,S01010737
Alness Academy Rock Challenge,SC033727,Highland,IV17 0SP,57.69758139,-4.24515236,S02002020,S01010737
Urquhart & Resolis Free Church of Scotland,SC007775,Highland,IV7 8AX,57.5604934,-4.43281833,S02002016,S01010711
Ferintosh Parish Church Of Scotland,SC012675,Highland,IV7 8BQ,57.56435206,-4.43262436,S02002016,S01010711
Resolis & Urquhart Church of Scotland,SC013643,Highland,IV7 8AA,57.56151894,-4.43974194,S02002016,S01010711
Air Training Corps No 2405 Dingwall Squadron Non Public Sports & Welfare Funds,SC024731,Highland,IV7 8BQ,57.56435206,-4.43262436,S02002016,S01010711
Highlands Astronomical Society,SC037209,Highland,IV7 8DG,57.56112878,-4.43108844,S02002016,S01010711
Dingwall Gaelic Choir,SC044726,Highland,IV7 8DG,57.56112878,-4.43108844,S02002016,S01010711
Conon and Maryburgh Outdoor Bowling Club,SC049331,Highland,IV7 8BE,57.56492038,-4.43204359,S02002016,S01010711
Thurso Players,SC007865,Highland,KW14 8PS,58.59045715,-3.5195828,S02002031,S01010802
1st Dunnet Bay Scout Group,SC036734,Highland,KW14 8QN,58.58672026,-3.52339448,S02002031,S01010802
Presbytery Of Caithness Sick Fund,SC007999,Highland,KW1 5TR,58.38872882,-3.13256137,S02002026,S01010773
Committee Of Management Of Thrumster Hall,SC030156,Highland,KW1 5TS,58.3902458,-3.13368765,S02002026,S01010773
Yarrows Heritage Trust,SC033188,Highland,KW1 5TR,58.38872882,-3.13256137,S02002026,S01010773
Latheron Agricultural Society,SC035164,Highland,KW3 6AY,58.30674692,-3.25867911,S02002026,S01010773
Clyth Community Association,SC040627,Highland,KW3 6BA,58.32379347,-3.2085768,S02002026,S01010773
Caithness Disabled Access Panel,SC045591,Highland,KW3 6BA,58.32379347,-3.2085768,S02002026,S01010773
Lybster & Tannach,SC046731,Highland,KW1 5TQ,58.39088345,-3.13673582,S02002026,S01010773
Inverness: St Columba Church of Scotland New Charge,SC008109,Highland,IV2 3EJ,57.45784084,-4.19380248,S02001992,S01010593
Second World War Air Raid Victims - Wick,SC035080,Highland,IV2 3EJ,57.45784084,-4.19380248,S02001992,S01010593
Balvonie Park Association,SC044235,Highland,IV2 6GF,57.45242211,-4.16630766,S02001992,S01010593
Kilmorack & Erchless Church Of Scotland,SC008121,Highland,IV3 5PJ,57.47077977,-4.23472051,S02002000,S01010630
Gairloch & District Pipe Band,SC045569,Highland,IV3 5PF,57.46826159,-4.23636777,S02002000,S01010630
The Open Door Project,SC050437,Highland,IV3 5PF,57.46826159,-4.23636777,S02002000,S01010630
Ardgour and Kingairloch Parish Church Of Scotland,SC008222,Highland,PH33 7AB,56.71660334,-5.26866272,S02001978,S01010508
Strontian Parish Church of Scotland,SC008982,Highland,PH36 4JA,56.704123,-5.57107239,S02001978,S01010508
Lochaline Village Hall,SC012524,Highland,PA80 5XU,56.54524424,-5.83932485,S02001978,S01010508
Morvern Parish Church of Scotland,SC015532,Highland,PA80 5XS,56.53503747,-5.78078221,S02001978,S01010508
Headway Highland,SC023551,Highland,PH36 4JB,56.71519913,-5.56229744,S02001978,S01010508
Morvern Community Transport Association,SC027699,Highland,PA80 5XS,56.53503747,-5.78078221,S02001978,S01010508
Ardgour Memorial Hall,SC028516,Highland,PH33 7AB,56.71660334,-5.26866272,S02001978,S01010508
St Columba's Drimnin Trust Limited,SC036887,Highland,PA80 5XZ,56.59870361,-5.96544603,S02001978,S01010508
Sunart Surgeries Equipment Fund,SC040380,Highland,PH36 4JB,56.71519913,-5.56229744,S02001978,S01010508
Ardgour Area SCIO,SC043386,Highland,PH33 7AB,56.71660334,-5.26866272,S02001978,S01010508
Ardgour Improvements (SCIO),SC046455,Highland,PH33 7AB,56.71660334,-5.26866272,S02001978,S01010508
Ewen's Room,SC048248,Highland,PH36 4HX,56.70289475,-5.70352347,S02001978,S01010508
Morvern Games and Gala Week,SC051236,Highland,PA80 5XS,56.53503747,-5.78078221,S02001978,S01010508
Nairn Academy Parent Council,SC008283,Highland,IV12 4EZ,57.58771233,-3.88205759,S02001987,S01010559
Nairn Museum Ltd,SC019425,Highland,IV12 4EE,57.58603264,-3.8741753,S02001987,S01010559
Air Training Corps No 1068 Nairn Squadron Non Public Sports & Welfare Funds,SC024742,Highland,IV12 4HH,57.5863311,-3.87706799,S02001987,S01010559
Nairn Community & Arts Centre,SC026041,Highland,IV12 4BQ,57.58560714,-3.87075755,S02001987,S01010559
Buidheann Paisdean Inbhir Narann,SC033397,Highland,IV12 4BQ,57.58560714,-3.87075755,S02001987,S01010559
Nairn Community Transport,SC036650,Highland,IV12 4BQ,57.58560714,-3.87075755,S02001987,S01010559
"Ardersier, Petty, Croy & Culloden Moor Transport Association ",SC037245,Highland,IV12 4BQ,57.58560714,-3.87075755,S02001987,S01010559
The Rosebank Mathare School Charity Project,SC038280,Highland,IV12 4HF,57.58682854,-3.88227959,S02001987,S01010559
Rosebank Primary School Parent Council,SC040400,Highland,IV12 4HQ,57.58624116,-3.87888678,S02001987,S01010559
Feasgar Math,SC043884,Highland,IV12 4BQ,57.58560714,-3.87075755,S02001987,S01010559
Riviera Community Enterprises,SC048312,Highland,IV12 4BE,57.58432087,-3.87085878,S02001987,S01010559
Nairn Bowling Club ,SC048439,Highland,IV12 4HP,57.58466537,-3.87489118,S02001987,S01010559
Nairn Free Church of Scotland,SC048656,Highland,IV12 4HL,57.58712524,-3.87985247,S02001987,S01010559
Nairn Sports Club SCIO,SC049153,Highland,IV12 4BF,57.58552919,-3.87177397,S02001987,S01010559
"Boat Of Garten, Carrbridge And Kincardine Parish Church Of Scotland",SC008346,Highland,PH24 3BQ,57.2502027,-3.75103746,S02001983,S01010540
Boat Of Garten Community Company,SC032531,Highland,PH24 3BN,57.24877258,-3.75758302,S02001983,S01010540
Boat Of Garten Community Hall,SC035682,Highland,PH24 3BL,57.24896409,-3.76379121,S02001983,S01010540
Dr White's Bequest For The Poor Of Rosskeen Parish,SC008469,Highland,IV17 0TP,57.7000988,-4.23236867,S02002020,S01010736
Royal British Legion Scotland Invergordon Branch,SC029009,Highland,IV17 0WZ,57.70156721,-4.23418776,S02002020,S01010736
Kensal Community Centre,SC030110,Highland,IV17 0PL,57.70075319,-4.23601731,S02002020,S01010736
Ardross Church Trust,SC043806,Highland,IV17 0TP,57.7000988,-4.23236867,S02002020,S01010736
Invergordon Development Trust,SC049418,Highland,IV17 0PQ,57.7009313,-4.2366157,S02002020,S01010736
League Of Friends Of The Town And County Hospital,SC008499,Highland,IV12 5QD,57.58411928,-3.85895507,S02001986,S01010558
Nairn River Enterprise,SC047727,Highland,IV12 5QW,57.58393234,-3.85272289,S02001986,S01010558
Highland Breast Care Association,SC008627,Highland,IV2 3LA,57.47631468,-4.21435885,S02001999,S01010629
Inverness Crown Action with the Unemployed,SC021448,Highland,IV2 3JT,57.47630713,-4.21734409,S02001999,S01010629
Crown Corner Club,SC032151,Highland,IV2 3JT,57.47630713,-4.21734409,S02001999,S01010629
St. Stephens Toddler Group,SC039216,Highland,IV2 3NT,57.47848185,-4.21477361,S02001999,S01010629
Highland Multicultural Friends,SC043200,Highland,IV2 3JZ,57.47648541,-4.21486958,S02001999,S01010629
Museums and Heritage Highland,SC049088,Highland,IV2 3JZ,57.47648541,-4.21486958,S02001999,S01010629
Fraser Park Bowling Club,SC051081,Highland,IV2 3LJ,57.4759875,-4.21098643,S02001999,S01010629
Ardgay Public Hall,SC008669,Highland,IV24 3DR,57.87962979,-4.36283441,S02002024,S01010762
Edderton SCIO,SC013535,Highland,IV24 3DL,57.85669202,-4.30511543,S02002024,S01010762
Kyle Of Sutherland Heritage Society,SC014547,Highland,IV24 3DJ,57.87137198,-4.35269765,S02002024,S01010762
Kincardine Croick & Edderton Church of Scotland,SC016877,Highland,IV24 3DJ,57.87137198,-4.35269765,S02002024,S01010762
Lairg Church Of Scotland,SC020871,Highland,IV24 3DJ,57.87137198,-4.35269765,S02002024,S01010762
Edderton Mothers & Toddlers Group,SC022320,Highland,IV19 1JY,57.83530048,-4.17267244,S02002024,S01010762
Creich Croick & Kincardine District Day Care Association,SC023259,Highland,IV24 3DJ,57.87137198,-4.35269765,S02002024,S01010762
Presbytery Of Sutherland,SC034932,Highland,IV24 3DJ,57.87137198,-4.35269765,S02002024,S01010762
Dornoch Firth Group SCIO,SC042553,Highland,IV24 3DJ,57.87137198,-4.35269765,S02002024,S01010762
Holm Evangelical Church,SC008681,Highland,IV2 6AS,57.44838591,-4.22875369,S02001993,S01010598
23rd Inverness Guide Unit,SC036579,Highland,IV2 6RB,57.44325692,-4.22662513,S02001993,S01010598
23rd Inverness Brownies,SC036621,Highland,IV2 6RG,57.44508668,-4.23290268,S02001993,S01010598
HighAbility : Voices of Inclusion,SC050124,Highland,IV2 6RH,57.4432291,-4.22870655,S02001993,S01010598
Dalneigh Congregation Of Jehovahs Witnesses,SC008845,Highland,IV3 8SD,57.4808984,-4.25785954,S02002003,S01010647
Muirtown After School Klub (Mask),SC033476,Highland,IV3 8NS,57.48318815,-4.2544307,S02002003,S01010647
9th Inverness (Methodist) Rainbows,SC035771,Highland,IV3 8SF,57.48071699,-4.25594659,S02002003,S01010647
Seaforth Highlanders Association Ross-Shire Bch,SC009111,Highland,IV15 9QB,57.59964299,-4.4384969,S02002017,S01010712
Homeless Action Inverness,SC022760,Highland,IV15 9SL,57.5995489,-4.44382984,S02002017,S01010712
Highland Red Squirrel Group,SC036439,Highland,IV15 9XB,57.601281,-4.44997189,S02002017,S01010712
Highland Third Sector Interface,SC043521,Highland,IV15 9SL,57.5995489,-4.44382984,S02002017,S01010712
"MySelf-Management, SCIO",SC050558,Highland,IV15 9SL,57.5995489,-4.44382984,S02002017,S01010712
Culcabock & Drakies Community Hall Association,SC009616,Highland,IV2 3RL,57.47250866,-4.19616621,S02001997,S01010616
Spectrum Centre,SC021778,Highland,IV2 3RL,57.47250866,-4.19616621,S02001997,S01010616
Duke Of Edinburgh's Award-Highland Award Project,SC022420,Highland,IV2 3SB,57.46972607,-4.19703317,S02001997,S01010616
1st Beauly Brownie Unit,SC039034,Highland,IV2 3SB,57.46972607,-4.19703317,S02001997,S01010616
Inshes Community Association,SC048469,Highland,IV2 3RL,57.47250866,-4.19616621,S02001997,S01010616
St Finnbarrs Episcopal Church: Dornoch,SC009639,Highland,IV25 3QQ,57.92190936,-4.03908677,S02002024,S01010764
Rogart Church Of Scotland,SC010035,Highland,IV28 3XA,57.98779248,-4.15453093,S02002024,S01010764
Pittentrail Recreation Hall Committee,SC022081,Highland,IV28 3YD,58.01689395,-4.13799587,S02002024,S01010764
Comann Eachraidh Sgire Raoird Rogart Heritage Society,SC023777,Highland,IV28 3UB,58.0097982,-4.23253497,S02002024,S01010764
Rogart Development Trust,SC047012,Highland,IV28 3UD,58.00097603,-4.22325302,S02002024,S01010764
"Episcopal Churches Of St James, Dingwall & St Anne's Strathpeffer",SC009686,Highland,IV15 9LL,57.60381187,-4.42779516,S02002017,S01010717
Dingwall Community Development Company,SC047653,Highland,IV15 9LL,57.60381187,-4.42779516,S02002017,S01010717
Thurso Unit (No 511) of the Sea Cadet Corps,SC009785,Highland,KW14 8HN,58.59511366,-3.51242043,S02002030,S01010794
Halkirk Village Council,SC029689,Highland,KW14 8DG,58.59233178,-3.50454086,S02002030,S01010794
Croileagan Shleite,SC009872,Highland,IV43 8QS,57.13969939,-5.80647363,S02002008,S01010676
Urras Na H-Aiseirigh,SC009943,Highland,IV43 8QR,57.14544001,-5.79952144,S02002008,S01010676
The Friends Of Dr Mackinnon Memorial Hospital,SC017086,Highland,IV43 8QX,57.15467069,-5.80022099,S02002008,S01010676
Seall,SC024859,Highland,IV44 8RQ,57.08620468,-5.87987284,S02002008,S01010676
Tarskavaig Communities Hall Association,SC027775,Highland,IV44 8QL,57.13420118,-5.96515167,S02002008,S01010676
Sleat Community Trust,SC035316,Highland,IV45 8RS,57.06226132,-5.90324927,S02002008,S01010676
Fas Mor,SC036011,Highland,IV44 8RQ,57.08620468,-5.87987284,S02002008,S01010676
Gaidhlig San Dachaigh (eilean Sgitheanach A Deas's Loch Aillse),SC036535,Highland,IV43 8QS,57.13969939,-5.80647363,S02002008,S01010676
Lochalsh Youth Community Trust,SC040020,Highland,IV43 8QR,57.14544001,-5.79952144,S02002008,S01010676
Skye and Lochalsh Environment Forum,SC040820,Highland,IV43 8QR,57.14544001,-5.79952144,S02002008,S01010676
Camuscross & Duisdale Initiative,SC041149,Highland,IV43 8QT,57.1323086,-5.8064746,S02002008,S01010676
Urray & Kilchrist Church Of Scotland,SC009902,Highland,IV6 7XL,57.52275958,-4.46624694,S02002015,S01010705
Alexander Mackenzie's Trust,SC012794,Highland,IV6 7XL,57.52275958,-4.46624694,S02002015,S01010705
Grantown-On-Spey Church Of Scotland,SC010001,Highland,PH23 3BH,57.2848346,-3.81214544,S02001983,S01010541
Dulnain Bridge Church Of Scotland,SC014015,Highland,PH23 3BH,57.2848346,-3.81214544,S02001983,S01010541
Buidheann-Brosnachaidh Na Gaidhlig - Sinne (Badenoch And Strathspey Gaelic Group),SC033151,Highland,PH23 3AZ,57.28117222,-3.83051276,S02001983,S01010541
Carr- Bridge Ahead,SC035965,Highland,PH23 3BE,57.28149428,-3.8082651,S02001983,S01010541
Carrbridge Village Hall,SC048502,Highland,PH23 3AA,57.28063503,-3.81240351,S02001983,S01010541
Dalwhinnie Community Development Trust ,SC048796,Highland,PH23 3AQ,57.28035295,-3.81078047,S02001983,S01010541
Robert Andrew Munro - RAM Foundation SCIO ,SC049136,Highland,PH23 3AP,57.27718591,-3.84444784,S02001983,S01010541
Croileagan Inbhir Pheofharain,SC010077,Highland,IV15 9JZ,57.59710199,-4.4271971,S02002017,S01010716
Dingwall Community Centre,SC021857,Highland,IV15 9JZ,57.59710199,-4.4271971,S02002017,S01010716
Youth Highland SCIO,SC027712,Highland,IV15 9HA,57.59490465,-4.42464075,S02002017,S01010716
Highland Football Academy Trust,SC033509,Highland,IV15 9QZ,57.59590273,-4.41992082,S02002017,S01010716
Mathan Beag Inbhir Pheofharain,SC033953,Highland,IV15 9JZ,57.59710199,-4.4271971,S02002017,S01010716
The MacKenzie New York Villa Trust,SC037531,Highland,IV15 9JH,57.5939399,-4.4248108,S02002017,S01010716
Friends Of St Clement's,SC037740,Highland,IV15 9JZ,57.59710199,-4.4271971,S02002017,S01010716
North Highland Radio (SCIO),SC045798,Highland,IV15 9RU,57.59531508,-4.42853396,S02002017,S01010716
Dingwall Fire Brigade Community Group (SCIO),SC047925,Highland,IV15 9HU,57.59715113,-4.4237025,S02002017,S01010716
St Michaels & All Angels Episcopal Church: Inverness,SC010352,Highland,IV2 5HW,57.46508985,-4.18513263,S02001992,S01010594
Fort William Congregation Of Jehovahs Witnesses,SC010758,Highland,PH33 7EY,56.83779276,-5.09697434,S02001979,S01010511
Invergordon Church Of Scotland,SC010964,Highland,IV18 0BY,57.69228473,-4.17546002,S02002021,S01010743
The Ross & Cromarty Pipes & Drums School,SC035451,Highland,IV18 0BX,57.69164879,-4.17795545,S02002021,S01010743
Ardross Nursery,SC011029,Highland,IV18 0LN,57.72167439,-4.16394125,S02002014,S01010702
Ross & Cromarty Ball Association,SC017083,Highland,IV18 0PE,57.76063528,-4.11755426,S02002014,S01010702
Barbaraville Improvement Group Ltd,SC030932,Highland,IV18 0NA,57.72230444,-4.1031058,S02002014,S01010702
Hope - Invergordon,SC047675,Highland,IV18 0NP,57.72057635,-4.14716777,S02002014,S01010702
Friends Of Seaforth,SC011249,Highland,IV2 5EY,57.482503,-4.05586785,S02001988,S01010568
Girlguiding Inverness-shire,SC013694,Highland,IV2 5PT,57.52513158,-4.0356703,S02001988,S01010568
Highland Disabled Ramblers,SC032233,Highland,IV2 5PQ,57.52102677,-4.01263011,S02001988,S01010568
Inverness Campanile,SC050452,Highland,IV2 5PQ,57.52102677,-4.01263011,S02001988,S01010568
Tornagrain Community Association,SC050907,Highland,IV2 8AQ,57.52729562,-4.03630872,S02001988,S01010568
Presbytery Of Inverness,SC011357,Highland,IV2 6ET,57.44803193,-4.21928195,S02001994,S01010600
Urquhart & Glenmoriston Church Of Scotland,SC016627,Highland,IV2 6UQ,57.45630777,-4.19876182,S02001994,S01010600
21st Inverness Lochardil Scouts Group,SC019255,Highland,IV2 4ER,57.45538583,-4.2251789,S02001994,S01010600
25th Inverness (Drakies) Brownie Unit,SC050706,Highland,IV2 6UT,57.45780061,-4.19971839,S02001994,S01010600
Ullapool and District Pipe Band,SC011393,Highland,IV26 2XR,57.90433918,-5.16404128,S02002012,S01010692
Ullaspool,SC011440,Highland,IV26 2TU,57.90210498,-5.16424992,S02002012,S01010692
Ullapool High School - School Fund Committee,SC023146,Highland,IV26 2UN,57.89825651,-5.15493086,S02002012,S01010692
Sradagan Loch A' Bhraoin,SC024060,Highland,IV26 2XL,57.90211013,-5.15754801,S02002012,S01010692
Dingwall Players,SC027461,Highland,IV26 2AE,57.90296016,-5.15986806,S02002012,S01010692
Ullapool Sea Savers SCIO ,SC049213,Highland,IV26 2TE,57.90147504,-5.15923113,S02002012,S01010692
Lochaber Mountain Rescue Team,SC011549,Highland,PH33 6UH,56.8048591,-5.11676857,S02001980,S01010518
Lochaber Phoenix Amateur Boxing Club,SC050217,Highland,PH33 6UQ,56.8050853,-5.11814733,S02001980,S01010518
"Dalneigh & Bona Parish Church of Scotland, Inverness",SC011773,Highland,IV2 7NH,57.47756208,-4.15692072,S02001991,S01010582
Torridon Mountain Rescue Team,SC015356,Highland,IV2 5GQ,57.47481544,-4.16723316,S02001991,S01010582
1st Balloch (Inverness) Guide Unit,SC047821,Highland,IV2 7AT,57.48374367,-4.1558839,S02001991,S01010582
1st Wick Company Boys Brigade,SC012347,Highland,KW1 4NS,58.44384729,-3.09160688,S02002028,S01010782
"1st Caithness, 1st Wick Scouts",SC037123,Highland,KW1 4DD,58.44489444,-3.09520272,S02002028,S01010782
Staxigoe Village Hall,SC012353,Highland,KW1 4SB,58.45278577,-3.05603634,S02002028,S01010786
Caithness Music Association,SC031180,Highland,KW1 4RF,58.44491197,-3.06756982,S02002028,S01010786
Sheila's Open Door,SC037499,Highland,KW1 4PR,58.44597013,-3.07315271,S02002028,S01010786
Mey Highland Games (SCIO),SC048940,Highland,KW1 4RF,58.44491197,-3.06756982,S02002028,S01010786
Caithness Foodbank SCIO,SC050903,Highland,KW1 4SB,58.45278577,-3.05603634,S02002028,S01010786
Canisbay Rainbow Toddlers,SC012361,Highland,KW1 4XX,58.59786184,-3.07086832,S02002029,S01010790
Canisbay Hall Committee,SC019701,Highland,KW1 4YH,58.63215652,-3.11804213,S02002029,S01010790
Freswick Hall,SC024452,Highland,KW1 4XX,58.59786184,-3.07086832,S02002029,S01010790
Mey Village Hall,SC024554,Highland,KW1 4YR,58.63954416,-3.07319531,S02002029,S01010790
Thurso Weight Training And Fitness Club,SC034272,Highland,KW1 4YH,58.63215652,-3.11804213,S02002029,S01010790
Canisbay Youth Club,SC034977,Highland,KW1 4YB,58.63739786,-3.1650473,S02002029,S01010790
John O'Groats New Hall,SC037253,Highland,KW1 4YR,58.63954416,-3.07319531,S02002029,S01010790
Caithness Rugby Football Club,SC038048,Highland,KW1 4YL,58.64184547,-3.10374244,S02002029,S01010790
John O'Groats Mill Trust,SC047345,Highland,KW1 4YR,58.63954416,-3.07319531,S02002029,S01010790
St Clare Hall,SC048453,Highland,KW1 4XP,58.56063027,-3.08508053,S02002029,S01010790
John O'Groats Development Trust,SC048716,Highland,KW1 4YR,58.63954416,-3.07319531,S02002029,S01010790
Tain Parish Church of Scotland,SC012425,Highland,IV19 1JT,57.80680419,-4.06219112,S02002023,S01010753
Tain Arthritis Support Group,SC036395,Highland,IV19 1JT,57.80680419,-4.06219112,S02002023,S01010753
Spean Bridge Playgroup,SC012958,Highland,PH34 4HA,56.89213593,-4.91836043,S02001981,S01010529
Kilmonivaig Parish Church of Scotland,SC014745,Highland,PH34 4EZ,56.89234563,-4.91707943,S02001981,S01010529
"Spean Bridge, Roy Bridge and Achnacarry  SCIO",SC044101,Highland,PH34 4EZ,56.89234563,-4.91707943,S02001981,S01010529
An Ealdhain Arts Trust,SC045211,Highland,PH34 4EU,56.89502364,-4.91324817,S02001981,S01010529
Fort William Men's Shed,SC045365,Highland,PH31 4AQ,56.8907262,-4.86630969,S02001981,S01010529
Spean Bridge Community Centre (SCIO),SC048249,Highland,PH34 4EP,56.89073451,-4.92140401,S02001981,S01010529
Spean Bridge Golf Club SCIO,SC050757,Highland,PH31 4AQ,56.8907262,-4.86630969,S02001981,S01010529
Connecting Spean Roy Area SCIO,SC050885,Highland,PH31 4AQ,56.8907262,-4.86630969,S02001981,S01010529
Fort William Kilmallie Church of Scotland,SC013279,Highland,PH33 6BA,56.81885132,-5.10789998,S02001980,S01010522
Lochaber Citizens Advice Bureau,SC013779,Highland,PH33 6JB,56.81835511,-5.10833419,S02001980,S01010522
St Andrews Episcopal Church: Fort William,SC023278,Highland,PH33 6BA,56.81885132,-5.10789998,S02001980,S01010522
West Highland College UHI,SC024193,Highland,PH33 6FF,56.82285899,-5.10795347,S02001980,S01010522
Lochaber Community Wind Band,SC025655,Highland,PH33 6BD,56.81787968,-5.10793419,S02001980,S01010522
Linnhe Leisure,SC026074,Highland,PH33 6AN,56.82217519,-5.10581493,S02001980,S01010522
Lochaber Housing Association Limited,SC030951,Highland,PH33 6DG,56.81699969,-5.11330286,S02001980,S01010522
Shopmobility Lochaber SCIO,SC032332,Highland,PH33 6GD,56.8206531,-5.10593474,S02001980,S01010522
Highland Disability Sport,SC015048,Highland,PH33 6XL,56.82386177,-5.1001678,S02001980,S01010522
Lochaber Women's Aid,SC034484,Highland,PH33 6BF,56.82047405,-5.10410042,S02001980,S01010522
Lochaber Hope,SC037003,Highland,PH33 6ES,56.82174022,-5.09909081,S02001980,S01010522
Lochaber Geopark Association,SC038372,Highland,PH33 6DH,56.81818505,-5.1111885,S02001980,S01010522
Lochaber Care & Repair,SC038727,Highland,PH33 6DG,56.81699969,-5.11330286,S02001980,S01010522
Lochaber Foodbank,SC043846,Highland,PH33 6EU,56.81924153,-5.10919445,S02001980,S01010522
West Highland Museum Trust,SC047954,Highland,PH33 6AJ,56.8177916,-5.11038549,S02001980,S01010522
Dulnain Bridge Public Hall (SCIO),SC013369,Highland,PH26 3PA,57.29416383,-3.67861356,S02001984,S01010543
The Grantown Society (SCIO),SC050104,Highland,PH26 3PR,57.35073803,-3.61128984,S02001984,S01010543
Kilmuir & Logie Easter Church Of Scotland,SC013375,Highland,IV19 1RE,57.8121306,-4.06283195,S02002023,S01010756
Royal Burgh Of Tain Pipe Band,SC024907,Highland,IV19 1PB,57.81279963,-4.04371277,S02002023,S01010756
Fyrish Gymnastics Club,SC046508,Highland,IV19 1RE,57.8121306,-4.06283195,S02002023,S01010756
Ross County Girls and Women,SC050774,Highland,IV19 1LU,57.81222804,-4.06898195,S02002023,S01010756
St Ninians Episcopal Church: Invergordon,SC013625,Highland,IV18 0DL,57.68834013,-4.16814361,S02002021,S01010745
Brora Primary Parent Council,SC013711,Highland,KW9 6PL,58.00777702,-3.8581639,S02002025,S01010768
Brora Social Amenities Group,SC034111,Highland,KW9 6PJ,58.00758479,-3.85656301,S02002025,S01010768
Brora and District Action Group-BaDAG,SC043968,Highland,KW9 6PT,58.0105624,-3.85074231,S02002025,S01010768
Fascally Park Development Group  ,SC045809,Highland,KW9 6NY,58.01091956,-3.85705737,S02002025,S01010768
East Sutherland Live Arts and Entertainment,SC048833,Highland,KW9 6PH,58.00817092,-3.85579789,S02002025,S01010768
Dornoch and District Community Association,SC013716,Highland,IV25 3BG,57.88176913,-4.02323618,S02002024,S01010759
Norlin Playgroup (SCIO),SC013738,Highland,KW1 4JQ,58.44519477,-3.07885113,S02002028,S01010784
Home-Start East Highland Ltd,SC014048,Highland,IV18 0SA,57.69549871,-4.1682862,S02002021,S01010741
Invergordon Junior Football Club,SC037171,Highland,IV18 0LW,57.69627324,-4.17707524,S02002021,S01010741
Spean Bridge Community Centre,SC014053,Highland,PH34 4EX,56.88759688,-4.96528026,S02001981,S01010528
Roy Bridge Memorial Hall,SC014673,Highland,PH31 4AG,56.88807514,-4.83717459,S02001981,S01010528
The Laggan Forest Trust,SC029029,Highland,PH20 1BU,57.00133697,-4.31781942,S02001981,S01010528
Roy Bridge School House Project,SC034193,Highland,PH31 4AG,56.88807514,-4.83717459,S02001981,S01010528
Cothroman Ceol Beul Aithriseach,SC037474,Highland,PH34 4EX,56.88759688,-4.96528026,S02001981,S01010528
Roy Bridge Primary School Parent Council,SC040091,Highland,PH31 4AE,56.89086472,-4.84216472,S02001981,S01010528
6th Lochaber (The Braes),SC044108,Highland,PH31 4AR,56.8884376,-4.68336687,S02001981,S01010528
Lochcarron Parent & Toddler Group,SC014191,Highland,IV54 8UF,57.40631643,-5.47967912,S02002011,S01010689
Lochcarron Community Development Company,SC020150,Highland,IV54 8YS,57.41488052,-5.47327872,S02002011,S01010689
The Howard Doris Centre,SC021024,Highland,IV54 8YQ,57.39041768,-5.51060213,S02002011,S01010689
Lochcarron Village Hall Association SCIO ,SC033838,Highland,IV54 8YD,57.39884329,-5.49728749,S02002011,S01010689
Strathcarron Development Fund,SC034500,Highland,IV54 8YQ,57.39041768,-5.51060213,S02002011,S01010689
Lochcarron Leisure Centre,SC040502,Highland,IV54 8YD,57.39884329,-5.49728749,S02002011,S01010689
Lochcarron Primary School Parent Council,SC041959,Highland,IV54 8YS,57.41488052,-5.47327872,S02002011,S01010689
Fortrose Pre School Limited,SC014259,Highland,IV10 8TJ,57.58115207,-4.12618205,S02002018,S01010720
Kathleen Sangster Memorial Fund,SC027624,Highland,IV10 8TZ,57.58196068,-4.12778492,S02002018,S01010720
Black Isle Cares,SC045371,Highland,IV10 8TJ,57.58115207,-4.12618205,S02002018,S01010720
Black Isle Men's Shed,SC048114,Highland,IV10 8SD,57.5806304,-4.11014373,S02002018,S01010720
St Ninians Episcopal Church: Glenurquhart,SC014759,Highland,IV63 6TJ,57.33795143,-4.58439557,S02002006,S01010664
Drumnadrochit Toddler Group,SC021098,Highland,IV63 6TW,57.33315446,-4.67244428,S02002006,S01010664
Balnain Community Hall,SC022895,Highland,IV63 6TL,57.3416907,-4.58085228,S02002006,S01010664
Glenurquhart Care Project,SC023575,Highland,IV63 6TJ,57.33795143,-4.58439557,S02002006,S01010664
1st Glenurquhart Brownie Unit,SC038713,Highland,IV63 6UA,57.33938981,-4.50306185,S02002006,S01010664
Soirbheas,SC041340,Highland,IV63 6TH,57.33264134,-4.55753582,S02002006,S01010664
Clann an Eich 'Children of the Horse',SC050715,Highland,IV63 6TW,57.33315446,-4.67244428,S02002006,S01010664
Inverness Reformed Baptist Church,SC014800,Highland,IV3 5QH,57.47839189,-4.23717056,S02002001,S01010636
Inverness Choral Society,SC015219,Highland,IV2 3NR,57.47837735,-4.21304917,S02001998,S01010621
"Crown Church, Inverness (Church of Scotland)",SC018159,Highland,IV2 3QG,57.47860231,-4.21149477,S02001998,S01010621
"Old High St Stephen's Church of Scotland, Inverness",SC035073,Highland,IV2 3NP,57.47888927,-4.21459811,S02001998,S01010621
Crown Community Centre,SC040238,Highland,IV2 3NP,57.47888927,-4.21459811,S02001998,S01010621
Young Crown (SCIO),SC045802,Highland,IV2 3NJ,57.48017427,-4.21612721,S02001998,S01010621
3rd Inverness (Crown) Scout Group,SC032905,Highland,IV2 3QJ,57.47732266,-4.2086318,S02001998,S01010621
Alness Parish Church of Scotland,SC015227,Highland,IV18 0JX,57.69826048,-4.14383277,S02002021,S01010744
Easter Ross Musical Theatre,SC018184,Highland,IV18 0JX,57.69826048,-4.14383277,S02002021,S01010744
Friends Of Highland Young Musicians,SC028106,Highland,IV18 0HZ,57.6982635,-4.15212302,S02002021,S01010744
Invergordon Off The Wall,SC034209,Highland,IV18 0JP,57.69931678,-4.14141148,S02002021,S01010744
Cromarty Firth Men's Shed ,SC047323,Highland,IV18 0HL,57.69468789,-4.15526686,S02002021,S01010744
Highland And Islands Blood Bikes,SC049345,Highland,IV18 0HL,57.69468789,-4.15526686,S02002021,S01010744
Muir of Ord & District Community Association,SC015378,Highland,IV6 7TN,57.50472494,-4.49092218,S02002015,S01010703
Chapelton Farm Rda Group,SC034378,Highland,IV6 7XN,57.52886477,-4.46697679,S02002015,S01010703
Muir of Ord Development Trust,SC044689,Highland,IV6 7TN,57.50472494,-4.49092218,S02002015,S01010703
The Ness Sinfonia,SC047808,Highland,IV6 7RQ,57.52684648,-4.44602702,S02002015,S01010703
Inverness Trinity Church of Scotland,SC015432,Highland,IV2 7HL,57.49541346,-4.11246516,S02001989,S01010576
"Boys' Brigade, Highland Battalion",SC031897,Highland,IV2 7HL,57.49541346,-4.11246516,S02001989,S01010576
Balloch Village Trust Community Company,SC037685,Highland,IV2 5EA,57.48876664,-4.105891,S02001989,S01010576
Highland Gospel Male Voice Choir,SC050090,Highland,IV2 7HL,57.49541346,-4.11246516,S02001989,S01010576
Ardersier Parish Church Of Scotland,SC015446,Highland,IV2 7QN,57.57145189,-4.02651724,S02001988,S01010569
Drummond School Welfare Fund,SC015504,Highland,IV2 4NZ,57.45816231,-4.22721488,S02001994,S01010601
SNAP Special Needs Action Project,SC024792,Highland,IV2 4NZ,57.45816231,-4.22721488,S02001994,S01010601
Thriving Families,SC024835,Highland,IV2 4NZ,57.45816231,-4.22721488,S02001994,S01010601
10th Inverness Charleston Rainbows,SC038248,Highland,IV2 4RY,57.4530333,-4.22508594,S02001994,S01010601
Clan Cameron's Charitable Trust,SC015649,Highland,PH34 4EJ,56.94577187,-4.98213654,S02001981,S01010530
Lochaber Music Festival Association,SC023057,Highland,PH34 4DY,56.95289689,-4.91866975,S02001981,S01010530
Lochaber Friendship Group For The Visually Impaired,SC028101,Highland,PH35 4HP,57.06702755,-4.80095032,S02001981,S01010530
Glengarry And District Community Association,SC030595,Highland,PH35 4HG,57.06886027,-4.81740657,S02001981,S01010530
The Glengarry Trust,SC040389,Highland,PH34 4EA,57.03210983,-4.81661732,S02001981,S01010530
Glengarry Highland Games Association,SC041599,Highland,PH35 4HR,57.07255312,-4.98049288,S02001981,S01010530
"The Achnacarry,Bunarkaig and Clunes Community Group",SC044233,Highland,PH34 4EJ,56.94577187,-4.98213654,S02001981,S01010530
Arkaig Community Forest,SC045209,Highland,PH34 4EJ,56.94577187,-4.98213654,S02001981,S01010530
Glengarry Community Woodlands ,SC046134,Highland,PH35 4HG,57.06886027,-4.81740657,S02001981,S01010530
Moy Dalarossie & Tomatin Church of Scotland,SC015653,Highland,IV13 7YA,57.30471252,-4.02056627,S02001988,S01010566
St Pauls Episcopal Church: Strathnairn,SC023268,Highland,IV13 7YQ,57.39083209,-4.05236152,S02001988,S01010566
Strathnairn Community Benefit Fund Limited,SC036807,Highland,IV2 6AX,57.38790912,-4.18027006,S02001988,S01010566
Strathdearn Community Charitable Trust,SC037168,Highland,IV13 7YN,57.3318394,-3.98951035,S02001988,S01010566
4th Inverness Guides (Methodists),SC037878,Highland,IV13 7YQ,57.39083209,-4.05236152,S02001988,S01010566
Care in Strathnairn,SC038826,Highland,IV2 6UB,57.31857037,-4.24350763,S02001988,S01010566
Strathdearn Community Developments,SC044487,Highland,IV13 7YN,57.3318394,-3.98951035,S02001988,S01010566
Strathdearn Daycare Committee,SC045891,Highland,IV13 7YN,57.3318394,-3.98951035,S02001988,S01010566
Strathnairn Music Initiative ,SC046698,Highland,IV2 6UE,57.30752557,-4.25814304,S02001988,S01010566
Strathnairn Development Company,SC049596,Highland,IV2 6AX,57.38790912,-4.18027006,S02001988,S01010566
Highland Christian School Ltd,SC050482,Highland,IV2 6XA,57.38472936,-4.18124589,S02001988,S01010566
Inverness Fiddlers Society,SC015759,Highland,IV2 4QR,57.46071845,-4.23002139,S02001995,S01010610
Florians,SC016076,Highland,IV2 4JS,57.46031531,-4.22741257,S02001995,S01010610
Day1 Ltd,SC036896,Highland,IV2 4QT,57.46031295,-4.23313114,S02001995,S01010610
Culduthel Woods Group,SC049665,Highland,IV2 4LT,57.45887713,-4.23556103,S02001995,S01010610
Torridon District Community Association,SC016416,Highland,IV22 2EZ,57.54681491,-5.51304189,S02002011,S01010688
Applecross & District Health Care Association,SC016771,Highland,IV54 8LY,57.38012263,-5.80345381,S02002011,S01010688
Mary Hamilton Trust,SC023227,Highland,IV54 8XN,57.52303364,-5.65049574,S02002011,S01010688
Applecross Community Hall,SC027220,Highland,IV54 8LQ,57.40739713,-5.81428033,S02002011,S01010688
Applecross Historical Society,SC030267,Highland,IV54 8LY,57.38012263,-5.80345381,S02002011,S01010688
Torridon Medical Practice Fund,SC030735,Highland,IV22 2HB,57.55617687,-5.60246854,S02002011,S01010688
The Kinloch Woodlands SCIO,SC031020,Highland,IV54 8XJ,57.5108875,-5.64709271,S02002011,S01010688
"Applecross, Lochcarron and Torridon Church of Scotland",SC032334,Highland,IV54 8LY,57.38012263,-5.80345381,S02002011,S01010688
South West Ross Community Care Forum,SC033150,Highland,IV54 8LU,57.4087079,-5.81375039,S02002011,S01010688
South West Ross Community Car Scheme,SC034461,Highland,IV22 2EZ,57.54681491,-5.51304189,S02002011,S01010688
Shieldaig Community Association SCIO,SC036994,Highland,IV54 8XN,57.52303364,-5.65049574,S02002011,S01010688
Applecross Community Company,SC042865,Highland,IV54 8LR,57.43225038,-5.81628582,S02002011,S01010688
The Mahler Players,SC044711,Highland,IV54 8XD,57.40436123,-5.61065398,S02002011,S01010688
Applecross Community Minibus,SC045799,Highland,IV54 8LQ,57.40739713,-5.81428033,S02002011,S01010688
The Kishorn Community Trust,SC048433,Highland,IV54 8XA,57.39944921,-5.59947867,S02002011,S01010688
St Johns Episcopal Church: Wick,SC016432,Highland,KW1 4PF,58.4438445,-3.07600028,S02002028,S01010785
Rotary Club Of Wick Charitable Trust Fund,SC022940,Highland,KW1 4JJ,58.44312323,-3.07846222,S02002028,S01010785
Caithness Heart Support Group,SC028475,Highland,KW1 4PQ,58.4435111,-3.07076514,S02002028,S01010785
Wick Flower Baskets Committee,SC032623,Highland,KW1 4JP,58.44384779,-3.07774776,S02002028,S01010785
Friends Of Newtonhill Woodland,SC033538,Highland,KW1 4NZ,58.44410589,-3.08441973,S02002028,S01010785
Rumster Outdoor Centre Management Group,SC035812,Highland,KW1 4PF,58.4438445,-3.07600028,S02002028,S01010785
MS People Caithness,SC042191,Highland,KW1 4NX,58.44355074,-3.08527633,S02002028,S01010785
Kinlochewe Village Hall,SC016458,Highland,IV22 2PA,57.60549063,-5.29944708,S02002013,S01010698
Garve Public/Village Hall,SC025656,Highland,IV23 2PP,57.61538653,-4.68783595,S02002013,S01010698
Fieldwork Trust (Scotland),SC030368,Highland,IV23 2PU,57.62291277,-4.68381953,S02002013,S01010698
Kinlochewe Primary School Parent Council,SC045973,Highland,IV22 2PA,57.60549063,-5.29944708,S02002013,S01010698
Garve Public Hall- SCIO ,SC050402,Highland,IV23 2PR,57.61591677,-4.68867895,S02002013,S01010698
Mallaig Heritage Centre,SC016510,Highland,PH41 4PY,57.00593299,-5.82896839,S02001978,S01010507
Mallaig And Morar Community Centre Association,SC028019,Highland,PH41 4PX,57.00611932,-5.83022346,S02001978,S01010507
Friends Of Mallaig And District Swimming Pool Association,SC032456,Highland,PH41 4RG,56.99968612,-5.83007224,S02001978,S01010507
2nd Inverness (Kingsmills) Scout Group,SC016603,Highland,IV2 7WX,57.48103571,-4.14237893,S02001990,S01010580
Thurso St Peter's & St Andrew's Church of Scotland,SC016691,Highland,KW14 7PX,58.59378326,-3.53824056,S02002032,S01010807
"Thurso Squash, Tennis and Racketball Club",SC033519,Highland,KW14 7PX,58.59378326,-3.53824056,S02002032,S01010807
1st Thurso Brownie Unit,SC034431,Highland,KW14 7PX,58.59378326,-3.53824056,S02002032,S01010807
North Kessock Amenities Association,SC016774,Highland,IV1 3XX,57.50582971,-4.26656138,S02002018,S01010726
George Craigie Urquhart Trust,SC033247,Highland,IV1 3YA,57.50524146,-4.26829439,S02002018,S01010726
North Kessock & District Local History Society,SC035034,Highland,IV1 3XS,57.50291623,-4.2581681,S02002018,S01010726
Avoch Harbour Trust Limited,SC039677,Highland,IV1 3XS,57.50291623,-4.2581681,S02002018,S01010726
Elsie Normington Foundation,SC044029,Highland,IV1 3YD,57.50161818,-4.24178023,S02002018,S01010726
The North Kessock Ticket Office Project,SC045168,Highland,IV1 3XN,57.50128372,-4.24593256,S02002018,S01010726
North Kessock Village Hall (SCIO),SC047939,Highland,IV1 3XU,57.50500432,-4.26348872,S02002018,S01010726
"Hilton Parish Church of Scotland, Inverness",SC016775,Highland,IV2 4UA,57.46335401,-4.21099022,S02001995,S01010606
Inverness Chamber Music Society,SC024288,Highland,IV2 4HH,57.46463252,-4.21647,S02001995,S01010606
The Leira Trust,SC032790,Highland,IV2 4UA,57.46335401,-4.21099022,S02001995,S01010606
Reach4Reality SCIO,SC043934,Highland,IV2 4UA,57.46335401,-4.21099022,S02001995,S01010606
Free North Church,SC016901,Highland,IV2 5FX,57.47582524,-4.15339905,S02001991,S01010583
Highland Basketball Club,SC033881,Highland,IV2 5FR,57.47304776,-4.1539861,S02001991,S01010583
Kildean Discipleship Training Programme Limited,SC044091,Highland,IV2 5FX,57.47582524,-4.15339905,S02001991,S01010583
Highland International Church,SC046465,Highland,IV2 5FB,57.47569057,-4.15234033,S02001991,S01010583
League Of Friends Of Raigmore Hospital,SC017742,Highland,IV2 3DE,57.46441246,-4.2028837,S02001996,S01010612
Highland & Islands Autism Society,SC022044,Highland,IV2 3DA,57.46440059,-4.20561759,S02001996,S01010612
Friends of the Old High Church - Inverness,SC047240,Highland,IV2 3DE,57.46441246,-4.2028837,S02001996,S01010612
1st Milton of Leys Brownie Unit,SC049257,Highland,IV2 3DD,57.46373008,-4.20491022,S02001996,S01010612
Tain & District Museum & Clan Ross Centre,SC017848,Highland,IV19 1DY,57.81277003,-4.0561011,S02002023,S01010755
Tain Heritage Trust,SC026678,Highland,IV19 1DY,57.81277003,-4.0561011,S02002023,S01010755
Christian Community Action Support Team Highland,SC040956,Highland,IV19 1AL,57.8115343,-4.05584557,S02002023,S01010755
Made in Tain SCIO,SC043549,Highland,IV19 1DY,57.81277003,-4.0561011,S02002023,S01010755
Nairn Arts Society,SC017870,Highland,IV12 4SL,57.58027198,-3.88455016,S02001987,S01010562
Nairn Baptist Church,SC021084,Highland,IV12 4SN,57.58080215,-3.88394198,S02001987,S01010562
Nairn Baptist Church SCIO,SC051157,Highland,IV12 4SN,57.58080215,-3.88394198,S02001987,S01010562
Millbank Parent-Teacher Association,SC018008,Highland,IV12 5NL,57.57415547,-3.89343165,S02001987,S01010564
Music Nairn,SC018868,Highland,IV12 5PN,57.57496937,-3.90145108,S02001987,S01010565
The Nairn Spa and Lido Company Limited,SC050128,Highland,IV12 5NW,57.57690177,-3.89722026,S02001987,S01010565
Glenfinnan Station Museum Trust,SC020112,Highland,PH37 4LT,56.87055563,-5.44541491,S02001978,S01010509
Lochaber Agricultural Trust,SC029200,Highland,PH33 6SQ,56.85527442,-5.0155656,S02001978,S01010509
Treslaig Village Hall,SC031440,Highland,PH33 7AL,56.83598611,-5.14689039,S02001978,S01010509
Loch Shiel Spring Festival Association,SC037196,Highland,PH37 4LS,56.87323426,-5.45648054,S02001978,S01010509
Nevis Community Radio Limited,SC044464,Highland,PH33 6PR,56.8250236,-5.08521439,S02001978,S01010509
Glenfinnan Community Facilities SCIO,SC048431,Highland,PH37 4LT,56.87055563,-5.44541491,S02001978,S01010509
Lochaber Fisheries Trust Limited,SC024490,Highland,PH33 6SW,56.84872546,-5.04759986,S02001978,S01010509
Glen Urquhart Rural Community Association SCIO,SC020223,Highland,IV63 6TP,57.33274862,-4.4721859,S02002006,S01010666
Glen Urquhart Heritage Group,SC020276,Highland,IV63 6UR,57.32563718,-4.48602826,S02002006,S01010666
Glen Urquhart Childcare Centre,SC024692,Highland,IV63 6XA,57.32821343,-4.48480678,S02002006,S01010666
Drumnadrochit Piping Society,SC044819,Highland,IV63 6TR,57.33120976,-4.47412615,S02002006,S01010666
Glenurquhart Highland Gathering & Games SCIO,SC044930,Highland,IV63 6UJ,57.32945501,-4.47105076,S02002006,S01010666
Lochaber Council on Alcohol,SC020455,Highland,PH33 7LS,56.84354886,-5.11741131,S02001979,S01010513
Caisteal Tioram Trust,SC027121,Highland,PH33 7LX,56.84429011,-5.10751678,S02001979,S01010513
Lochaber Wheeled Sports Society,SC048964,Highland,PH33 7LX,56.84429011,-5.10751678,S02001979,S01010513
Isle Of Muck Community Enterprise Limited,SC020510,Highland,PH41 2RP,56.83392416,-6.22908935,S02001978,S01010504
Kilchoan Community Centre Limited,SC025416,Highland,PH36 4LJ,56.69373272,-6.09535733,S02001978,S01010504
Isle Of Eigg Heritage Trust,SC025609,Highland,PH42 4RL,56.90188681,-6.1427697,S02001978,S01010504
Ardnamurchan Lighthouse Trust,SC025610,Highland,PH36 4LN,56.73292042,-6.19052748,S02001978,S01010504
Isle Of Eigg Community Association,SC026876,Highland,PH42 4RL,56.90188681,-6.1427697,S02001978,S01010504
West Ardnamurchan Jetty Association Limited,SC027423,Highland,PH36 4LN,56.73292042,-6.19052748,S02001978,S01010504
Kilchoan Playing Field Development Group,SC029927,Highland,PH36 4LJ,56.69373272,-6.09535733,S02001978,S01010504
Comunn Eachdraidh Eige,SC037215,Highland,PH42 4RL,56.90188681,-6.1427697,S02001978,S01010504
Isle of Rum Community Trust,SC039637,Highland,PH43 4RR,57.01541289,-6.28150839,S02001978,S01010504
Eigg Box SCIO,SC043825,Highland,PH42 4RL,56.90188681,-6.1427697,S02001978,S01010504
Isle of Canna Community Development Trust ,SC046276,Highland,PH44 4RS,57.0568028,-6.50368059,S02001978,S01010504
West Ardnamurchan Community Development Company ,SC046602,Highland,PH36 4LW,56.74375206,-6.17355239,S02001978,S01010504
Clean Planet Now,SC046819,Highland,PH42 4RL,56.90188681,-6.1427697,S02001978,S01010504
Voluntary Action Lochaber,SC020740,Highland,PH33 6PH,56.82213342,-5.08940256,S02001980,S01010521
Lochaber Environmental Group,SC029091,Highland,PH33 6PH,56.82213342,-5.08940256,S02001980,S01010521
Lochaber Unit (No 454) of the Sea Cadet Corps,SC031529,Highland,PH33 6RT,56.82118577,-5.09535677,S02001980,S01010521
The Nevis Partnership,SC033418,Highland,PH33 6PH,56.82213342,-5.08940256,S02001980,S01010521
Friends of Nevis,SC041711,Highland,PH33 6PH,56.82213342,-5.08940256,S02001980,S01010521
Lundavra Primary School Parent Council,SC046331,Highland,PH33 6JR,56.80619247,-5.12095937,S02001980,S01010521
Greenfingers Project SCIO,SC047952,Highland,PH33 6PH,56.82213342,-5.08940256,S02001980,S01010521
Scottish Community Drama Association Isle Of Skye District,SC021390,Highland,IV55 8ZT,57.44634801,-6.65011635,S02002010,S01010685
Bracadale and Duirinish Church of Scotland,SC022592,Highland,IV55 8WS,57.44007691,-6.69567692,S02002010,S01010685
Glendale Community Hall Association,SC023732,Highland,IV55 8WS,57.44007691,-6.69567692,S02002010,S01010685
Dunvegan Community Mini-Bus Association,SC028999,Highland,IV55 8GU,57.42871307,-6.56678118,S02002010,S01010685
The Glendale Trust,SC038741,Highland,IV55 8ZA,57.40284494,-6.54492598,S02002010,S01010685
Dunvegan Moorings Association ,SC047072,Highland,IV55 8GU,57.42871307,-6.56678118,S02002010,S01010685
Abriachan Village Hall,SC021409,Highland,IV3 8LB,57.39835709,-4.405845,S02002006,S01010667
Abriachan Forest Trust,SC025690,Highland,IV3 8LB,57.39835709,-4.405845,S02002006,S01010667
Active Abriachan,SC030541,Highland,IV3 8LD,57.37919547,-4.39141314,S02002006,S01010667
Highland Mindfulness Group,SC050141,Highland,IV63 6UX,57.34186124,-4.46757985,S02002006,S01010667
Glen Urquhart Shinty Club SCIO,SC050544,Highland,IV63 6UX,57.34186124,-4.46757985,S02002006,S01010667
Tarbat Parish Church Of Scotland,SC021420,Highland,IV20 1RD,57.84416252,-3.8007675,S02002022,S01010748
Tarbat Historic Trust,SC024422,Highland,IV20 1YN,57.83310051,-3.83853267,S02002022,S01010748
Dudgeon Park Community Centre,SC031703,Highland,IV20 1RG,57.8179941,-3.84747764,S02002022,S01010748
Tarbat Community Hall Group,SC034864,Highland,IV20 1YD,57.83630027,-3.82661836,S02002022,S01010748
Kingussie Church Of Scotland,SC021546,Highland,PH21 1PE,57.0814417,-4.04305849,S02001982,S01010533
Royal British Legion Scotland Badenoch Branch,SC030768,Highland,PH21 1PE,57.0814417,-4.04305849,S02001982,S01010533
Caberfeidh Horizons,SC036139,Highland,PH21 1HR,57.07997078,-4.05168996,S02001982,S01010533
Kingussie Community Development Company,SC040259,Highland,PH21 1HA,57.07950088,-4.05951826,S02001982,S01010533
Kingussie STEM Group,SC048058,Highland,PH21 1ES,57.07754028,-4.05086275,S02001982,S01010533
Wardlaw Mausoleum Trust,SC021646,Highland,IV5 7NB,57.47695385,-4.41868544,S02002005,S01010662
Inverness Civic Trust,SC021748,Highland,IV2 4NG,57.4632277,-4.22021993,S02001995,S01010607
Inverness Rowing Club,SC046612,Highland,IV2 4EE,57.4616286,-4.21867236,S02001995,S01010607
Inverness Shinty Club,SC049760,Highland,IV2 4NQ,57.46414681,-4.21854155,S02001995,S01010607
Knocknagael Limited,SC051232,Highland,IV2 4NE,57.46512981,-4.22343683,S02001995,S01010607
Nairn Photographic Society,SC022325,Highland,IV12 4RU,57.58635073,-3.88660438,S02001987,S01010561
Dunbar Memorial Hall,SC025488,Highland,IV12 5NF,57.58168035,-3.89669963,S02001987,S01010561
Nairn Events Forum,SC044055,Highland,IV12 4HA,57.58693648,-3.88829089,S02001987,S01010561
Hilton Community Centre Management Committee,SC022334,Highland,IV2 3BY,57.46775176,-4.21025536,S02001996,S01010613
Findon Hall Management Committee,SC022412,Highland,IV7 8JH,57.6037182,-4.33554006,S02002019,S01010728
Culbokie Baby And Toddler Group,SC038277,Highland,IV7 8GW,57.60645858,-4.32824984,S02002019,S01010728
Transition Black Isle,SC042309,Highland,IV7 8JH,57.6037182,-4.33554006,S02002019,S01010728
Fort Augustus Parish Church of Scotland,SC022635,Highland,PH32 4DR,57.14041661,-4.6865137,S02002006,S01010668
Glenmoriston Millennium Hall,SC024745,Highland,PH32 4BN,57.15332333,-4.67931398,S02002006,S01010668
Highland Ringing Group,SC024872,Highland,PH32 4DS,57.13747347,-4.68881279,S02002006,S01010668
1st Fort Augustus Brownies,SC038095,Highland,PH32 4BP,57.14795346,-4.69253311,S02002006,S01010668
Feis Gleann Albainn,SC039035,Highland,PH32 4BN,57.15332333,-4.67931398,S02002006,S01010668
Royal British Legion Scotland Fort Augustus Branch,SC042346,Highland,PH32 4AU,57.14450276,-4.68287527,S02002006,S01010668
West Glenmoriston Community Company,SC044531,Highland,IV63 7YJ,57.1778924,-4.79993927,S02002006,S01010668
The Invergarry and Fort Augustus Railway Museum,SC046280,Highland,PH35 4HN,57.09721287,-4.73440638,S02002006,S01010668
3 Glens Community Care,SC049964,Highland,PH32 4DR,57.14041661,-4.6865137,S02002006,S01010668
Glenmoriston Millennium Hall Community Association,SC051089,Highland,PH32 4BN,57.15332333,-4.67931398,S02002006,S01010668
Inverness Associated Presbyterian Church,SC022822,Highland,IV3 8TF,57.48045274,-4.2626698,S02002003,S01010645
Lochinver Associated Presbyterian Church,SC022826,Highland,IV3 8JJ,57.46593986,-4.26023831,S02002004,S01010651
Charleston Community Foundation,SC041850,Highland,IV3 8SX,57.4690138,-4.25617561,S02002004,S01010651
St John The Evangelist Episcopal Church: Inverness,SC023272,Highland,IV3 8HH,57.48178233,-4.2375114,S02002001,S01010639
For the Right Reasons,SC037781,Highland,IV3 8TJ,57.48152161,-4.23549357,S02002001,S01010639
"Inverness, Nairn, Badenoch and Strathspey District Scout Council",SC041542,Highland,IV3 8SN,57.48246959,-4.23625219,S02002001,S01010639
Inverness Group Of Advanced Motorists,SC023514,Highland,IV7 8LQ,57.66083006,-4.17587254,S02002019,S01010730
Resolis Memorial Hall Community Centre,SC023714,Highland,IV7 8JU,57.62870662,-4.25793337,S02002019,S01010730
Motoalba Trust,SC032326,Highland,IV7 8LH,57.63911487,-4.18150896,S02002019,S01010730
The Kirkmichael Trust SCIO,SC033652,Highland,IV7 8LL,57.64751977,-4.26156566,S02002019,S01010730
Edderton Old Church Preversation Trust,SC023641,Highland,IV14 9EU,57.56962213,-4.57732118,S02002013,S01010697
Dingwall Drop-In Kafe,SC025018,Highland,IV14 9EU,57.56962213,-4.57732118,S02002013,S01010697
Contin Community Trust,SC040766,Highland,IV14 9ES,57.56853975,-4.57839859,S02002013,S01010697
Scatwell Community Association,SC045102,Highland,IV6 7QG,57.56571278,-4.68173027,S02002013,S01010697
Fairburn Memorial Hall SCIO ,SC047920,Highland,IV6 7XA,57.52905854,-4.53873966,S02002013,S01010697
Muir of Ord Skatepark Association ,SC048627,Highland,IV6 7XA,57.52905854,-4.53873966,S02002013,S01010697
Inverness Canoe Club,SC048709,Highland,IV6 7UW,57.54721245,-4.53104434,S02002013,S01010697
Aviemore Community Centre,SC023752,Highland,PH22 1RH,57.19118695,-3.82946679,S02001983,S01010537
Badenoch & Strathspey Community Transport Company,SC029556,Highland,PH22 1RH,57.19118695,-3.82946679,S02001983,S01010537
Badenoch And Strathspey Schools' Snowsports Association - Bsssa,SC030475,Highland,PH22 1RW,57.19493639,-3.83112529,S02001983,S01010537
Aviemore Community Enterprise Company Ltd,SC033716,Highland,PH22 1TH,57.19831152,-3.83134206,S02001983,S01010537
1st Aviemore & Rothiemurchus Brownie Unit,SC033980,Highland,PH22 1RW,57.19493639,-3.83112529,S02001983,S01010537
Strathspey Heritage Railway Limited,SC047020,Highland,PH22 1PY,57.18869565,-3.82778805,S02001983,S01010537
Hope Church Aviemore SCIO,SC049950,Highland,PH22 1RL,57.19399916,-3.83008585,S02001983,S01010537
Fuchs Educational Trust,SC024265,Highland,IV4 7EX,57.48956713,-4.47532137,S02002005,S01010663
Beauly Senior Citizens Association,SC030844,Highland,IV4 7GE,57.48265895,-4.47155031,S02002005,S01010663
Ness & Beauly Fisheries Trust,SC037684,Highland,IV4 7BE,57.46705732,-4.47484911,S02002005,S01010663
Beauly and District Care Project,SC043906,Highland,IV4 7AS,57.49827116,-4.45481325,S02002005,S01010663
Royal Scottish Country Dance Society Inverness & District Branch,SC024660,Highland,IV6 7AT,57.50591581,-4.45586107,S02002015,S01010706
Highland Skate Parks Association (SCIO),SC042470,Highland,IV6 7PZ,57.51414456,-4.45875209,S02002015,S01010706
Air Training Corps No 0379 County Of Ross Squadron Non Public Sports & Welfare Funds,SC024730,Highland,IV17 0RE,57.69545803,-4.26497322,S02002020,S01010733
14th Inverness (Cathedral) Guide Unit,SC035550,Highland,IV17 0RH,57.69502071,-4.26831881,S02002020,S01010733
Air Training Corps No 0161 1st Highland Squadron Non Public Sports & Welfare Funds,SC024735,Highland,IV2 6GU,57.45063546,-4.17925298,S02001992,S01010590
Richard Fraser Charitable Trust,SC036368,Highland,IV2 6GU,57.45063546,-4.17925298,S02001992,S01010590
7th Inverness (Crown) Guide Unit,SC038751,Highland,IV2 6GU,57.45063546,-4.17925298,S02001992,S01010590
1st Milton of Leys Guide Unit,SC047930,Highland,IV2 6GX,57.45240067,-4.18057486,S02001992,S01010590
Auldearn Community Trust,SC024764,Highland,IV12 5HX,57.57398442,-3.8424343,S02001985,S01010551
Friends of Drakies Primary School,SC024770,Highland,IV2 3SG,57.46790538,-4.19735743,S02001997,S01010617
Inverness Bravehearts,SC037269,Highland,IV2 3SE,57.46856841,-4.19798091,S02001997,S01010617
Friends of Autism Highland,SC044439,Highland,IV2 3SE,57.46856841,-4.19798091,S02001997,S01010617
2nd Milton of Leys Rainbow Unit,SC047286,Highland,IV2 3SP,57.46759339,-4.19979004,S02001997,S01010617
Home-Start Caithness,SC024885,Highland,KW1 5HB,58.43895118,-3.08537451,S02002027,S01010777
Caithness KLICS (SCIO),SC043820,Highland,KW1 5HH,58.43572575,-3.08123316,S02002027,S01010777
Friends Of Thor House,SC025007,Highland,KW14 7EJ,58.58922316,-3.54024241,S02002032,S01010806
Ormlie Community Association Ltd.,SC028393,Highland,KW14 7SW,58.58756467,-3.54072,S02002032,S01010806
Thurso Baptist Church SCIO ,SC049327,Highland,KW14 7BZ,58.58781807,-3.53455529,S02002032,S01010806
Caithness F.M. Limited,SC050922,Highland,KW14 7QU,58.58619504,-3.53807946,S02002032,S01010806
Castletown Drill Hall Committee,SC025259,Highland,KW14 8UD,58.58908906,-3.38217267,S02002030,S01010793
Murkle Community Association,SC026236,Highland,KW14 8SR,58.59423776,-3.43204847,S02002030,S01010793
Castletown Heritage Society,SC027858,Highland,KW14 8TG,58.59494591,-3.39045612,S02002030,S01010793
Castletown Beyond 2000 Initiative,SC028930,Highland,KW14 8UA,58.58649115,-3.38069406,S02002030,S01010793
Dunnet Forestry Trust,SC033096,Highland,KW14 8TG,58.59494591,-3.39045612,S02002030,S01010793
Traill Hall Community Trust,SC039095,Highland,KW14 8SX,58.59053764,-3.31692486,S02002030,S01010793
Thurso Community Sports Hub,SC045214,Highland,KW14 8SL,58.58496542,-3.37387396,S02002030,S01010793
Castletown Football Club,SC047465,Highland,KW14 8TB,58.57534824,-3.33181351,S02002030,S01010793
Castletown Youth Club,SC048152,Highland,KW14 8TP,58.59406826,-3.39436135,S02002030,S01010793
Thurso Town Improvements SCIO,SC048820,Highland,KW14 8SP,58.58942838,-3.43802791,S02002030,S01010793
Millbank School (Nairn) Enrichment Fund,SC025661,Highland,IV12 5SR,57.5807423,-3.85582228,S02001986,S01010557
1st Auldearn Rainbows,SC033553,Highland,IV12 5AU,57.58202316,-3.85608823,S02001986,S01010557
1st Nairn Guide Unit,SC039146,Highland,IV12 5AU,57.58202316,-3.85608823,S02001986,S01010557
Action for Seniors in Kinlochleven,SC026544,Highland,PH50 4RU,56.71197037,-4.96542722,S02001981,S01010527
Kinlochleven Community Trust,SC027752,Highland,PH50 4SH,56.71403562,-4.96060476,S02001981,S01010527
Kinlochleven Community& Sports Centre Limited,SC028027,Highland,PH50 4QH,56.71503947,-4.96601217,S02001981,S01010527
Kinlochleven Parish Church Of Scotland,SC030288,Highland,PH50 4RH,56.71537003,-4.9577839,S02001981,S01010527
Lochleven Community Minibus Association,SC035385,Highland,PH50 4QH,56.71503947,-4.96601217,S02001981,S01010527
Parent Council of Kinlochleven High School,SC046869,Highland,PH50 4QH,56.71503947,-4.96601217,S02001981,S01010527
The Island Park Community Field SCIO,SC048069,Highland,PH50 4RD,56.71642231,-4.95700024,S02001981,S01010527
Kinlochleven Men's Shed,SC050122,Highland,PH50 4QJ,56.71614818,-4.96776675,S02001981,S01010527
Minginish Community Minibus Group,SC026825,Highland,IV47 8SL,57.32650344,-6.41061891,S02002008,S01010675
Minginish Community Hall Association,SC028093,Highland,IV47 8SJ,57.31807517,-6.37594526,S02002008,S01010675
Carbost Pier Ltd,SC040495,Highland,IV47 8ST,57.29627917,-6.33927873,S02002008,S01010675
Struan Community Gala (SCIO),SC045980,Highland,IV56 8FA,57.35983226,-6.40710175,S02002008,S01010675
Tain & District Youth CafÃ© YMCA,SC027164,Highland,IV19 1AZ,57.8102981,-4.05340173,S02002023,S01010754
Tain & District Development Ltd,SC049861,Highland,IV19 1AZ,57.8102981,-4.05340173,S02002023,S01010754
Crown Community Association,SC028074,Highland,IV2 4HA,57.46766363,-4.21578644,S02001999,S01010625
Dingwall Out Of School Care Facility K/A 3 O' Clock Club,SC028219,Highland,IV15 9ND,57.59583747,-4.43360624,S02002017,S01010715
Polish Saturday School Inverness SCIO,SC037551,Highland,IV15 9NS,57.59476661,-4.43694865,S02002017,S01010715
18th Inverness (Muirtown) Scout Group,SC028352,Highland,IV3 8LZ,57.48404824,-4.25356612,S02002003,S01010649
Thurso & District Pipe Band,SC028840,Highland,KW14 7NN,58.59213487,-3.53261095,S02002032,S01010804
Royal British Legion Scotland Aviemore & Rothiemurchus Branch,SC029050,Highland,PH22 1SG,57.19854151,-3.82604003,S02001983,S01010536
Aviemore Medical Equipment Trust,SC040676,Highland,PH22 1RT,57.19767354,-3.82826484,S02001983,S01010536
Glenmore Piste Charity,SC042330,Highland,PH22 1SA,57.19513045,-3.82582197,S02001983,S01010536
New Start Highland,SC029635,Highland,IV3 8DU,57.48797505,-4.2434799,S02002002,S01010642
Highland Children and Young People's Forum (SCIO),SC049417,Highland,IV3 8DU,57.48797505,-4.2434799,S02002002,S01010642
Clyth Burial Ground Association,SC029737,Highland,KW1 4PA,58.44465606,-3.0873319,S02002028,S01010783
2nd Wick Rainbow Unit,SC044335,Highland,KW1 4DY,58.44715424,-3.09352541,S02002028,S01010783
Staffin Community Hall Association Limited,SC029818,Highland,IV51 9JS,57.62957626,-6.22100149,S02002009,S01010678
Skye And Lochalsh Parent Carers Support Group,SC033696,Highland,IV51 9LA,57.64170369,-6.24525209,S02002009,S01010678
Ionad Thrá½¸ndairnis,SC040726,Highland,IV51 9HZ,57.65944967,-6.25211031,S02002009,S01010678
Lachlan Campbell's Trust,SC029976,Highland,IV2 5GH,57.47288046,-4.17107124,S02001991,S01010588
1st Cradlehall Brownies,SC034910,Highland,IV2 5AX,57.46950808,-4.16758588,S02001991,S01010588
3rd Cradlehall Brownies,SC036330,Highland,IV2 5AX,57.46950808,-4.16758588,S02001991,S01010588
3rd Cradlehall Guide Unit,SC046729,Highland,IV2 5AX,57.46950808,-4.16758588,S02001991,S01010588
1st Cradlehall Ranger Unit,SC048836,Highland,IV2 5AX,57.46950808,-4.16758588,S02001991,S01010588
Snizort Church of Scotland,SC030117,Highland,IV51 9PY,57.41695482,-6.19613187,S02002009,S01010681
Cuillin FM Limited,SC046516,Highland,IV51 9DT,57.41670329,-6.19423643,S02002009,S01010681
SKYEvents (SCIO),SC046584,Highland,IV51 9LR,57.41830055,-6.19703609,S02002009,S01010681
Skye Camanachd SCIO,SC046988,Highland,IV51 9TX,57.42003148,-6.19798454,S02002009,S01010681
Community Foodbank - Skye and Lochalsh,SC049223,Highland,IV51 9PH,57.4162423,-6.19673354,S02002009,S01010681
Site Collective,SC050052,Highland,IV51 9TX,57.42003148,-6.19798454,S02002009,S01010681
Skye Quba Mosque,SC050252,Highland,IV51 9TQ,57.41841951,-6.20289989,S02002009,S01010681
Cameron House Circle Of Friends,SC030763,Highland,IV2 4YG,57.45102671,-4.22728092,S02001994,S01010603
Broadford Village Hall Association,SC031414,Highland,IV49 9AQ,57.2389139,-5.89416531,S02002008,S01010673
Rag Tag and Textile Ltd,SC037619,Highland,IV49 9AP,57.24452009,-5.91568863,S02002008,S01010673
Portree Youth Club SCIO,SC051214,Highland,IV49 9AQ,57.2389139,-5.89416531,S02002008,S01010673
4th Inverness Brownie Pack,SC031601,Highland,IV2 5AS,57.46770326,-4.1643773,S02001991,S01010589
Grantown Rainbow Guide Unit,SC031782,Highland,PH26 3ES,57.32874768,-3.61595778,S02001984,S01010544
Grantown Initiative,SC050733,Highland,PH26 3EY,57.32641807,-3.61896144,S02001984,S01010544
SOAR Youth Projects,SC031808,Highland,IV18 0AP,57.68963148,-4.16619069,S02002021,S01010742
Ross Sutherland Rugby Club (SCIO),SC049155,Highland,IV18 0AH,57.69065368,-4.17155359,S02002021,S01010742
Lochaber Rural Education Trust,SC032111,Highland,PH33 7NF,56.84468884,-5.07874729,S02001979,S01010510
2nd Kilmallie Brownie Pack,SC034012,Highland,PH33 7DG,56.83528023,-5.08700976,S02001979,S01010510
1st Kilmallie Rainbow Unit,SC038845,Highland,PH33 7RB,56.83700702,-5.09277685,S02001979,S01010510
1st Fort Augustus Guides,SC039846,Highland,PH33 7DG,56.83528023,-5.08700976,S02001979,S01010510
The Buzz Project,SC043565,Highland,PH33 7PT,56.83864962,-5.08597534,S02001979,S01010510
1st Kilmallie Guide Unit,SC046158,Highland,PH33 7DG,56.83528023,-5.08700976,S02001979,S01010510
Caol Play,SC046595,Highland,PH33 7NG,56.84553981,-5.09303836,S02001979,S01010510
Lochaber Music School SCIO,SC050362,Highland,PH33 7NE,56.83761522,-5.07654262,S02001979,S01010510
Pulteneytown Peoples Project,SC033675,Highland,KW1 5BA,58.43517745,-3.08553235,S02002027,S01010778
Argyle Square Area Association,SC037067,Highland,KW1 5HP,58.43274266,-3.08136431,S02002027,S01010778
1st Dornoch Brownie Pack,SC033867,Highland,IV25 3NB,57.89721598,-4.07319002,S02002024,S01010758
Association of Northern Trails Scotland,SC049061,Highland,IV25 3QF,57.91956982,-4.02414673,S02002024,S01010758
1st Nairn Scout Group,SC034417,Highland,IV12 4TQ,57.57849217,-3.88641496,S02001987,S01010563
Laide & Aultbea Community Woodland,SC034434,Highland,IV22 2JE,57.84385631,-5.58773552,S02002012,S01010694
Aultbea Regeneration Company,SC040471,Highland,IV22 2JN,57.85798225,-5.62302461,S02002012,S01010694
Aultbea and District Men's Shed,SC049325,Highland,IV22 2JA,57.84031629,-5.58544461,S02002012,S01010694
Aultbea Community Hub,SC049741,Highland,IV22 2JJ,57.85361579,-5.61285536,S02002012,S01010694
Cala Direct Management Services,SC034546,Highland,IV1 1SU,57.49258868,-4.22906142,S02001998,S01010619
CALA CSM,SC034552,Highland,IV1 1SU,57.49258868,-4.22906142,S02001998,S01010619
Cala Integrated Services,SC034553,Highland,IV1 1SU,57.49258868,-4.22906142,S02001998,S01010619
Cala Out Of School Care,SC034557,Highland,IV1 1SU,57.49258868,-4.22906142,S02001998,S01010619
Advocacy Highland,SC035363,Highland,IV1 1SG,57.48765854,-4.21411139,S02001998,S01010619
Inverness Caledonian Thistle Community Development,SC036102,Highland,IV1 1FF,57.49422127,-4.22667444,S02001998,S01010619
Rape and Sexual Abuse Service Highland,SC045019,Highland,IV1 1NB,57.48309996,-4.23110231,S02001998,S01010619
Living Hope Church,SC045526,Highland,IV1 1ND,57.48292519,-4.22980706,S02001998,S01010619
2nd Cradlehall Rainbows,SC035147,Highland,IV2 5GU,57.47761825,-4.13620731,S02001991,S01010585
7th Inverness (Kirkhill) Scout Group,SC035324,Highland,IV5 7PX,57.47230405,-4.38637111,S02002005,S01010659
3rd Inverness Rainbows,SC035353,Highland,IV2 7AR,57.48842828,-4.13350178,S02001990,S01010581
Preserve and Revamp Culloden and Smithton,SC046343,Highland,IV2 7AB,57.48727455,-4.13848987,S02001990,S01010581
1st Cradlehall Rainbows,SC035392,Highland,IV2 5BF,57.46119197,-4.12192724,S02001988,S01010567
Highland Budokan Judo Club,SC040651,Highland,IV2 5XL,57.42808773,-4.12795598,S02001988,S01010567
2nd Balloch (Inverness) Brownie Unit,SC046421,Highland,IV2 5ES,57.48500712,-4.0708566,S02001988,S01010567
Iolaire Centre Ltd,SC048240,Highland,IV2 5GX,57.46809539,-4.1445896,S02001988,S01010567
1st Balloch (Inverness) Rainbow Unit,SC050796,Highland,IV2 5ES,57.48500712,-4.0708566,S02001988,S01010567
Kilmorack Community Hall,SC035743,Highland,IV4 7AQ,57.47016211,-4.5275964,S02002005,S01010655
Strathglass and Affric Community Company Ltd,SC040884,Highland,IV4 7LY,57.29962363,-4.82453021,S02002005,S01010655
Aigas Community Forest,SC041614,Highland,IV4 7AD,57.43887385,-4.56484858,S02002005,S01010655
Strathglass Community Fund (SCIO),SC044964,Highland,IV4 7LN,57.34512237,-4.76771587,S02002005,S01010655
Christian Outreach Centre - Inverness,SC035976,Highland,IV3 8NF,57.47886316,-4.25107811,S02002003,S01010648
Badenoch Arthritis Support Group,SC036110,Highland,PH21 1NR,57.06664743,-4.05430286,S02001982,S01010532
Laggan Community Hall,SC048514,Highland,PH20 1BS,57.02030084,-4.24219223,S02001982,S01010532
Dunain Community Woods (SCIO),SC036203,Highland,IV3 8LJ,57.4634923,-4.27889574,S02002004,S01010650
1st Wick Rainbow Unit,SC036736,Highland,KW14 7JG,58.59578393,-3.52638687,S02002032,S01010803
Inverness Masjid Association,SC037012,Highland,IV3 5SB,57.47218452,-4.23252142,S02002000,S01010631
Inverness Tennis and Squash Club,SC044150,Highland,IV3 5SB,57.47218452,-4.23252142,S02002000,S01010631
Friends of Merkinch Local Nature Reserve SCIO,SC037131,Highland,IV3 8BN,57.48442614,-4.2343531,S02002002,S01010641
Merkinch Partnership,SC042835,Highland,IV3 8BN,57.48442614,-4.2343531,S02002002,S01010641
Scottish Highland Snow Dogs Rescue,SC045324,Highland,IV3 8DN,57.48733655,-4.23541524,S02002002,S01010641
Merkinch Football Academy,SC048039,Highland,IV3 8BN,57.48442614,-4.2343531,S02002002,S01010641
Inverness City Boxing Club,SC048078,Highland,IV3 8BN,57.48442614,-4.2343531,S02002002,S01010641
The Clay Studio (Inverness),SC049932,Highland,IV3 8BN,57.48442614,-4.2343531,S02002002,S01010641
1st Conon Bridge & Maryburgh Scout Group,SC037145,Highland,IV7 8BW,57.56625063,-4.43435638,S02002016,S01010710
1st Smithton Brownie Pack,SC037206,Highland,IV2 7PF,57.47962369,-4.15195455,S02001990,S01010577
Smithton Primary Parent Council,SC039609,Highland,IV2 7PB,57.48037891,-4.15034752,S02001990,S01010577
Raddery Trust,SC037438,Highland,IV2 7GS,57.49754604,-4.11442419,S02001989,S01010575
Inverness Foodstuff,SC045221,Highland,IV2 7GS,57.49754604,-4.11442419,S02001989,S01010575
The Inverness Men's Shed,SC048157,Highland,IV2 7HQ,57.49583593,-4.11834716,S02001989,S01010575
Morning Call,SC049015,Highland,IV2 7HQ,57.49583593,-4.11834716,S02001989,S01010575
Balloch Community Association SCIO,SC050132,Highland,IV2 7HF,57.49772661,-4.12079322,S02001989,S01010575
Rhet Highland Countryside Initiative,SC037760,Highland,IV14 9AD,57.59941042,-4.50864511,S02002013,S01010695
Evanton Community Trust,SC037837,Highland,IV15 9TT,57.62478355,-4.39346952,S02002013,S01010695
Peffery Way Association,SC046138,Highland,IV14 9AD,57.59941042,-4.50864511,S02002013,S01010695
Comann Nam Parant (Inbhir Narainn),SC039996,Highland,IV12 5RT,57.58839611,-3.8392986,S02001985,S01010549
Wheels in Nairnshire,SC048382,Highland,IV12 5BX,57.58870885,-3.84619029,S02001985,S01010549
Friends of Nairn Duke of Edinburgh Award ,SC049171,Highland,IV12 5LF,57.59255393,-3.83325101,S02001985,S01010549
28th Inverness Brownie Unit,SC040176,Highland,IV3 8QF,57.47558041,-4.2582819,S02002004,S01010654
6th Inverness Muirton Rainbows,SC040327,Highland,IV3 5RG,57.47867017,-4.24829717,S02002000,S01010634
James Cameron Community Centre Service Review Group,SC045228,Highland,IV3 5RH,57.4759146,-4.24762742,S02002000,S01010634
Aviemore Sports Centre,SC040474,Highland,PH22 1QW,57.17509041,-3.81494112,S02001983,S01010539
Dualchas Spe,SC044211,Highland,PH22 1QT,57.16248678,-3.80732844,S02001983,S01010539
Love Inverness,SC041605,Highland,IV2 4JJ,57.45950419,-4.21735988,S02001995,S01010608
Evanton Wood Community Company,SC042025,Highland,IV16 9XU,57.66290939,-4.33874168,S02002014,S01010701
Evanton Social & Events Group SCIO,SC046608,Highland,IV16 9YN,57.66678988,-4.3334582,S02002014,S01010701
2nd Inverness Brownie Pack,SC042297,Highland,IV2 3YH,57.46058968,-4.20156993,S02001997,S01010618
Smithton & Culloden Community Company Ltd,SC042310,Highland,IV2 7NP,57.48422676,-4.14863851,S02001990,S01010578
Nairn Area Amateur Athletic Club,SC042377,Highland,IV12 5EW,57.57856668,-3.86810478,S02001986,S01010556
1st Auldearn Brownie Unit,SC045401,Highland,IV12 5DU,57.58013749,-3.87002515,S02001986,S01010556
Nairn PLAY (Preserve Local Areas for Youth),SC046759,Highland,IV12 5DL,57.57928783,-3.86976412,S02001986,S01010556
Highland Martial Arts,SC050326,Highland,IV12 5DU,57.58013749,-3.87002515,S02001986,S01010556
1st Great Glen Ranger Unit,SC042653,Highland,IV7 8JB,57.5800048,-4.36021577,S02002019,S01010727
The Troilus Ensemble,SC043578,Highland,IV2 4LX,57.45525552,-4.23710694,S02001994,S01010604
The Highlands Support Refugees [SCIO],SC047492,Highland,IV2 4LX,57.45525552,-4.23710694,S02001994,S01010604
FÃ¨is a' Bhaile,SC049447,Highland,IV2 4LZ,57.45597941,-4.23783467,S02001994,S01010604
1st Rosebank Brownie Unit,SC045277,Highland,IV12 5TB,57.57703469,-3.80980898,S02001985,S01010550
Caithness Broch Project,SC046307,Highland,KW14 8NN,58.59107175,-3.51164379,S02002031,S01010801
Thurso Heritage Society (SCIO),SC050777,Highland,KW14 8NH,58.59115715,-3.51278297,S02002031,S01010801
Wick Allotment Association ,SC046680,Highland,KW1 5AJ,58.43828779,-3.08840295,S02002027,S01010776
1st Halkirk Rainbow Unit,SC047242,Highland,KW14 7XN,58.55317057,-3.5467197,S02002030,S01010797
ASD Support Group,SC047497,Highland,IV2 6GN,57.45315632,-4.17688597,S02001992,S01010591
Milnafua Community Group,SC047521,Highland,IV17 0YT,57.70123567,-4.22700087,S02002020,S01010735
Highland Parent Council Partnership,SC047605,Highland,IV3 5AN,57.47151611,-4.24637323,S02002000,S01010633
Bike Shed Users Group (BUG in Merkinch),SC049172,Highland,IV3 5AZ,57.47020389,-4.24639273,S02002000,S01010633
1st Inshes Brownie Unit,SC048134,Highland,IV2 3DT,57.46164957,-4.19283028,S02001992,S01010592
Inverlochy Village Hall SCIO,SC048493,Highland,PH33 6LY,56.82466586,-5.09203747,S02001980,S01010520
10th Inverness Boys Brigade,SC048736,Highland,IV3 5HS,57.47949783,-4.23256741,S02002001,S01010637
1st Inverness Rainbow Unit,SC048765,Highland,IV2 5HP,57.46730616,-4.18841666,S02001992,S01010595
This Is Me Highland,SC049114,Highland,IV2 5HB,57.46613728,-4.1905312,S02001992,S01010595
1st Inshes Guide Unit,SC048835,Highland,IV2 4BF,57.45769956,-4.20601408,S02001996,S01010615
Inverness Snowsports Centre  ,SC049203,Highland,IV2 5TA,57.47267876,-4.14400767,S02001991,S01010586
1st Beauly Rainbow Unit,SC049426,Highland,IV4 7EP,57.47834598,-4.46740531,S02002005,S01010660
The Maryburgh Men's Shed,SC050417,Highland,IV7 8DR,57.57356017,-4.44252163,S02002016,S01010708
