Name,Charity Number,Local authority,Postcode,Latitude,Longitude,IntermediateZone2011Code,DataZone2011Code
St Luke's And Queen Street Church Of Scotland: Broughty Ferry,SC000088,Dundee City,DD5 1QA,56.47310116,-2.90635881,S02001456,S01007750
Dundee Chamber Of Commerce -George R Donald Medal Fund,SC000190,Dundee City,DD1 3JA,56.46229987,-2.96038582,S02001449,S01007707
Dundee Parish Church (St Marys) Church of Scotland,SC002198,Dundee City,DD1 3BR,56.46200259,-2.95349746,S02001449,S01007707
Dundee Sailors Home & Hostel,SC000253,Dundee City,DD1 4QB,56.45582713,-2.97699993,S02001446,S01007691
Balgay Childrens Society,SC002453,Dundee City,DD1 4QB,56.45582713,-2.97699993,S02001446,S01007691
Isabella Agnes Smith Fund,SC006676,Dundee City,DD1 4QB,56.45582713,-2.97699993,S02001446,S01007691
Lord Armitsteads Trust For The Benefit Of The Citizens Of Dundee,SC006817,Dundee City,DD1 4QB,56.45582713,-2.97699993,S02001446,S01007691
Dundee Islamic Society,SC007413,Dundee City,DD1 5DD,56.46231747,-2.98111017,S02001446,S01007691
Dundee Sick Nursing Society,SC007498,Dundee City,DD1 4QB,56.45582713,-2.97699993,S02001446,S01007691
Dundee Rep and Scottish Dance Theatre Limited,SC017315,Dundee City,DD1 1PB,56.45766548,-2.97630072,S02001446,S01007691
Royal Victoria Hospital (Dundee) Outdoor Fund,SC017795,Dundee City,DD1 4QB,56.45582713,-2.97699993,S02001446,S01007691
Hospital Fund,SC018896,Dundee City,DD1 1NZ,56.45795777,-2.9756916,S02001446,S01007691
Camperdown Estate Trust,SC018899,Dundee City,DD1 1NZ,56.45795777,-2.9756916,S02001446,S01007691
Belmont Estate Trust,SC018900,Dundee City,DD1 1NZ,56.45795777,-2.9756916,S02001446,S01007691
Generator,SC025493,Dundee City,DD1 4JG,56.45679316,-2.98888613,S02001446,S01007691
Advocating Together (Dundee) SCIO,SC026064,Dundee City,DD1 4DD,56.45635398,-2.98988074,S02001446,S01007691
Lord Provist Of Dundee Charity Fund,SC027022,Dundee City,DD1 1NZ,56.45795777,-2.9756916,S02001446,S01007691
Isabella Agnes Smith Housing Association Limited,SC030862,Dundee City,DD1 4QB,56.45582713,-2.97699993,S02001446,S01007691
Dundee Science Centre,SC033272,Dundee City,DD1 4QB,56.45582713,-2.97699993,S02001446,S01007691
Dundee Museums Foundation,SC043389,Dundee City,DD1 4EZ,56.45730557,-2.96718844,S02001446,S01007691
Dundee Rep Theatre Foundation,SC046517,Dundee City,DD1 1PB,56.45766548,-2.97630072,S02001446,S01007691
Feeling Strong,SC048394,Dundee City,DD1 4NX,56.45659073,-2.9792912,S02001446,S01007691
Dor's Angels [SCIO],SC049874,Dundee City,DD1 1NR,56.45819967,-2.97577894,S02001446,S01007691
Feeling Strong SCIO,SC050991,Dundee City,DD1 4NX,56.45659073,-2.9792912,S02001446,S01007691
Dundee: Whitfield Parish Church of Scotland,SC000316,Dundee City,DD4 0NA,56.48957482,-2.91787617,S02001462,S01007784
30th B Dundee Guides,SC031947,Dundee City,DD4 0XW,56.49165201,-2.92369191,S02001462,S01007784
Dundee Volunteer and Voluntary Action,SC000487,Dundee City,DD1 1LL,56.46231216,-2.97494317,S02001448,S01007705
Dundee Women's Aid Company Limited,SC006691,Dundee City,DD1 1PW,56.46110057,-2.97591826,S02001448,S01007705
High School of Dundee Scholarship Fund,SC011441,Dundee City,DD1 1HU,56.4629647,-2.97307734,S02001448,S01007705
Old Glenalmond Club Scholarship Fund,SC014091,Dundee City,DD1 1LN,56.462166,-2.97295954,S02001448,S01007705
The Inclusion Group (Dundee),SC026317,Dundee City,DD1 1DJ,56.46257331,-2.97142823,S02001448,S01007705
High School of Dundee Foundation,SC030842,Dundee City,DD1 1HU,56.4629647,-2.97307734,S02001448,S01007705
Ward Road Gym Sports Development (Dundee),SC034124,Dundee City,DD1 1NE,56.4614451,-2.97552139,S02001448,S01007705
Art Angel (Scotland) Limited,SC035334,Dundee City,DD1 1PW,56.46110057,-2.97591826,S02001448,S01007705
Dundee Community Transport SCIO,SC036755,Dundee City,DD1 1LL,56.46231216,-2.97494317,S02001448,S01007705
Dundee Womens Festival SCIO,SC044450,Dundee City,DD1 1LL,56.46231216,-2.97494317,S02001448,S01007705
Peyton Fairfield's Warrior Foundation (SCIO),SC046379,Dundee City,DD1 1LL,56.46231216,-2.97494317,S02001448,S01007705
Central Baptist Church Dundee,SC050871,Dundee City,DD1 1LX,56.46156672,-2.97490783,S02001448,S01007705
Jean Drummond Centre,SC001115,Dundee City,DD2 3DT,56.47493968,-3.01476431,S02001473,S01007855
Dundee Civic Trust SCIO,SC001399,Dundee City,DD2 1NG,56.4563108,-3.00531062,S02001445,S01007687
St Marys Episcopal Church: Broughty Ferry,SC001750,Dundee City,DD5 3SX,56.48275194,-2.85157745,S02001461,S01007775
Broughty Ferry Baptist Church,SC011937,Dundee City,DD5 3TZ,56.48348705,-2.85312024,S02001461,S01007775
2nd Monifieth Guide Unit,SC033559,Dundee City,DD5 3UJ,56.48376062,-2.84991135,S02001461,S01007775
Friends of Barnhill Parent Council of Barnhill Primary School,SC003073,Dundee City,DD5 3SQ,56.47965309,-2.85538839,S02001460,S01007773
49th Dundee Scout Group,SC006308,Dundee City,DD5 3SB,56.47960663,-2.8569135,S02001460,S01007773
30th Dundee Brownie Unit,SC034320,Dundee City,DD5 3SF,56.4806867,-2.85271643,S02001460,S01007773
Barnhill After School Care Club SCIO,SC038545,Dundee City,DD5 3SQ,56.47965309,-2.85538839,S02001460,S01007773
81st A Dundee Brownies,SC042670,Dundee City,DD5 3SF,56.4806867,-2.85271643,S02001460,S01007773
Ferry Athletic Youth Football Club,SC050205,Dundee City,DD5 3ES,56.47955993,-2.85976994,S02001460,S01007773
Church of Scotland Presbytery Of Dundee,SC003162,Dundee City,DD2 4TW,56.46627921,-3.05139248,S02001475,S01007868
Dundee: West Church Of Scotland,SC017136,Dundee City,DD2 4UF,56.46561697,-3.0553181,S02001475,S01007868
Little Stars Toddler Group,SC046454,Dundee City,DD2 4UF,56.46561697,-3.0553181,S02001475,S01007868
Hillcrest Foundation,SC049967,Dundee City,DD2 1EG,56.47043904,-3.05668556,S02001475,S01007868
Dundee: Camperdown Parish Church of Scotland,SC003677,Dundee City,DD2 4RP,56.47554222,-3.03966764,S02001472,S01007847
Dundee Christian Youth Trust,SC003691,Dundee City,DD4 7DS,56.47617836,-2.94313819,S02001453,S01007735
Dundee & Angus Cricket Development Group Trust,SC042922,Dundee City,DD4 7EL,56.47815557,-2.94895077,S02001453,S01007735
The Reconnection Project,SC045759,Dundee City,DD4 7DS,56.47617836,-2.94313819,S02001453,S01007735
St Stephens & West Parish Church Of Scotland: Broughty Ferry,SC003714,Dundee City,DD4 6PE,56.46963343,-2.95544179,S02001452,S01007732
Boomerang Community Centre [SCIO],SC047467,Dundee City,DD4 6ET,56.4692448,-2.95574043,S02001452,S01007732
"Wellbeing Works, Dundee",SC003907,Dundee City,DD1 2DB,56.46474566,-2.96937386,S02001449,S01007711
Dundee: St Andrew's Parish Church of Scotland,SC011775,Dundee City,DD1 2JB,56.46552511,-2.9650441,S02001449,S01007711
Hame SCIO,SC050430,Dundee City,DD1 2EY,56.4638255,-2.96639669,S02001449,S01007711
Dundee District Scout Council,SC004220,Dundee City,DD5 2BU,56.46548238,-2.87633065,S02001458,S01007759
Broughty Ferry YMCA,SC007330,Dundee City,DD5 1DJ,56.46766975,-2.87701405,S02001458,S01007759
Friends Of Barnhill Rock Garden Broughty Ferry,SC028973,Dundee City,DD5 1AE,56.46883302,-2.87640786,S02001458,S01007759
Broughty Ferry & District Men's Shed,SC048415,Dundee City,DD5 1DJ,56.46766975,-2.87701405,S02001458,S01007759
Discovery Rugby Charitable Trust ,SC050730,Dundee City,DD5 1AE,56.46883302,-2.87640786,S02001458,S01007759
Dundee: Menzieshill Parish Church of Scotland,SC004496,Dundee City,DD2 4BD,56.4685568,-3.03804831,S02001471,S01007843
Menzieshill Community Centre,SC027260,Dundee City,DD2 4TQ,56.46802291,-3.03957569,S02001471,S01007843
Home-Start Dundee,SC004583,Dundee City,DD1 4AF,56.45963549,-2.97026598,S02001448,S01007706
The Steeple Church: Dundee (Church of Scotland),SC014314,Dundee City,DD1 4DG,56.45805525,-2.97472049,S02001448,S01007706
Dundee Festival Trust,SC020365,Dundee City,DD1 3AH,56.45983882,-2.96838877,S02001448,S01007706
Dundee City Disability Sport,SC022333,Dundee City,DD1 3AH,56.45983882,-2.96838877,S02001448,S01007706
Dundee Contemporary Arts Limited,SC026631,Dundee City,DD1 4DY,56.45711181,-2.97472878,S02001448,S01007706
St Paul's Cathedral Ark Nursery,SC034338,Dundee City,DD1 1TD,56.46112715,-2.96793472,S02001448,S01007706
Dundee Historic Environment Trust,SC036165,Dundee City,DD1 3DJ,56.46052341,-2.9670106,S02001448,S01007706
Leisure & Culture Dundee,SC042421,Dundee City,DD1 3AH,56.45983882,-2.96838877,S02001448,S01007706
St Margarets Episcopal Church: Lochee,SC004621,Dundee City,DD2 4UW,56.47422877,-3.02692066,S02001473,S01007856
96th Menzieshill Dundee Brownie Unit,SC032596,Dundee City,DD2 2TN,56.47569426,-3.0267979,S02001473,S01007856
5th Dundee Girls Brigade,SC033684,Dundee City,DD2 2RA,56.47274237,-3.02522474,S02001473,S01007856
96th Dundee Rainbow Guides,SC035977,Dundee City,DD2 2TN,56.47569426,-3.0267979,S02001473,S01007856
Tayside Opera,SC004938,Dundee City,DD5 2PE,56.47829393,-2.85183477,S02001460,S01007772
St James Church Of Scotland: Broughty Ferry,SC005210,Dundee City,DD5 3HD,56.47682778,-2.87149447,S02001459,S01007766
Lochee Sports & Community Hub,SC047986,Dundee City,DD5 3SR,56.47582734,-2.87322483,S02001459,S01007766
Lodge Roineach Mhor Downfield No 1308 Benevolent Fund,SC005442,Dundee City,DD3 0JS,56.49156627,-2.99524792,S02001466,S01007814
Happy Times Out Of School Care Club SCIO,SC048097,Dundee City,DD3 0JP,56.4896583,-2.99341152,S02001466,S01007814
Strathmartine Community Larder SCIO,SC050802,Dundee City,DD3 0BT,56.48884168,-2.98991482,S02001466,S01007814
Dundee: Downfield Mains Church of Scotland,SC005707,Dundee City,DD3 8QE,56.48421918,-2.99047642,S02001468,S01007823
St Ninians Episcopal Church: Dundee,SC006433,Dundee City,DD4 7RW,56.47761353,-2.93154949,S02001464,S01007803
The Under 12's Project,SC029724,Dundee City,DD4 8HZ,56.47901536,-2.93031746,S02001464,S01007803
St Ninian's Stay and Play Family Support,SC043514,Dundee City,DD4 7RW,56.47761353,-2.93154949,S02001464,S01007803
Broughty Ferry New Kirk (Church of Scotland),SC007031,Dundee City,DD5 2HQ,56.46766119,-2.87185249,S02001458,S01007761
High School of Dundee Trust Appeal,SC011293,Dundee City,DD5 2JP,56.46979636,-2.87357329,S02001458,S01007761
44th Dundee Company Boys Brigade,SC034391,Dundee City,DD5 2JP,56.46979636,-2.87357329,S02001458,S01007761
Broughty Ferry Education And Recreation Assoc,SC007245,Dundee City,DD4 8NS,56.47899211,-2.91531518,S02001455,S01007744
Dundee: Logie & St John's (Cross) Parish Church of Scotland,SC009115,Dundee City,DD2 1HJ,56.45766584,-2.99771989,S02001445,S01007686
31st Dundee Guide Unit,SC032772,Dundee City,DD2 1HJ,56.45766584,-2.99771989,S02001445,S01007686
Logie And St John's (Cross) Brownie Unit,SC035086,Dundee City,DD2 1JW,56.45707716,-3.00387049,S02001445,S01007686
Williamson Memorial Unitarian Church,SC009358,Dundee City,DD3 7AS,56.46963936,-2.97547187,S02001450,S01007716
Dundee Douglas And Mid Craigie Church Of Scotland,SC010030,Dundee City,DD5 1QX,56.47582641,-2.90348537,S02001456,S01007749
St Salvadors Episcopal Church: Dundee,SC010596,Dundee City,DD2 2HN,56.46860173,-3.01303698,S02001470,S01007837
50th Dundee Rainbow Guide Unit,SC036891,Dundee City,DD2 2UF,56.47068456,-3.02635422,S02001470,S01007837
Broughty Ferry Benevolent Trust,SC010644,Dundee City,DD5 2QF,56.47112853,-2.85384936,S02001460,S01007769
30th B Dundee Brownie Pack,SC034738,Dundee City,DD5 2NA,56.47232493,-2.86014203,S02001460,S01007769
Douglas Youth Football Club,SC048830,Dundee City,DD5 2QD,56.47163369,-2.85746428,S02001460,S01007769
Barnhill St Margaret's Parish Church of Scotland,SC011017,Dundee City,DD5 3GA,56.48608703,-2.85261025,S02001461,S01007778
Dundee: Trinity Parish Church of Scotland,SC011021,Dundee City,DD3 9BL,56.48952627,-3.00424032,S02001467,S01007820
5th Dundee (Downfield) Scout Group,SC039361,Dundee City,DD3 9BS,56.49076591,-2.99534064,S02001467,S01007820
Dundee Orchestral Society,SC011490,Dundee City,DD2 2DG,56.4692562,-3.02524438,S02001470,S01007838
St Francis Amateur Boxing Club,SC050867,Dundee City,DD2 2DL,56.4665865,-3.0243122,S02001470,S01007838
Caird Avenue United Free Church,SC011683,Dundee City,DD3 8QA,56.48301201,-2.99088338,S02001468,S01007825
NEW LIFE CHURCH DUNDEE LTD ,SC037173,Dundee City,DD3 8EE,56.47952178,-2.99028908,S02001468,S01007825
Friends Of Dundee University Botanic Garden,SC011808,Dundee City,DD2 1QH,56.45622063,-3.02512027,S02001445,S01007682
Dundee Survival Group Charitable Company Ltd,SC012468,Dundee City,DD4 6AY,56.46505418,-2.96089356,S02001449,S01007709
Dundee Age Concern,SC013975,Dundee City,DD3 8AW,56.47575823,-2.97997965,S02001450,S01007719
Dundee Glenesk Congregation Of Jehovahs Witnesses,SC014280,Dundee City,DD2 3FQ,56.4715578,-3.00417156,S02001468,S01007827
Lochee Baptist Chapel,SC048392,Dundee City,DD2 3DE,56.47333347,-3.01011116,S02001468,S01007827
Dundee International Womens Centre,SC014949,Dundee City,DD3 7PY,56.47199116,-2.96192918,S02001452,S01007726
Home Of Rest For The Aged And Infirm,SC015183,Dundee City,DD5 2BH,56.46530896,-2.8741681,S02001458,S01007762
The Attic SCIO,SC031374,Dundee City,DD5 2DX,56.46645646,-2.86812439,S02001458,S01007762
13th Dundee Boys Brigade Company,SC016222,Dundee City,DD4 9AS,56.47951133,-2.96768838,S02001451,S01007720
Lochee Boyâ€™s & Girls Club,SC016531,Dundee City,DD2 4PU,56.47405757,-3.03131537,S02001472,S01007845
Charleston Neighbourhood Centre,SC027626,Dundee City,DD2 4NL,56.47374804,-3.0350407,S02001472,S01007845
Dundee: Craigiebank Parish Church of Scotland,SC016701,Dundee City,DD4 8QP,56.47961066,-2.91183936,S02001455,S01007746
Grey Lodge Settlement,SC018005,Dundee City,DD5 3BA,56.47280519,-2.87625591,S02001458,S01007760
Dundee Out Of School Care Network,SC026251,Dundee City,DD5 3AB,56.46934516,-2.87640343,S02001458,S01007760
FLACC (Ferry Learning & Community Centre),SC050573,Dundee City,DD5 3AA,56.46982703,-2.87686902,S02001458,S01007760
Strathmartine Church Of Scotland: Dundee,SC018015,Dundee City,DD3 9TQ,56.49460694,-2.99700054,S02001466,S01007815
Fintry Community Playgroup,SC020184,Dundee City,DD4 9EW,56.49097499,-2.94560047,S02001463,S01007795
Finmill Centre,SC027261,Dundee City,DD4 9EW,56.49097499,-2.94560047,S02001463,S01007795
Fintry and Friends Out Of School Care,SC041031,Dundee City,DD4 9EL,56.48924428,-2.94516765,S02001463,S01007795
MS Therapy Centre (Tayside) Limited,SC020217,Dundee City,DD1 5LB,56.45819736,-2.99306048,S02001446,S01007693
"Fintry Parish Church of Scotland, Dundee",SC020742,Dundee City,DD4 7AP,56.47697132,-2.95575607,S02001453,S01007733
Dundee U3A,SC022156,Dundee City,DD4 7HB,56.47589414,-2.95212496,S02001453,S01007733
BeFriends Limited,SC022565,Dundee City,DD4 7AA,56.473483,-2.95722679,S02001453,S01007733
Kids Fun House,SC022519,Dundee City,DD4 0SX,56.4888701,-2.928074,S02001462,S01007785
Dundee North Law Centre,SC032226,Dundee City,DD4 0DX,56.48807002,-2.92693394,S02001462,S01007785
Whitfield Community Project Local Management Group,SC037765,Dundee City,DD4 0UH,56.49091951,-2.92914722,S02001462,S01007785
Dundee Associated Presbyterian Church,SC022818,Dundee City,DD3 7ST,56.46804377,-2.96350113,S02001452,S01007727
Dundee Crisis Pregnancy Trust,SC023483,Dundee City,DD4 7JP,56.46877902,-2.93311852,S02001454,S01007738
Dundee Muslim Cemetery Trust,SC043788,Dundee City,DD4 7JL,56.47105082,-2.93567403,S02001454,S01007738
Happy Hours Out Of School Care Club,SC024363,Dundee City,DD2 3TP,56.48799878,-3.01420356,S02001474,S01007859
Ardler Neighbourhood Centre,SC027259,Dundee City,DD2 3TP,56.48799878,-3.01420356,S02001474,S01007859
Tenants and Residents of Ardler Association,SC037493,Dundee City,DD2 3GN,56.48850649,-3.00923148,S02001474,S01007859
Dundee West Community Trust,SC050552,Dundee City,DD2 3FY,56.48985537,-3.02117154,S02001474,S01007859
Menzieshill Out Of School Care Club,SC027045,Dundee City,DD2 4EH,56.46535349,-3.03107936,S02001471,S01007839
Dundee Independent Advocacy Support,SC027180,Dundee City,DD2 3SX,56.48371506,-3.00402182,S02001474,S01007858
Ardler Village Trust Company,SC033833,Dundee City,DD2 3WN,56.48671519,-3.01735217,S02001474,S01007858
Dundee Funeral Support Service ,SC048691,Dundee City,DD2 3SX,56.48371506,-3.00402182,S02001474,S01007858
Douglas Community Centre,SC027258,Dundee City,DD4 8SD,56.47920704,-2.9043775,S02001457,S01007754
Balerno Community Activities Group,SC027286,Dundee City,DD4 8SD,56.47920704,-2.9043775,S02001457,S01007754
Balmoral Residents Association,SC032856,Dundee City,DD4 8SF,56.47930312,-2.90228538,S02001457,S01007754
RockSolid Dundee,SC043761,Dundee City,DD4 8RD,56.47811916,-2.90571538,S02001457,S01007754
Mill O' Mains Community Pavilion,SC027445,Dundee City,DD4 9TB,56.48981923,-2.95223023,S02001463,S01007796
Kirkton Community Centre,SC027625,Dundee City,DD3 0AX,56.48747471,-2.9866963,S02001465,S01007810
Faith in Community Dundee,SC050445,Dundee City,DD3 0AX,56.48747471,-2.9866963,S02001465,S01007810
Maxwelltown Information Centre,SC028820,Dundee City,DD3 7EW,56.47006578,-2.97150599,S02001450,S01007715
Hilltown Community Centre Management Group,SC028867,Dundee City,DD3 7DL,56.46851507,-2.97104436,S02001450,S01007715
Hilltown Out of School Club ,SC044502,Dundee City,DD3 7DL,56.46851507,-2.97104436,S02001450,S01007715
Hearing Voices Network Dundee (SCIO),SC047597,Dundee City,DD3 7AU,56.46916684,-2.97500526,S02001450,S01007715
Medea Charitable Trust,SC028845,Dundee City,DD2 1XF,56.46372541,-3.05588234,S02001475,S01007869
Skill Share,SC044886,Dundee City,DD2 1DX,56.46775079,-3.05901307,S02001475,S01007869
City of Discovery Pipe Band,SC045447,Dundee City,DD2 1QA,56.45805422,-3.03907612,S02001475,S01007869
Finmill Community Safety Panel,SC029205,Dundee City,DD4 9JS,56.48730702,-2.93522979,S02001464,S01007806
Dundee Starter Packs SCIO,SC030710,Dundee City,DD1 5NU,56.46160266,-2.99191602,S02001446,S01007694
Dundee Stroke Recovery Club,SC030905,Dundee City,DD2 2EW,56.46660403,-3.01671679,S02001470,S01007836
Forthill Youth Trust,SC030986,Dundee City,DD5 1NB,56.46863506,-2.91138142,S02001454,S01007742
Madrasatul Imam Mohammad Zakariya,SC031399,Dundee City,DD5 1PN,56.47150801,-2.90552545,S02001456,S01007751
The Royal Tay Yacht Club Endowment Trust,SC050960,Dundee City,DD5 1LX,56.46925821,-2.89363917,S02001456,S01007751
Tayside Islamic Centre,SC031479,Dundee City,DD1 2NP,56.46655865,-2.96615776,S02001449,S01007712
Eagles Wings SCIO,SC031493,Dundee City,DD1 5AJ,56.462787,-2.98194995,S02001448,S01007702
4th Monifieth Brownie Unit,SC031499,Dundee City,DD5 2RE,56.47770488,-2.84732449,S02001460,S01007771
Kingspark Parent Staff Association,SC031854,Dundee City,DD3 8HF,56.47584162,-2.99434924,S02001469,S01007833
Violet Community Trust SCIO,SC051036,Dundee City,DD3 6AT,56.47413374,-2.99781105,S02001469,S01007833
Spectrum,SC032005,Dundee City,DD4 9DL,56.49144227,-2.97234479,S02001463,S01007798
Dryburgh Community Association,SC032319,Dundee City,DD2 2SN,56.47821657,-3.0216382,S02001473,S01007850
Glebelands Out of School Care Club,SC032570,Dundee City,DD4 6EZ,56.46831932,-2.95224371,S02001452,S01007731
34th Rainbow Unit Dundee West,SC032659,Dundee City,DD5 1JN,56.47116512,-2.88957723,S02001456,S01007752
34th Dundee West Brownie Unit,SC036708,Dundee City,DD5 1JN,56.47116512,-2.88957723,S02001456,S01007752
6th/8th Dundee Boys Brigade (Lochee Parish Church),SC033280,Dundee City,DD2 2JE,56.46803026,-3.0037538,S02001470,S01007835
Stobswell Forum,SC033653,Dundee City,DD4 6SQ,56.47168758,-2.9605255,S02001452,S01007729
6th Carse Of Gowrie Brownie Guide Unit,SC034249,Dundee City,DD2 1RA,56.46110728,-3.02632301,S02001445,S01007684
1st Pleasance Brownie Unit,SC039028,Dundee City,DD2 1QL,56.46002441,-3.02471971,S02001445,S01007684
Carse of Gowrie Men's Shed,SC047662,Dundee City,DD2 1NA,56.45888282,-3.02478632,S02001445,S01007684
Mid-Lin Day Care Limited,SC034269,Dundee City,DD4 8AT,56.48206464,-2.94412856,S02001464,S01007801
"Redeemed Christian Church of God, House of Praise Dundee",SC045830,Dundee City,DD4 8AA,56.47967189,-2.9445075,S02001464,S01007801
Dundee Gymnastics Club 2k,SC034466,Dundee City,DD3 8LX,56.48625694,-2.98617752,S02001465,S01007809
73rd South Downfield Guide Unit,SC035648,Dundee City,DD3 8LG,56.48414623,-2.98722693,S02001465,S01007809
Craigie Barn Owls Out Of School Club,SC034561,Dundee City,DD4 7UH,56.47218285,-2.91274883,S02001454,S01007740
Parent Council of Eastern Primary School Broughty Ferry,SC040435,Dundee City,DD4 7GB,56.47179649,-2.91397323,S02001454,S01007740
Girlguiding Carnoustie District ,SC049173,Dundee City,DD4 7QX,56.47224321,-2.91917844,S02001454,S01007740
21st Dundee Company Girls Brigade,SC034710,Dundee City,DD4 7LS,56.47201436,-2.93060069,S02001454,S01007739
30th Dundee Guide Unit,SC035428,Dundee City,DD5 1BN,56.47320075,-2.88634577,S02001458,S01007758
The Dundee Botanic Garden Endowment Trust,SC044040,Dundee City,DD5 1DN,56.46817527,-2.88048289,S02001458,S01007758
26th Dundee Scout Group,SC036044,Dundee City,DD5 3ND,56.47762426,-2.88211416,S02001459,S01007767
Dundee Womens Trail,SC036149,Dundee City,DD2 1PD,56.4592488,-3.01523826,S02001445,S01007685
Lifegate,SC036570,Dundee City,DD4 8PS,56.48099527,-2.91779888,S02001455,S01007747
Dundee Foodbank SCIO,SC041954,Dundee City,DD4 8PS,56.48099527,-2.91779888,S02001455,S01007747
Dundee Social Enterprise Network,SC043943,Dundee City,DD4 8PS,56.48099527,-2.91779888,S02001455,S01007747
31st A Dundee Rainbow Unit,SC036681,Dundee City,DD2 1QD,56.45937681,-3.02914858,S02001445,S01007683
Lochee Community Larder SCIO ,SC048968,Dundee City,DD2 1TX,56.46316911,-3.02579439,S02001445,S01007683
Friends Of Baxter Park,SC037064,Dundee City,DD4 6NW,56.47209196,-2.95352317,S02001452,S01007730
St Marys Community Centre,SC037600,Dundee City,DD3 9ND,56.49391158,-3.01298081,S02001474,S01007863
The Friends of Magdalen Green,SC039603,Dundee City,DD1 4NW,56.45466167,-2.98689992,S02001446,S01007690
Dundee Mixed Martial Arts Youth and Community Sports Association,SC039621,Dundee City,DD1 2JD,56.46440369,-2.9671417,S02001449,S01007710
Dundee Chinese School,SC044552,Dundee City,DD1 3EW,56.46257133,-2.96592665,S02001449,S01007710
Green Blox,SC050045,Dundee City,DD1 3JT,56.45957678,-2.96164772,S02001449,S01007710
Brooksbank Centre & Services,SC039895,Dundee City,DD4 8DG,56.48156047,-2.93715047,S02001464,S01007804
Dundee East Community Sports Club SCIO,SC040408,Dundee City,DD4 8XD,56.47990139,-2.8840666,S02001457,S01007753
Dundee Westfest,SC041056,Dundee City,DD2 1AF,56.45513411,-2.9918772,S02001445,S01007688
The Luscombe Benefaction 2010,SC041545,Dundee City,DD3 6HR,56.46711629,-2.98663877,S02001447,S01007700
Grace Church Dundee,SC044305,Dundee City,DD2 2ND,56.4678692,-2.99810116,S02001447,S01007700
Menzieshill Whitehall Swimming and Water Polo Club,SC046868,Dundee City,DD3 6LL,56.46809782,-2.98182737,S02001447,S01007700
S.H.I.N.E. Trust,SC041624,Dundee City,DD5 3HW,56.47703375,-2.86258635,S02001459,S01007765
Broughty Ferry Presbyterian Church,SC046813,Dundee City,DD5 3EU,56.47801282,-2.86648876,S02001459,S01007765
Broughty United Community Club SCIO,SC049406,Dundee City,DD5 3BU,56.4755716,-2.85966352,S02001459,S01007765
Art Social Dundee,SC041724,Dundee City,DD4 8BJ,56.48577375,-2.94785813,S02001464,S01007800
Dundee Wasps Rugby Football Club,SC042621,Dundee City,DD5 2NH,56.47333548,-2.86211286,S02001459,S01007764
20th Dundee Scout Group,SC050999,Dundee City,DD5 2NH,56.47333548,-2.86211286,S02001459,S01007764
20th B Dundee Brownies,SC043086,Dundee City,DD2 3JF,56.47827578,-3.0177108,S02001473,S01007851
DUSC 1984 (SCIO),SC043182,Dundee City,DD4 8QE,56.48250731,-2.90888875,S02001455,S01007748
Fairfield Community Sports Hub,SC043752,Dundee City,DD4 0JX,56.4831723,-2.91984865,S02001455,S01007748
The Boomerang Club,SC047782,Dundee City,DD4 8QE,56.48250731,-2.90888875,S02001455,S01007748
Craigie Community Sports Hub,SC043235,Dundee City,DD4 7SY,56.47558365,-2.91820397,S02001455,S01007743
The Dundee Whitehall Theatre Ltd,SC044422,Dundee City,DD4 7SB,56.47471185,-2.91703032,S02001455,S01007743
Dundee North West Community Sports Club,SC043273,Dundee City,DD3 8PF,56.4842172,-2.99521786,S02001467,S01007822
West End Out of School Club,SC043325,Dundee City,DD2 2AB,56.46174748,-2.99738877,S02001447,S01007696
Douglas Community Spaces Group,SC043807,Dundee City,DD4 8DS,56.47963926,-2.93695698,S02001464,S01007802
87th City of Dundee Brownie Unit,SC044429,Dundee City,DD3 0RP,56.50029965,-3.01186781,S02001475,S01007865
87th A City of Dundee Brownie Unit,SC046992,Dundee City,DD3 0RP,56.50029965,-3.01186781,S02001475,S01007865
22nd Dundee Mains of Fintry Scout Group,SC045206,Dundee City,DD3 0AN,56.48776457,-2.97959093,S02001465,S01007808
Forthill Community Sports Club,SC046119,Dundee City,DD5 3BL,56.47474996,-2.87948254,S02001458,S01007757
Sunshine Charitable Trust,SC046381,Dundee City,DD5 3DA,56.47413116,-2.88312076,S02001458,S01007757
Lochee Out Of School Care Club SCIO,SC046677,Dundee City,DD2 3AQ,56.47100102,-3.00857206,S02001473,S01007853
Jazz Hands Musical Society,SC047404,Dundee City,DD2 5SJ,56.48063194,-3.06667835,S02001475,S01007867
Dundee City Pipe Band and Youth Music Initiative (SCIO) ,SC047993,Dundee City,DD1 2ND,56.46754178,-2.96451096,S02001449,S01007713
50th City of Dundee Guide Unit,SC048228,Dundee City,DD4 9RF,56.49141743,-2.95936759,S02001465,S01007807
Dundee Hawkhill Harriers Athletics Club ,SC049831,Dundee City,DD4 9BX,56.48447121,-2.95836412,S02001465,S01007807
City Road Gardens Association,SC048865,Dundee City,DD2 2LG,56.46435726,-2.99461703,S02001447,S01007699
The Presence Factory,SC049211,Dundee City,DD3 6LX,56.46675698,-2.97640423,S02001448,S01007703
Coats n Quilts SCIO,SC049287,Dundee City,DD3 7LD,56.47556286,-2.96938988,S02001451,S01007723
Prayer Space Dundee SCIO,SC049956,Dundee City,DD4 6LQ,56.46890884,-2.94328253,S02001454,S01007737
Dundee Fighting For Fairness (DFFF) SCIO,SC050200,Dundee City,DD4 6JN,56.46695105,-2.95141416,S02001449,S01007708
Maryfield United Community Charity,SC050472,Dundee City,DD4 9PH,56.49260448,-2.94398439,S02001463,S01007794
Bible Baptist Church of Dundee SCIO,SC050914,Dundee City,DD4 8DH,56.48074395,-2.9393872,S02001464,S01007805
The Stobswell Forum SCIO,SC051135,Dundee City,DD4 6RT,56.46951573,-2.95788981,S02001452,S01007728
Dundee Madsons Basketball Club ,SC048747,Dundee City,DD3 0SD,56.49295919,-2.97252979,S02001466,S01007811
