name,coordinates,postcode,Latitude,Longitude
A Greener Hawick,"(55.43066215, -2.78660314)",TD9 8BH,55.43066215,-2.78660314
A Heart for Duns,"(55.76814158, -2.35262523)",TD11 3QJ,55.76814158,-2.35262523
Acharacle Community Company,"(56.74084886, -5.79332276)",PH36 4JJ,56.74084886,-5.79332276
Action Porty,"(55.94546104, -3.10137681)",EH15 2QS,55.94546104,-3.10137681
Aird Community Trust,"(57.47405899, -4.3709902)",IV3 8RL,57.47405899,-4.3709902
Alva Development Trust,"(56.15328446, -3.80900087)",FK12 5LJ,56.15328446,-3.80900087
Alyth Development Trust,"(56.62089792, -3.23560613)",PH11 8AX,56.62089792,-3.23560613
Annexe Communities,"(55.87120973, -4.30479529)",G11 5PE,55.87120973,-4.30479529
Appin Community Development Trust,"(56.554196, -5.408061)",PA38 4DF,56.554196,-5.408061
Applecross Community Company,"(57.43225038, -5.81628582)",IV54 8LR,57.43225038,-5.81628582
Arbirlot Community Trust,"(56.5553761, -2.65016695)",DD11 2NX,56.5553761,-2.65016695
Ardentinny Community Trust Ltd,"(56.05691848, -4.91355189)",PA23 8TS,56.05691848,-4.91355189
Ardoch Development Trust,"(56.26418296, -3.87827095)",FK15 9PN,56.26418296,-3.87827095
Ardrishaig Community Trust,"(56.01424271, -5.44764365)",PA30 8DX,56.01424271,-5.44764365
Ardrossan Community Development Trust,"(55.64145761, -4.81340722)",KA22 8EH,55.64145761,-4.81340722
Arisaig Community Trust,"(56.90274473, -5.85271612)",PH39 4NU,56.90274473,-5.85271612
Arran Development Trust,"(55.57595032, -5.13699342)",KA27 8AU,55.57595032,-5.13699342
Arrochar & Tarbet Community Development Trust,"(56.19635676, -4.74503012)",G83 7AB,56.19635676,-4.74503012
Assynt Development Trust,"(58.14653807, -5.24284243)",IV27 4LE,58.14653807,-5.24284243
Auchinleck Community Development Initiative,"(55.47109878, -4.29335837)",KA18 2LA,55.47109878,-4.29335837
Aviemore and Glenmore Community Trust,"(57.167358, -3.694034)",PH22 1RB,57.167358,-3.694034
Baldernock Community Development  Trust,"(55.93711473, -4.28262531)",G62 6HD,55.93711473,-4.28262531
Balerno Village Trust,"(55.88376687, -3.33888762)",EH14 7EH,55.88376687,-3.33888762
Ballater (Rd) Limited,"(57.04557381, -3.04125514)",AB35 5QW,57.04557381,-3.04125514
"Balquhidder, Lochearnhead and Strathyre Community Trust","(56.3249406, -4.3279041)",FK18 8NA,56.3249406,-4.3279041
Banchory & District Initiative Limited,"(57.05401422, -2.50497027)",AB31 5SQ,57.05401422,-2.50497027
Barmulloch Community Development Company Limited,"(55.88313962, -4.19801906)",G21 3ET,55.88313962,-4.19801906
Barr Community SCIO,"(55.21035679, -4.70930788)",KA26 9TT,55.21035679,-4.70930788
Barra & Vatersay Community Ltd,"(56.91860283, -7.53154527)",HS9 5YW,56.91860283,-7.53154527
Barrhill Development Trust,"(55.10370065, -4.77146126)",KA26 0PP,55.10370065,-4.77146126
Beith Community Development Trust,"(55.748174, -4.622909)",KA15 1HD,55.748174,-4.622909
Belhelvie Community Trust,"(57.25136899, -2.05988218)",AB23 8XF,57.25136899,-2.05988218
Bellsmyre Development Trust,"(55.95772335, -4.5497118)",G82 3DR,55.95772335,-4.5497118
Birse Community Trust,"(57.03126547, -2.65493144)",AB31 6NY,57.03126547,-2.65493144
Bishopton Community Development Trust,"(55.90909499, -4.49812879)",PA7 5BH,55.90909499,-4.49812879
Blackhall Community Trust,"(55.95256002, -3.2411978)",EH4 3JY,55.95256002,-3.2411978
Blairgowrie and Rattray Development Trust,"(56.59255587, -3.33765131)",PH10 6AG,56.59255587,-3.33765131
Bothwell Futures,"(55.80403783, -4.07254079)",G71 8PA,55.80403783,-4.07254079
Boyndie Trust Limited,"(57.66298889, -2.60329436)",AB45 2JT,57.66298889,-2.60329436
"Braehead, Broomridge & District Community Development Trust","(56.10808493, -3.92424252)",FK7 7GU,56.10808493,-3.92424252
Braemar Community Limited,"(57.00494793, -3.40853405)",AB35 5YT,57.00494793,-3.40853405
Breadalbane Development Trust,"(56.59309858, -4.07636445)",PH15 2LW,56.59309858,-4.07636445
Bridgend Farmhouse,"(55.92750225, -3.15595521)",EH16 4TE,55.92750225,-3.15595521
Broadford and Strath Community Company,"(55.86162319, -4.25172952)",G2 1BA,55.86162319,-4.25172952
Brora and District Action Group,"(58.01305653, -3.8472656)",KW9 6QS,58.01305653,-3.8472656
Brunswick Youth Centre,"(55.88926579, -4.21123919)",G21 3NN,55.88926579,-4.21123919
Burnfoot Community Futures,"(55.43632027, -2.76726011)",TD9 8EJ,55.43632027,-2.76726011
Burntisland Community Development Trust,"(56.06449018, -3.2170063)",KY3 9JP,56.06449018,-3.2170063
CLEAR Buckhaven & Methil,"(56.17227614, -3.03253434)",KY8 1JY,56.17227614,-3.03253434
Cabrach Community Association,"(57.36697839, -3.02916424)",AB54 4EU,57.36697839,-3.02916424
Callander Community Development Trust Ltd,"(56.24465495, -4.21958413)",FK17 8BA,56.24465495,-4.21958413
Cambusbarron Community Development Trust,"(56.10554566, -3.96619917)",FK7 9PQ,56.10554566,-3.96619917
Camuscross & Duisdale Initiative,"(57.1323086, -5.8064746)",IV43 8QT,57.1323086,-5.8064746
Carloway Estate Trust (Urras Oighreachd Charlabhaigh),"(58.28003828, -6.76564111)",HS2 9AU,58.28003828,-6.76564111
Carluke Development Trust,"(55.73434208, -3.8389272)",ML8 4AJ,55.73434208,-3.8389272
Carnoustie Community Development Trust,"(56.458324, -2.970903)",,56.458324,-2.970903
Carradale Community Trust,"(55.58066602, -5.49003927)",PA28 6QX,55.58066602,-5.49003927
Carrick Castle Community Trust Limited,"(56.161164, -4.896297)",,56.161164,-4.896297
Cassiltoun Housing Association,"(55.80792458, -4.22151277)",G45 0AZ,55.80792458,-4.22151277
Castle Douglas Community Centre Development Trust,"(54.94282171, -3.92887039)",DG7 1AJ,54.94282171,-3.92887039
Catrine Community Trust,"(55.5050885, -4.33628773)",KA5 6QP,55.5050885,-4.33628773
Clackmannan Development Trust,"(56.1073187, -3.75113901)",FK10 4JA,56.1073187,-3.75113901
Coigach Community Development Company,"(58.02143199, -5.34628536)",IV26 2YG,58.02143199,-5.34628536
Coldstream Community Trust,"(55.65062447, -2.25473107)",TD12 4AP,55.65062447,-2.25473107
Colintraive and Glendaruel Development Trust,"(55.91777559, -5.13809165)",PA22 3AS,55.91777559,-5.13809165
Colonsay Community Development Company,"(56.07095281, -6.18965316)",PA61 7YW,56.07095281,-6.18965316
Comann Eachdraidh Sgire a Bhac,"(58.28849222, -6.30456079)",HS2 0LH,58.28849222,-6.30456079
Community Action for Erskine,"(55.9079592, -4.46261348)",PA8 6EA,55.9079592,-4.46261348
Community Development Company of Nesting,"(60.27225534, -1.17086351)",ZE2 9PP,60.27225534,-1.17086351
Connect Community Trust,"(55.86169156, -4.13550542)",G33 4HG,55.86169156,-4.13550542
Craignish Community Company,"(56.17229017, -5.55137064)",PA31 8AN,56.17229017,-5.55137064
Crail Community Partnership,"(56.25886918, -2.62713073)",KY10 3SJ,56.25886918,-2.62713073
Cranhill Development Trust,"(55.86624045, -4.16779997)",G33 3HE,55.86624045,-4.16779997
Creetown Initiative Ltd,"(54.90029054, -4.37937656)",DG8 7JF,54.90029054,-4.37937656
Crieff Community Trust,"(56.37578073, -3.84296694)",PH7 4BE,56.37578073,-3.84296694
Cromarty Community Development Trust,"(57.68111387, -4.03525271)",IV11 8UY,57.68111387,-4.03525271
Crossroads Community Hub,"(55.57177011, -4.37882686)",KA4 8NQ,55.57177011,-4.37882686
Culbokie Community Trust,"(57.47814099, -4.22392737)",IV1 1HT,57.47814099,-4.22392737
Cupar Development Trust,"(56.31950808, -3.01443618)",KY15 4BY,56.31950808,-3.01443618
DART (Darvel Area Regeneration Team),"(55.609445, -4.285779)",,55.609445,-4.285779
Dalavich Improvement Group,"(56.26304138, -5.2797482)",PA35 1HN,56.26304138,-5.2797482
Dalbeattie Community Initiative,"(54.93242807, -3.82195165)",DG5 4AA,54.93242807,-3.82195165
Dalgety Community Trust,"(56.040281, -3.364283)",,56.040281,-3.364283
Dalmellington Parish Development Trust,"(55.32315555, -4.39626986)",KA6 7QU,55.32315555,-4.39626986
Development Coll,"(56.6233998, -6.52757721)",PA78 6SY,56.6233998,-6.52757721
Dingwall Community Development Company,"(57.60381187, -4.42779516)",IV15 9LL,57.60381187,-4.42779516
Dollar Community Development Trust,"(56.16229402, -3.67011059)",FK14 7AA,56.16229402,-3.67011059
Dufftown and Mortlach Development Trust,"(57.67834401, -2.96141061)",AB56 1UT,57.67834401,-2.96141061
Dumfries High Street Ltd (T/A Midsteeple Quarter),"(55.07174575, -3.60831363)",DG1 1JD,55.07174575,-3.60831363
Dunadd Community Enterprise,"(56.13897087, -5.48381903)",PA31 8RQ,56.13897087,-5.48381903
Dunblane Development Trust,"(56.19094835, -3.96423279)",FK15 0AT,56.19094835,-3.96423279
Dunlop & District Community Company,"(55.7135053, -4.53101587)",KA3 4AU,55.7135053,-4.53101587
East Loch Lomond Community Trust (SCIO),"(56.08376645, -4.53771879)",G63 0JQ,56.08376645,-4.53771879
East Nairnshire Community Organisation (SCIO),"(57.47086552, -3.74487374)",IV12 5UP,57.47086552,-3.74487374
Eday Partnership,"(59.21345383, -2.75653711)",KW17 2AB,59.21345383,-2.75653711
Edinburgh Old Town Development Trust,"(55.95092104, -3.18405372)",EH8 8BE,55.95092104,-3.18405372
Eilean Eisdeal Trust,"(56.29159883, -5.65571104)",PA34 4TB,56.29159883,-5.65571104
Ekopia Social Investments Ltd,"(57.65406757, -3.59476859)",IV36 3SH,57.65406757,-3.59476859
Ettrick and Yarrow Community Development Company,"(55.540993, -2.881030)",TD7 5LX,55.540993,-2.88103
Evanton Community Trust,"(57.62478355, -4.39346952)",IV15 9TT,57.62478355,-4.39346952
Eyemouth & District Community Trust,"(55.87103464, -2.08969092)",TD14 5DH,55.87103464,-2.08969092
Falkland Community Development Trust,"(56.25264168, -3.2067988)",KY15 7BX,56.25264168,-3.2067988
Falkland Gardening Group,"(56.25264168, -3.2067988)",KY15 7BX,56.25264168,-3.2067988
Fauldhouse and Breich Valley Community Development Trust Ltd,"(55.82750243, -3.70841558)",EH47 9HX,55.82750243,-3.70841558
Ferguslie Park Housing Association Limited,"(55.850019, -4.45337003)",PA3 1NT,55.850019,-4.45337003
Fetterangus Community Association,"(57.54712528, -2.02590242)",AB42 4HD,57.54712528,-2.02590242
Finderne Development Trust,"(57.53398983, -3.66091171)",IV36 2QN,57.53398983,-3.66091171
Fintry Development Trust,"(56.05476536, -4.22473613)",G63 0YA,56.05476536,-4.22473613
Fittie Community Development Trust,"(57.14261533, -2.07168567)",AB11 5DR,57.14261533,-2.07168567
Fochabers Village Association,"(57.61367725, -3.09597088)",IV32 7DU,57.61367725,-3.09597088
Forgan Arts Centre,"(56.21600744, -3.11213983)",KY7 6LA,56.21600744,-3.11213983
Forres Area Community Trust,"(57.61076239, -3.61202015)",IV36 1PB,57.61076239,-3.61202015
Forward Coupar Angus,"(56.54341972, -3.26630772)",PH13 9DG,56.54341972,-3.26630772
Fraserburgh Development Trust Ltd,"(57.69406964, -2.00785833)",AB43 9HP,57.69406964,-2.00785833
Fuse Youth Cafe,"(55.85110191, -4.15677985)",G32 9AS,55.85110191,-4.15677985
Future Hawick,"(55.42002201, -2.78953543)",TD9 0AL,55.42002201,-2.78953543
Gairloch & Loch Ewe Action Forum,"(57.72417875, -5.68859968)",IV21 2BH,57.72417875,-5.68859968
Galston Community Development Trust,"(55.60096023, -4.38222917)",KA4 8AL,55.60096023,-4.38222917
Garbh Allt Community Initiative,"(58.11694954, -3.66432256)",KW8 6HH,58.11694954,-3.66432256
Gargunnock Community Trust Ltd,"(56.12189189, -4.07120224)",FK8 3BA,56.12189189,-4.07120224
Getting Better Together Ltd,"(55.81930298, -3.7926377)",ML7 5ET,55.81930298,-3.7926377
Glasgow Eco Trust,"(55.87853986, -4.35341835)",G14 0BL,55.87853986,-4.35341835
Glen Urquhart Rural Community Association,"(57.33274862, -4.4721859)",IV63 6TP,57.33274862,-4.4721859
Glenbarr Community Development Association,"(55.42453174, -5.60642038)",PA28 6GE,55.42453174,-5.60642038
Glenboig Development Trust,"(55.8931476, -4.04928649)",ML5 2RD,55.8931476,-4.04928649
Glenelg & Arnisdale Development Trust,"(57.22047324, -5.56325053)",IV40 8LA,57.22047324,-5.56325053
Glenfarg Community Hall Group,"(56.27868319, -3.4002089)",PH2 9NZ,56.27868319,-3.4002089
Glenkens Community & Arts Trust,"(54.83675985, -4.0512814)",DG6 4HZ,54.83675985,-4.0512814
Go Golspie,"(57.97312792, -3.97659126)",KW10 6TG,57.97312792,-3.97659126
Gorebridge Community Development Trust,"(55.84510787, -3.05043307)",EH23 4TT,55.84510787,-3.05043307
Govanhill Baths Community Trust,"(55.8373555, -4.26209669)",G42 7QP,55.8373555,-4.26209669
Govanhill Community Development Trust,"(55.83983288, -4.26080313)",G42 7JG,55.83983288,-4.26080313
Grantshouse Development Company Ltd,"(55.86658812, -2.28790951)",TD11 3RL,55.86658812,-2.28790951
Great Bernera Community Development Trust,"(58.21141169, -6.78965879)",HS2 9LX,58.21141169,-6.78965879
Greener Kirkcaldy,"(56.11005258, -3.16410832)",KY1 1XT,56.11005258,-3.16410832
Grow 73,"(55.81887901, -4.20009195)",G73 3RQ,55.81887901,-4.20009195
Growing21,"(55.87302941, -4.16453373)",G33 3TJ,55.87302941,-4.16453373
Healthy n Happy,"(55.8285661, -4.21018742)",G73 1DL,55.8285661,-4.21018742
Helmsdale & District Development Trust,"(58.12008882, -3.6564217)",KW8 6JL,58.12008882,-3.6564217
Here We Are (Cairndow) Ltd,"(56.26964932, -4.93330156)",PA26 8BL,56.26964932,-4.93330156
Huntly & District Development Trust,"(57.44757639, -2.78584031)",AB54 8BR,57.44757639,-2.78584031
Inchinnan Development Trust,"(55.891595, -4.433302)",,55.891595,-4.433302
Innerleithen Community Trust,"(55.61702113, -3.05724884)",EH44 6JX,55.61702113,-3.05724884
Inverclyde Community Development Trust,"(55.95049514, -4.76032389)",PA15 1JZ,55.95049514,-4.76032389
Invergordon Development Trust,"(57.7009313, -4.2366157)",IV17 0PQ,57.7009313,-4.2366157
Iomairt Chille-Chomain,"(55.71224249, -6.42399078)",PA48 7UE,55.71224249,-6.42399078
Iona Renewables,"(56.3269165, -6.40481444)",PA76 6SP,56.3269165,-6.40481444
Island of Hoy Development Trust,"(58.79906753, -3.2002814)",KW16 3PG,58.79906753,-3.2002814
Island of Kerrera Development Trust,"(56.40070345, -5.52873089)",PA34 4SX,56.40070345,-5.52873089
Islay Development Initiative,"(55.78895718, -6.25179974)",PA44 7NZ,55.78895718,-6.25179974
Isle of Canna Community Development Trust,"(57.0568028, -6.50368059)",PH44 4RS,57.0568028,-6.50368059
Isle of Cumbrae Initiative Community Company,"(55.75188011, -4.93209957)",KA28 0AJ,55.75188011,-4.93209957
Isle of Eigg Heritage Trust,"(56.90188681, -6.1427697)",PH42 4RL,56.90188681,-6.1427697
Isle of Gigha Heritage Trust,"(55.68538537, -5.73664807)",PA41 7AA,55.68538537,-5.73664807
Isle of Luing Community Trust,"(56.25042735, -5.6538968)",PA34 4TX,56.25042735,-5.6538968
Isle of Rum Community Trust,"(57.01541289, -6.28150839)",PH43 4RR,57.01541289,-6.28150839
John O'Groats Development Trust,"(58.63954416, -3.07319531)",KW1 4YR,58.63954416,-3.07319531
Johnstonebridge Community Centre Trust,"(55.21055594, -3.41674358)",DG11 1ES,55.21055594,-3.41674358
"KPT (Keir, Penpont, Tynron) Development Trust","(55.23240829, -3.81463476)",DG3 4BP,55.23240829,-3.81463476
Killin and Ardeonaig Community Development Trust Limited,"(56.46329516, -4.32070145)",FK21 8XE,56.46329516,-4.32070145
Kilmadock Development Trust Limited,"(56.19009088, -4.05294186)",FK16 6DF,56.19009088,-4.05294186
Kincardine Community Association Ltd ,"(56.06925248, -3.71602913)",FK10 4SF,56.06925248,-3.71602913
Kinghorn Community Land Association,"(56.07513099, -3.19192542)",KY3 9YG,56.07513099,-3.19192542
Kinloch Historical Society,"(58.10250272, -6.53167439)",HS2 9PJ,58.10250272,-6.53167439
Kinlochleven Community Trust,"(56.71403562, -4.96060476)",PH50 4SH,56.71403562,-4.96060476
Kirkcolm Community Trust ,"(54.97352177, -5.0826864)",DG9 0NW,54.97352177,-5.0826864
Kirkconnel & Kelloholm Development Trust,"(55.38730737, -4.00372547)",DG4 6NB,55.38730737,-4.00372547
Kirkcudbright Development Trust,"(54.83824621, -4.04629559)",DG6 4EG,54.83824621,-4.04629559
Kirknewton Community Development Trust Ltd,"(55.95614012, -3.18980287)",EH1 3HP,55.95614012,-3.18980287
Kyle and Lochalsh Community Trust,"(56.702486, -3.732860)",PH16 5BU,56.702486,-3.73286
Kyle of Sutherland Development Trust,"(57.88143244, -4.36398163)",IV24 3AL,57.88143244,-4.36398163
Ladybank Development Trust,"(56.27912953, -3.1336278)",KY15 7NX,56.27912953,-3.1336278
Lairg & District Community Initiatives,"(58.02355863, -4.39720036)",IV27 4DD,58.02355863,-4.39720036
Lambhill Stables Ltd,"(55.89720128, -4.26561177)",G22 6RD,55.89720128,-4.26561177
Lanark Community Development Trust,"(55.67171658, -3.78575365)",ML11 9EG,55.67171658,-3.78575365
Largo Communities Together,"(56.21287328, -2.95033377)",KY8 6BH,56.21287328,-2.95033377
"Latheron, Lybster & Clyth Community Development Company","(58.29953595, -3.28647278)",KW3 6AH,58.29953595,-3.28647278
Lenzie Community Development Trust,"(55.91464301, -4.1561793)",G66 5AT,55.91464301,-4.1561793
Lesmahagow Development Trust,"(55.63881613, -3.88659428)",ML11 0EQ,55.63881613,-3.88659428
Leverhulme Community Hub,"(57.7713924, -7.01472366)",HS5 3TS,57.7713924,-7.01472366
Linlithgow Community Development Trust,"(55.97559178, -3.61138046)",EH49 7AY,55.97559178,-3.61138046
Linwood Community Development Trust,"(55.85253845, -4.49256353)",PA3 3RX,55.85253845,-4.49256353
Lismore Community Trust,"(56.53227898, -5.47239492)",PA34 5UL,56.53227898,-5.47239492
Local Initiatives in New Galloway,"(55.0730096, -4.14080057)",DG7 3RL,55.0730096,-4.14080057
Lochcarron Community Development Company,"(57.41488052, -5.47327872)",IV54 8YS,57.41488052,-5.47327872
Lochwinnoch Community Development Trust,"(55.79733267, -4.63353061)",PA12 4DG,55.79733267,-4.63353061
Lossiemouth Community Development Trust,"(57.7209387, -3.28375127)",IV31 6AE,57.7209387,-3.28375127
Luss & Arden Community Development Trust,"(56.14630604, -4.66768348)",G83 8PD,56.14630604,-4.66768348
Machrihanish Airbase Community Company,"(55.44324498, -5.69517784)",PA28 6NU,55.44324498,-5.69517784
Maryhill Burgh Halls Trust,"(55.89078723, -4.29117858)",G20 8YE,55.89078723,-4.29117858
Mayfield & Easthouses Development Trust,"(55.8746089, -3.04282272)",EH22 5DG,55.8746089,-3.04282272
Meigle and Ardler Community Development Trust,"(56.58976819, -3.16465158)",PH12 8QN,56.58976819,-3.16465158
Milngavie Community Development Trust,"(55.93791333, -4.33162286)",G62 7QA,55.93791333,-4.33162286
Minginish Community Hall Association,"(57.31807517, -6.37594526)",IV47 8SJ,57.31807517,-6.37594526
Moffat Town Hall Re-development Trust,"(55.3331658, -3.44477943)",DG10 9HF,55.3331658,-3.44477943
Moniaive Initiative,"(55.19878918, -3.92350393)",DG3 4HR,55.19878918,-3.92350393
Morar Community Trust,"(56.9720403, -5.82322966)",PH40 4PA,56.9720403,-5.82322966
Morvern Community Development Company,"(56.99752757, -7.4971108)",PA80 5XT,56.99752757,-7.4971108
Mount Blair Community Development Trust,"(56.79840604, -3.43048194)",PH10 7QD,56.79840604,-3.43048194
Muir of Ord Development Trust,"(57.50472494, -4.49092218)",IV6 7TN,57.50472494,-4.49092218
Mull & Iona Community Trust,"(56.32468277, -6.36329467)",PA66 6BL,56.32468277,-6.36329467
Muthill Village Trust,"(56.33349096, -3.82915113)",PH5 2AS,56.33349096,-3.82915113
Nairn Improvement Community Enterprise,"(57.57683447, -3.91359001)",IV12 5NT,57.57683447,-3.91359001
Neilston Development Trust,"(55.78400346, -4.42888109)",G78 3EA,55.78400346,-4.42888109
Neilston Windfarm Legacy SCIO ,"(55.78400346, -4.42888109)",G78 3EA,55.78400346,-4.42888109
New Cumnock Development Trust,"(55.39619666, -4.18467691)",KA18 4AN,55.39619666,-4.18467691
Newburgh Community Trust,"(56.3490311, -3.24689625)",KY14 6DP,56.3490311,-3.24689625
Newcastleton & District Community Trust,"(55.17858975, -2.81355223)",TD9 0QR,55.17858975,-2.81355223
Newlands Community Development Trust,"(55.71862775, -3.33776789)",EH46 7BZ,55.71862775,-3.33776789
Newmains Community Trust Ltd,"(55.78319317, -3.87878448)",ML2 9AX,55.78319317,-3.87878448
Newton Stewart Initiative,"(54.95756019, -4.48573204)",DG8 6ER,54.95756019,-4.48573204
North Uist Development Company Limited,"(57.56532932, -7.38454205)",HS6 5EP,57.56532932,-7.38454205
North West Mull Community Woodland Company Ltd,"(56.59990937, -6.27890523)",PA75 6QY,56.59990937,-6.27890523
North Yell Development Council,"(60.71344073, -1.02324379)",ZE2 9DD,60.71344073,-1.02324379
Northmavine Community Development Company (NCDC),"(60.50413033, -1.34409949)",ZE2 9RT,60.50413033,-1.34409949
Oban Communities Trust,"(56.41273087, -5.47087564)",PA34 5NA,56.41273087,-5.47087564
Old Luce Development Trust,"(54.87871752, -4.8104024)",DG8 0PR,54.87871752,-4.8104024
One Dalkeith,"(55.89316503, -3.06989649)",EH22 1AG,55.89316503,-3.06989649
Ore Valley Housing Association,"(56.14559972, -3.26185164)",KY5 0BW,56.14559972,-3.26185164
Out of the Blue Arts and Education Trust,"(55.96459508, -3.17391414)",EH6 8RG,55.96459508,-3.17391414
Papay Development Trust,"(59.34739312, -2.89322046)",KW17 2BU,59.34739312,-2.89322046
Peebles Community Trust,"(55.65110398, -3.18973458)",EH45 8AT,55.65110398,-3.18973458
Penicuik Community Development Trust Ltd,"(55.82487732, -3.22205912)",EH26 8LL,55.82487732,-3.22205912
Pentlands Community Space,"(55.90901879, -3.28386282)",EH14 3EH,55.90901879,-3.28386282
Pinwherry and Pinmore Community Development SCIO,"(55.14425649, -4.83071305)",KA26 0RN,55.14425649,-4.83071305
Point & Sandwick Trust,"(58.20961401, -6.38405579)",HS1 2JF,58.20961401,-6.38405579
Polbeth Community Hub SCIO,"(55.85699438, -3.55612403)",EH55 8SD,55.85699438,-3.55612403
Portpatrick Community Development Trust,"(54.84406739, -5.11495856)",DG9 8JN,54.84406739,-5.11495856
Portree & Braes Community Trust,"(57.41336293, -6.19705354)",IV51 9ER,57.41336293,-6.19705354
Portsoy Community Enterprise,"(57.68357212, -2.68698393)",AB45 2SS,57.68357212,-2.68698393
Possilpark People's Trust,"(55.88456945, -4.25214709)",G22 5LQ,55.88456945,-4.25214709
Preston and Abbey Community Trust,"(55.86210571, -2.41088097)",TD11 3TY,55.86210571,-2.41088097
Princess Royal Sports & Community Trust,"(57.141194, -2.105521)",AB11 6XY,57.141194,-2.105521
Raasay Development Trust,"(57.34816328, -6.06833245)",IV40 8PA,57.34816328,-6.06833245
Rannoch Community Trust Limited,"(56.702057, -4.186277)",PH15 5PZ,56.702057,-4.186277
Renfrew Development Trust,"(55.87899638, -4.38895667)",PA4 8PL,55.87899638,-4.38895667
Renton Community Development Trust,"(55.96828729, -4.58364555)",G82 4LY,55.96828729,-4.58364555
Rogart Development Trust,"(58.00097603, -4.22325302)",IV28 3UD,58.00097603,-4.22325302
Rosemount Development Trust,"(55.87202799, -4.22669167)",G21 2QA,55.87202799,-4.22669167
Rosewell Development Trust,"(55.85067157, -3.13715673)",EH24 9AA,55.85067157,-3.13715673
"Rousay, Egilsay and Wyre Development Trust Ltd","(59.15955975, -2.98463809)",KW17 2PR,59.15955975,-2.98463809
Sanday Development Trust,"(59.25278299, -2.5790655)",KW17 2BN,59.25278299,-2.5790655
Scourie Community Development Company Limited,"(58.35076171, -5.14964558)",IV27 4TE,58.35076171,-5.14964558
Shapinsay Development Trust,"(59.04170129, -2.90233554)",KW17 2DY,59.04170129,-2.90233554
Shieldaig Community Association SCIO,"(57.52303364, -5.65049574)",IV54 8XN,57.52303364,-5.65049574
Skerray Limited,"(58.595355, -3.543176)",,58.595355,-3.543176
Sleat Community Trust,"(57.06226132, -5.90324927)",IV45 8RS,57.06226132,-5.90324927
South Islay Development,"(55.63303841, -6.19167161)",PA42 7BY,55.63303841,-6.19167161
South Kintyre Development Trust,"(55.42365976, -5.60580326)",PA28 6AB,55.42365976,-5.60580326
South Loch Awe-side Community Company,"(56.234007, -5.278848)",,56.234007,-5.278848
South Seeds,"(55.83417249, -4.26607991)",G42 8BG,55.83417249,-4.26607991
South West Mull and Iona Development,"(56.32468277, -6.36329467)",PA66 6BL,56.32468277,-6.36329467
St Andrews Environmental Network Limited,"(56.33705533, -2.83108579)",KY16 9UA,56.33705533,-2.83108579
Staffin Community Trust,"(57.6233679, -6.20088738)",IV51 9JX,57.6233679,-6.20088738
Stanley Development Trust,"(56.48518751, -3.4458077)",PH1 4QX,56.48518751,-3.4458077
Stepps Community Development Trust,"(55.89120978, -4.14765031)",G33 6BL,55.89120978,-4.14765031
Stonehaven Town Partnership,"(56.964370, -2.208250)",AB39 2RA,56.96437,-2.20825
Stoneyburn and Bents Future Vision Group SCIO SC046760,"(55.84935033, -3.62741233)",EH47 8BA,55.84935033,-3.62741233
Storas Uibhist,"(57.16511661, -7.37221638)",HS8 5SS,57.16511661,-7.37221638
Stow Community Trust,"(55.69722593, -2.86464191)",TD1 2RJ,55.69722593,-2.86464191
Strachur & District Community Development Company Ltd,"(56.16220108, -5.0894156)",PA27 8BY,56.16220108,-5.0894156
Stranraer Development Trust,"(54.90484399, -5.02542752)",DG9 7EF,54.90484399,-5.02542752
Strathard Community Trust,"(56.17831658, -4.38113231)",FK8 3UQ,56.17831658,-4.38113231
Strathblane Community Development Trust,"(55.987495, -4.31267427)",G63 9BP,55.987495,-4.31267427
Strathdearn Community Developments,"(57.3318394, -3.98951035)",IV13 7YN,57.3318394,-3.98951035
Strathdon Community Development Trust,"(57.19609757, -3.03876982)",AB36 8TG,57.19609757,-3.03876982
Stratherrick and Foyers Community Trust,"(57.20836879, -4.50618763)",IV2 6UN,57.20836879,-4.50618763
Strathglass and Affric Community Co Ltd,"(57.34435138, -4.75617146)",IV4 7LJ,57.34435138,-4.75617146
Strathmore & the Glens Rural Partnership,"(56.59273401, -3.33946527)",PH10 6ET,56.59273401,-3.33946527
Strathnairn Development Company,"(57.38790912, -4.18027006)",IV2 6AX,57.38790912,-4.18027006
Stronsay Development Trust,"(59.14049939, -2.60137311)",KW17 2AR,59.14049939,-2.60137311
Sunart Community Company,"(56.6910964, -5.58885567)",PH36 4HY,56.6910964,-5.58885567
Sustaining Dunbar,"(56.00075952, -2.51400713)",EH42 1EN,56.00075952,-2.51400713
Tain & District Development Ltd,"(57.8102981, -4.05340173)",IV19 1AZ,57.8102981,-4.05340173
Tarbert & Skipness Community Trust,"(55.86438412, -5.40601106)",PA29 6UQ,55.86438412,-5.40601106
Tarland Development Group,"(57.12743726, -2.86199842)",AB34 4ZQ,57.12743726,-2.86199842
Tarves Development Trust,"(57.369082, -2.232943)",,57.369082,-2.232943
Tayport Community Trust,"(56.45024428, -2.88147943)",DD6 9AJ,56.45024428,-2.88147943
The Ardchattan Centre Ltd,"(56.456808, -5.244491)",,56.456808,-5.244491
The Ballantrae Trust,"(55.102007, -5.00790716)",KA26 0NQ,55.102007,-5.00790716
The Cabrach Trust,"(57.36697839, -3.02916424)",AB54 4EU,57.36697839,-3.02916424
The Dornoch Area Community Interest Company,"(57.880044, -4.025585)",,57.880044,-4.025585
The Environment Trust (West Dunbartonshire),"(55.9694913, -4.57636951)",G82 3PD,55.9694913,-4.57636951
The Eskdale Foundation,"(55.15371347, -3.00643)",DG13 0BL,55.15371347,-3.00643
The Findhorn Village Conservation Company,"(57.65745403, -3.6068674)",IV36 3YR,57.65745403,-3.6068674
The Garve & District Development Company,"(57.89758022, -5.1636831)",IV26 2XB,57.89758022,-5.1636831
The Girvan Town Team,"(55.24313993, -4.85821059)",KA26 9AG,55.24313993,-4.85821059
The Glendale Trust,"(57.40284494, -6.54492598)",IV55 8ZA,57.40284494,-6.54492598
The Isle of Jura Development Trust,"(55.85267452, -5.94770593)",PA60 7XG,55.85267452,-5.94770593
The Knoydart Foundation,"(57.04052258, -5.69779614)",PH41 4PL,57.04052258,-5.69779614
The Laggan Forest Trust,"(57.00133697, -4.31781942)",PH20 1BU,57.00133697,-4.31781942
The Langholm Alliance,"(55.148938, -2.995484)",DG13 0AN,55.148938,-2.995484
The Langholm Initiative,"(55.14842231, -2.99746272)",DG13 0ES,55.14842231,-2.99746272
The Pairc Trust,"(58.08892704, -6.51736525)",HS2 9QA,58.08892704,-6.51736525
The Pavillion (Greater Easterhouse),"(55.86668158, -4.11457052)",G34 9HX,55.86668158,-4.11457052
The Stornoway Trust,"(58.20948186, -6.38841852)",HS1 2DD,58.20948186,-6.38841852
The Three Kings Cullen Association,"(57.68834837, -2.81595412)",AB56 4AF,57.68834837,-2.81595412
The Vale of Leven Trust,"(55.98554699, -4.57278805)",G83 9HL,55.98554699,-4.57278805
Thenue Housing Association Ltd,"(55.85169798, -4.23316533)",G40 1AG,55.85169798,-4.23316533
Thurso Community Development Trust,"(58.59514274, -3.51985488)",KW14 8AA,58.59514274,-3.51985488
Tighnabruaich District Development Trust,"(55.91354396, -5.22079332)",PA21 2EB,55.91354396,-5.22079332
Tiree Community Development Trust,"(56.49435737, -6.88462794)",PA77 6UP,56.49435737,-6.88462794
Tomintoul & Glenlivet Development Trust,"(57.25143118, -3.3799207)",AB37 9ET,57.25143118,-3.3799207
Torry Development Trust,"(57.14432329, -2.10761438)",AB10 1TN,57.14432329,-2.10761438
Trossachs Community Trust ,"(56.23149744, -4.36647352)",FK17 8HT,56.23149744,-4.36647352
Tullibody Community Development Trust,"(56.13046377, -3.83611995)",FK10 2RS,56.13046377,-3.83611995
Twechar Community Action,"(55.95294012, -4.08342403)",G65 9TA,55.95294012,-4.08342403
Tweedsmuir Community Company,"(55.52092596, -3.4120384)",ML12 6QN,55.52092596,-3.4120384
Udny Community Trust  Company Limited,"(57.33743194, -2.18226789)",AB41 7NY,57.33743194,-2.18226789
Uig Community Trust,"(57.41336293, -6.19705354)",IV51 9ER,57.41336293,-6.19705354
Ullapool Community Trust,"(57.89652339, -5.15812108)",IV26 2UB,57.89652339,-5.15812108
Unst Partnership Ltd,"(60.76874841, -0.83410088)",ZE2 9TW,60.76874841,-0.83410088
Uplawmoor Development Trust,"(55.75353083, -4.49319059)",G78 4BX,55.75353083,-4.49319059
Upper Eskdale Development Group,"(55.27430999, -3.18185609)",DG13 0QJ,55.27430999,-3.18185609
Urras Oighreachd Ghabhsainn,"(58.44136894, -6.39267466)",HS2 0SH,58.44136894,-6.39267466
Valley Renewables Group,"(56.08648079, -3.9534621)",FK7 9QB,56.08648079,-3.9534621
WAT IF,"(55.780797, -3.553369)",,55.780797,-3.553369
WHALE Arts Agency,"(55.91356159, -3.28854077)",EH14 2SA,55.91356159,-3.28854077
West Ardnamurchan Community Development Company ,"(56.74375206, -6.17355239)",PH36 4LW,56.74375206,-6.17355239
West Calder and Harburn Community Development Trust Ltd,"(55.8490742, -3.57475196)",EH55 8DZ,55.8490742,-3.57475196
West Granton Community Trust,"(55.97576005, -3.24392793)",EH4 4GA,55.97576005,-3.24392793
West Harris Trust,"(57.85763392, -6.99478845)",HS3 3AE,57.85763392,-6.99478845
West Kilbride Community Initiative Ltd,"(55.69570779, -4.85539206)",KA23 9AW,55.69570779,-4.85539206
Wester Loch Ewe Trust,"(57.82038382, -5.6684263)",IV22 2LR,57.82038382,-5.6684263
Westray Development Trust,"(59.32240683, -2.9881327)",KW17 2DF,59.32240683,-2.9881327
Whitburn & District Community Development Trust,"(55.8661353, -3.68754666)",EH47 0QD,55.8661353,-3.68754666
Wick Development Trust,"(58.389975, -3.136243)",KW1 4TQ,58.389975,-3.136243
Winchburgh Community Development Trust,"(55.96187633, -3.45793323)",EH52 6WP,55.96187633,-3.45793323
Woodlands Community Development Trust,"(55.87065222, -4.27244094)",G3 6HW,55.87065222,-4.27244094
