Name,Charity Number,Local authority,Postcode,Latitude,Longitude,IntermediateZone2011Code,DataZone2011Code
Cuparhead Playgroup,SC000018,North Lanarkshire,ML5 5LD,55.85384306,-4.0446921,S02002171,S01011575
Cumbernauld & Kilsyth Citizens Advice Bureau,SC000313,North Lanarkshire,G67 1ER,55.94748069,-3.99076935,S02002202,S01011745
Alpha Project (Cumbernauld),SC006392,North Lanarkshire,G67 1AX,55.95119415,-3.98508181,S02002202,S01011745
Cumbernauld & Kilsyth Nursery And Out Of School Care Limited,SC010344,North Lanarkshire,G67 1AX,55.95119415,-3.98508181,S02002202,S01011745
North Lanarkshire Women's Aid Ltd,SC019173,North Lanarkshire,G67 1AX,55.95119415,-3.98508181,S02002202,S01011745
Royal British Legion Scotland - Cumbernauld Branch,SC033417,North Lanarkshire,G67 1AX,55.95119415,-3.98508181,S02002202,S01011745
Cumbernauld Poverty Action,SC035818,North Lanarkshire,G67 1AX,55.95119415,-3.98508181,S02002202,S01011745
Cornerstone House Centre Ltd,SC041782,North Lanarkshire,G67 1EW,55.94745508,-3.98567517,S02002202,S01011745
Cumbernauld Old Parish Church Of Scotland,SC000877,North Lanarkshire,G68 0EJ,55.95665051,-4.02475231,S02002208,S01011778
Harthill Community Church,SC001201,North Lanarkshire,ML7 5NS,55.85883198,-3.76611301,S02002149,S01011441
Village Hall (Harthill & District),SC046948,North Lanarkshire,ML7 5PU,55.85970806,-3.75638997,S02002149,S01011441
Newmains Coltness Memorial Parish Church of Scotland,SC001381,North Lanarkshire,ML2 9AL,55.78759921,-3.86859774,S02002145,S01011424
Bonkle Parish Church of Scotland,SC006540,North Lanarkshire,ML2 9AF,55.78660312,-3.86791208,S02002145,S01011424
Coltness Memorial & Bonkle Churches Development Project,SC020911,North Lanarkshire,ML2 9AL,55.78759921,-3.86859774,S02002145,S01011424
3rd Cumbernauld Scouts Group 223rd Glasgow,SC001868,North Lanarkshire,G67 2SR,55.96431811,-3.9753715,S02002206,S01011767
Cumbernauld Congregation Of Jehovahâ€™s Witnesses,SC018372,North Lanarkshire,G67 2SQ,55.9618851,-3.97970141,S02002206,S01011767
41st Cumbernauld Brownies,SC041818,North Lanarkshire,G67 2SJ,55.96248832,-3.97795383,S02002206,S01011767
1st Cumbernauld Brownies,SC042159,North Lanarkshire,G67 2SQ,55.9618851,-3.97970141,S02002206,S01011767
20th Cumbernauld Guides,SC049730,North Lanarkshire,G67 2SJ,55.96248832,-3.97795383,S02002206,S01011767
Treetops Playgroup,SC002003,North Lanarkshire,ML1 2LT,55.77225135,-3.96527542,S02002137,S01011371
Cumbernauld Historical Society,SC002606,North Lanarkshire,G68 9JE,55.95004022,-4.0283312,S02002209,S01011785
Victory Outreach Glasgow,SC050469,North Lanarkshire,G68 9JE,55.95004022,-4.0283312,S02002209,S01011785
Balloch Eastfield Toddlers,SC022562,North Lanarkshire,G68 9ND,55.94793331,-4.02365655,S02002209,S01011785
Airdrie St Columbas Parish Church of Scotland,SC002900,North Lanarkshire,ML6 9GE,55.85913552,-3.97824181,S02002185,S01011643
8th Airdrie Brownies,SC042099,North Lanarkshire,ML6 9GB,55.86066227,-3.9799813,S02002185,S01011643
Craigneuk Initiative Aftercare SCIO,SC044107,North Lanarkshire,ML6 6AW,55.86704213,-3.97667806,S02002185,S01011643
Bear Necessities in Airdrie,SC051215,North Lanarkshire,ML6 6BW,55.8653837,-3.97977411,S02002185,S01011643
Episcopal Church Of The Holy Name,SC003118,North Lanarkshire,G67 1AG,55.95153888,-3.9859964,S02002206,S01011770
1st Condorrat Boys Brigade Company,SC003244,North Lanarkshire,G68 9DZ,55.94614402,-4.01384216,S02002209,S01011782
231st Glasgow (1st Kilsyth) Explorer Scout Group,SC035231,North Lanarkshire,G68 9DZ,55.94614402,-4.01384216,S02002209,S01011782
Cumbernauld Vineyard Church,SC050341,North Lanarkshire,G68 9BJ,55.94855555,-4.01640179,S02002209,S01011782
Gartcosh Playgroup,SC003318,North Lanarkshire,G69 8LA,55.88572066,-4.08588017,S02002192,S01011694
Coatbridge Baptist Church,SC003679,North Lanarkshire,ML5 2HQ,55.86766942,-4.04767235,S02002174,S01011586
Airdrie Jackson Parish Church of Scotland,SC004083,North Lanarkshire,ML6 8SD,55.84374065,-3.94501937,S02002181,S01011623
Chapelhall Scout Group,SC035173,North Lanarkshire,ML6 8RJ,55.84480783,-3.9445935,S02002181,S01011623
Bargeddie Parish Church of Scotland,SC004209,North Lanarkshire,ML2 0NT,55.76529356,-3.9204995,S02002140,S01011391
Wishaw Old Parish Church of Scotland,SC011253,North Lanarkshire,ML2 0NT,55.76529356,-3.9204995,S02002140,S01011391
YMCA Wishaw,SC012060,North Lanarkshire,ML2 0NT,55.76529356,-3.9204995,S02002140,S01011391
Airdrie High Parish Church of Scotland,SC024357,North Lanarkshire,ML2 0PQ,55.76381959,-3.91532633,S02002140,S01011391
Craigneuk Community Sports Trust,SC050410,North Lanarkshire,ML2 0NT,55.76529356,-3.9204995,S02002140,S01011391
William Renwick's Trust,SC004355,North Lanarkshire,ML2 7AU,55.77508424,-3.92254369,S02002141,S01011395
Support For Ordinary Living,SC027852,North Lanarkshire,ML2 7BL,55.77373465,-3.91861884,S02002141,S01011395
Orchard Primary LCSC Support Group,SC047159,North Lanarkshire,ML2 8AT,55.771942,-3.92176717,S02002141,S01011395
Cumbernauld Kildrum Parish Church of Scotland,SC004564,North Lanarkshire,G67 2JE,55.9489582,-3.9732277,S02002203,S01011750
New Stevenston Wrangholm Parish Church of Scotland,SC004688,North Lanarkshire,ML1 3AA,55.78823772,-3.99381736,S02002156,S01011478
Motherwell St Marys Parish Church of Scotland,SC012233,North Lanarkshire,ML1 3AB,55.78751463,-3.99462574,S02002156,S01011478
Motherwell Photographic Society,SC035387,North Lanarkshire,ML1 3AL,55.78448575,-3.99408815,S02002156,S01011478
Wishaw United Free Church,SC005190,North Lanarkshire,ML2 0JJ,55.76847349,-3.92633111,S02002140,S01011389
North Lanarkshire Arts Association,SC031765,North Lanarkshire,ML2 7BX,55.77188439,-3.92487322,S02002140,S01011389
Chris's House,SC045583,North Lanarkshire,ML2 7NZ,55.77616403,-3.92761945,S02002140,S01011389
Go Together SCIO,SC050786,North Lanarkshire,ML2 7AY,55.77423614,-3.92447897,S02002140,S01011389
Newarthill and Carfin Parish Church of Scotland,SC005427,North Lanarkshire,ML1 5JN,55.81456563,-3.94241414,S02002151,S01011454
Airdrie Reformed Presbyterian Church,SC005665,North Lanarkshire,ML6 9HJ,55.85684931,-3.97957959,S02002185,S01011642
Make and Create Arts,SC051119,North Lanarkshire,ML6 9RS,55.85624251,-3.98098672,S02002185,S01011642
Cumbernauld Audio News,SC005924,North Lanarkshire,G67 4SH,55.92979069,-4.02736879,S02002199,S01011730
Newmains & District Old Age Pensioners Assoc,SC005990,North Lanarkshire,ML2 9BY,55.79477121,-3.87505095,S02002145,S01011421
Ebenezer Congregational Church,SC006252,North Lanarkshire,ML5 4TH,55.84938127,-3.99902469,S02002178,S01011611
13th Coatbridge Guides,SC041078,North Lanarkshire,ML5 4TQ,55.84970541,-3.99843428,S02002178,S01011611
Shotts Calderhead - Erskine Parish Church of Scotland,SC006538,North Lanarkshire,ML7 4BA,55.81913492,-3.80351597,S02002147,S01011430
Glasgow Vintage Vehicle Trust,SC034066,North Lanarkshire,ML7 4BA,55.81913492,-3.80351597,S02002147,S01011430
Paul's Parcels,SC050157,North Lanarkshire,ML7 4AW,55.81959997,-3.80672991,S02002147,S01011430
St Paul & St John The Evangelist,SC006732,North Lanarkshire,ML5 4HY,55.8483314,-4.01818818,S02002177,S01011603
Shining Stars ASN Theatre School,SC050431,North Lanarkshire,ML5 4HP,55.84965013,-4.01887959,S02002177,S01011603
Chryston Church Of Scotland,SC006752,North Lanarkshire,G69 9LA,55.9065916,-4.09839201,S02002195,S01011708
Coatbridge Calder Parish Church of Scotland,SC006854,North Lanarkshire,ML5 5AR,55.84387986,-4.03961657,S02002170,S01011565
Parent Action for Safe Play,SC026183,North Lanarkshire,ML5 5BB,55.84504829,-4.03581224,S02002170,S01011565
Kirkshaws Neighbourhood Centre SCIO,SC047669,North Lanarkshire,ML5 5BF,55.84443339,-4.03983725,S02002170,S01011565
Overtown Parish Church of Scotland,SC007360,North Lanarkshire,ML1 2QU,55.77516652,-3.95435674,S02002137,S01011368
St Andrews Episcopal Church: Wishaw,SC007512,North Lanarkshire,ML2 8DB,55.77275297,-3.91299044,S02002141,S01011398
Gartcosh Parish Church of Scotland,SC007541,North Lanarkshire,G69 8AJ,55.88897183,-4.08069747,S02002192,S01011693
Glenmanor Primary School Parents Association,SC035511,North Lanarkshire,G69 8AJ,55.88897183,-4.08069747,S02002192,S01011693
40th Glasgow (Stepps) Scout Group,SC008193,North Lanarkshire,G33 6HE,55.890991,-4.14370403,S02002194,S01011701
Cardowan Community Meadow (SCIO),SC050197,North Lanarkshire,G33 6JF,55.89167592,-4.14204657,S02002194,S01011701
Chapelhall Parish Church of Scotland,SC008486,North Lanarkshire,ML6 8SF,55.84065501,-3.94408266,S02002181,S01011622
Mount Pleasant Mother & Toddler Group,SC034923,North Lanarkshire,ML6 8SE,55.8429975,-3.9454135,S02002181,S01011622
7th Coatbridge Boys Brigade Company,SC008528,North Lanarkshire,ML5 4FF,55.84749693,-4.00822492,S02002178,S01011608
Motherwell South Parish Church of Scotland,SC008601,North Lanarkshire,ML1 2QP,55.77661331,-3.99075205,S02002138,S01011379
Potential Living,SC008731,North Lanarkshire,ML1 1TT,55.78354292,-3.98515696,S02002155,S01011474
Vamw Training Ltd,SC012065,North Lanarkshire,ML1 1TT,55.78354292,-3.98515696,S02002155,S01011474
Lanarkshire Housing Association Ltd,SC042523,North Lanarkshire,ML1 1RS,55.78781074,-3.98633107,S02002155,S01011474
Coatbridge Townhead Parish Church of Scotland,SC008809,North Lanarkshire,ML5 1QW,55.86701831,-4.03328592,S02002175,S01011597
Coatbridge Blairhill Dundyvan Parish Church of Scotland,SC009704,North Lanarkshire,ML5 1QL,55.8669618,-4.03452959,S02002175,S01011597
Coatbridge Middle Parish Church of Scotland,SC016362,North Lanarkshire,ML5 1QE,55.86538595,-4.03363211,S02002175,S01011597
Summerlee Transport Group,SC020158,North Lanarkshire,ML5 1QN,55.86708962,-4.03386501,S02002175,S01011597
Glasgow's Last Tram Group,SC048829,North Lanarkshire,ML5 1QD,55.86443123,-4.03267127,S02002175,S01011597
"4th Coatbridge Company, The Girls' Brigade",SC049765,North Lanarkshire,ML5 1QE,55.86538595,-4.03363211,S02002175,S01011597
Motherwell / Bellshill Congregation Of Jehovahs Witnesses,SC009044,North Lanarkshire,ML1 1RU,55.7865178,-3.98403237,S02002155,S01011473
Motherwell & Wishaw Citizens Advice Bureau,SC009733,North Lanarkshire,ML1 1LY,55.79088571,-3.99124102,S02002155,S01011473
Motherwell & Wishaw Congregation Of Jehovahs Witnesses,SC011506,North Lanarkshire,ML1 1RU,55.7865178,-3.98403237,S02002155,S01011473
Befriend Motherwell (SCIO),SC045376,North Lanarkshire,ML1 1JJ,55.79135925,-3.99196704,S02002155,S01011473
The Health and Wellness Hub SCIO,SC047372,North Lanarkshire,ML1 1PR,55.79137658,-3.98311503,S02002155,S01011473
Villa Park Football Club (SCIO),SC048740,North Lanarkshire,ML1 1XS,55.78700731,-3.98822005,S02002155,S01011473
Kilsyth Old Peoples Welfare Comm,SC009831,North Lanarkshire,G65 0DD,55.97154624,-4.04839892,S02002211,S01011794
Kilsyth Miners Charitable Society,SC022719,North Lanarkshire,G65 0BU,55.9734749,-4.05185039,S02002211,S01011794
Joint Blind and Disabled Club Kilsyth,SC045671,North Lanarkshire,G65 0PD,55.97338963,-4.04995477,S02002211,S01011794
Coatbridge United Reformed Church,SC009852,North Lanarkshire,ML1 3JF,55.78017484,-3.99889107,S02002156,S01011476
Kilsyth Anderson Church of Scotland,SC009866,North Lanarkshire,G65 9NU,55.983129,-4.06302197,S02002212,S01011799
3rd Kilsyth Guide Unit,SC044482,North Lanarkshire,G65 9PH,55.98268836,-4.06357558,S02002212,S01011799
3rd Kilsyth Brownie Unit,SC044498,North Lanarkshire,G65 9PH,55.98268836,-4.06357558,S02002212,S01011799
Kilsyth Burns & Old Parish Church Of Scotland,SC009912,North Lanarkshire,G65 0EF,55.97598159,-4.04648577,S02002210,S01011791
Uddingston Burnhead Parish Church of Scotland,SC010039,North Lanarkshire,G71 5BB,55.83188296,-4.04876073,S02002167,S01011541
Coatbridge Old Monkland Parish Church of Scotland,SC010236,North Lanarkshire,ML6 8AG,55.85913432,-3.96373294,S02002183,S01011630
Cumbernauld Venture Sports Club,SC023687,North Lanarkshire,ML6 8JP,55.86496646,-3.95811425,S02002183,S01011630
Tannochside Information & Advice Centre,SC010645,North Lanarkshire,G71 5QQ,55.83150279,-4.0783771,S02002168,S01011548
South Wishaw Parish Church of Scotland,SC010775,North Lanarkshire,ML2 8BG,55.77163237,-3.91915324,S02002141,S01011396
Motherwell St Margaret's Parish Church of Scotland,SC010924,North Lanarkshire,ML1 2AP,55.7809568,-3.97218818,S02002138,S01011381
Motherwell Boys Brigade Battalion,SC017370,North Lanarkshire,ML1 1QW,55.78288057,-3.97383232,S02002138,S01011381
J C Mcnaught Poor Children's Holiday Fund,SC019426,North Lanarkshire,ML1 1AB,55.78396686,-3.98283415,S02002138,S01011381
North Lanarkshire Disability Forum (SCIO),SC048242,North Lanarkshire,ML1 1TP,55.78468753,-3.98328543,S02002138,S01011381
Airdrie Clarkston Parish Church of Scotland,SC011239,North Lanarkshire,ML6 7BE,55.87191943,-3.94526145,S02002189,S01011674
Wishaw Cambusnethan Old And Morningside Parish Church of Scotland,SC011532,North Lanarkshire,ML2 8XB,55.78129203,-3.8919925,S02002144,S01011416
Wishaw:Cambusnethan North Parish Church of Scotland,SC013037,North Lanarkshire,ML2 8XP,55.78284352,-3.89278534,S02002144,S01011416
Allanton Jolly Beggars Burns Club,SC027013,North Lanarkshire,ML2 8XB,55.78129203,-3.8919925,S02002144,S01011416
Airdrie Coatbridge & District Boys Brigade Battalion,SC011651,North Lanarkshire,ML6 9BU,55.86294115,-3.98300572,S02002186,S01011654
Parkinson's Self Help Group (North Lanarkshire),SC034256,North Lanarkshire,ML6 0BN,55.86743164,-3.98374606,S02002186,S01011654
Voluntary Action North Lanarkshire,SC041224,North Lanarkshire,ML6 0BN,55.86743164,-3.98374606,S02002186,S01011654
Gartcairn Football Academy,SC041862,North Lanarkshire,ML6 9BU,55.86294115,-3.98300572,S02002186,S01011654
2nd Airdrie Boys Brigade Co,SC042657,North Lanarkshire,ML6 9BU,55.86294115,-3.98300572,S02002186,S01011654
Airdrie New Monkland Parish Church of Scotland,SC011674,North Lanarkshire,ML6 0QH,55.8825914,-3.9982537,S02002191,S01011688
5th Airdrie Guide Unit,SC032842,North Lanarkshire,ML6 0QQ,55.88550721,-3.99301501,S02002191,S01011688
1st New Monkland Boys' Brigade Company,SC047665,North Lanarkshire,ML6 0QQ,55.88550721,-3.99301501,S02002191,S01011688
Cumbernauld: Condorrat Parish Church of Scotland,SC011839,North Lanarkshire,G67 4AB,55.93120938,-3.97994521,S02002200,S01011738
Watch Us Grow,SC030051,North Lanarkshire,G67 3HU,55.93544165,-3.95749061,S02002200,S01011738
Friends of Cumbernauld Care Home,SC043828,North Lanarkshire,G67 4BW,55.93873038,-3.99281815,S02002200,S01011738
Newmains & District Gala Day Committee,SC012006,North Lanarkshire,ML2 9DP,55.7867507,-3.88297489,S02002145,S01011418
Tannochside & Bredisholm Miners Charitable Society,SC012417,North Lanarkshire,G71 5PJ,55.84099138,-4.09806573,S02002168,S01011552
Wishaw St Marks Parish Church of Scotland,SC012529,North Lanarkshire,ML2 0GA,55.76960003,-3.93470844,S02002140,S01011388
Bellshill: Central Parish Church Of Scotland,SC012556,North Lanarkshire,ML4 2RJ,55.81678538,-4.00014579,S02002161,S01011508
Holytown Parish Church of Scotland,SC012888,North Lanarkshire,ML6 8WL,55.83645742,-3.94810503,S02002149,S01011446
Monklands Talking Newspaper Association,SC012899,North Lanarkshire,ML5 1BA,55.86079911,-4.03112324,S02002173,S01011581
The New Wellwynd Parish Church of Scotland Airdrie,SC012944,North Lanarkshire,ML6 9DJ,55.85927424,-3.99136761,S02002186,S01011648
Coatbridge New St Andrew's Parish Church of Scotland,SC013521,North Lanarkshire,ML6 9FF,55.85829778,-3.99339486,S02002186,S01011648
2nd Coatbridge Scout Group,SC039746,North Lanarkshire,ML6 9ES,55.85958334,-3.98948191,S02002186,S01011648
Kirk O Shotts Parish Church of Scotland,SC013269,North Lanarkshire,ML7 4LW,55.84285708,-3.87754153,S02002149,S01011445
Smarter Salsburgh,SC033671,North Lanarkshire,ML7 4LJ,55.84358404,-3.87642659,S02002149,S01011445
Coatdyke Congregational Church,SC013539,North Lanarkshire,ML6 9XA,55.85383449,-3.99097744,S02002185,S01011647
Wishaw Craigneuk and Belhaven Church of Scotland,SC013841,North Lanarkshire,ML2 8PL,55.77978296,-3.89427937,S02002144,S01011415
2nd Wishaw Senior Section Unit,SC047738,North Lanarkshire,ML2 8PX,55.77832707,-3.89078043,S02002144,S01011415
Viewpark Church Of The Nazarene,SC013886,North Lanarkshire,G71 5JJ,55.82975672,-4.06198145,S02002167,S01011545
"Stepps Parish Church of Scotland, Stepps",SC014212,North Lanarkshire,G33 6BL,55.89120978,-4.14765031,S02002194,S01011703
Chanda Singh & Rao Kaur Ltd,SC042697,North Lanarkshire,G33 6DP,55.89315566,-4.14377546,S02002194,S01011703
Shotts EU Congregational Church,SC014231,North Lanarkshire,ML7 4DT,55.82173566,-3.80326918,S02002147,S01011434
Bellshill & Mossend YMCA,SC014426,North Lanarkshire,ML4 1AB,55.81874964,-4.02181187,S02002163,S01011523
Bellshill & District Citizens Advice Bureau,SC015081,North Lanarkshire,ML4 1AQ,55.81839378,-4.02595958,S02002163,S01011523
Routes To Work Limited,SC033698,North Lanarkshire,ML4 1AE,55.81862479,-4.02502981,S02002163,S01011523
Tabor Ministries (TM),SC043693,North Lanarkshire,ML4 3AU,55.81660566,-4.03193205,S02002163,S01011523
Airdrie: Cairnlea Parish Church of Scotland,SC014555,North Lanarkshire,ML6 7ES,55.86934122,-3.95935738,S02002189,S01011670
Lodge New Monkland Montrose No 88 Benevolent Fund,SC014865,North Lanarkshire,ML5 1NE,55.86164187,-4.0431843,S02002173,S01011582
Chryston United Free Church,SC015285,North Lanarkshire,G69 0LX,55.91625363,-4.07340569,S02002197,S01011718
Motherwell Dalziel St Andrew's Parish Church of Scotland,SC015503,North Lanarkshire,ML1 3EZ,55.78772815,-4.00470092,S02002156,S01011480
19th Motherwell Guide Unit,SC033452,North Lanarkshire,ML1 3JD,55.79042187,-3.99711914,S02002156,S01011480
6th Motherwell Brownie Unit,SC039385,North Lanarkshire,ML1 3EX,55.78940925,-4.00411738,S02002156,S01011480
Ebenezer Evangelical Church - Motherwell,SC016143,North Lanarkshire,ML2 0DG,55.76518918,-3.94711463,S02002136,S01011364
1st Chryston Boys Brigade Company,SC016573,North Lanarkshire,G69 0HL,55.91655128,-4.08079892,S02002197,S01011716
Overtown Community Nursery & Parents And Toddlers,SC016797,North Lanarkshire,ML2 0QF,55.75447263,-3.9095933,S02002135,S01011359
Enable Newmains & District Branch,SC020778,North Lanarkshire,ML2 0QX,55.75568837,-3.91750933,S02002135,S01011359
Motherwell North Parish Church of Scotland,SC016821,North Lanarkshire,ML1 3QU,55.79708657,-4.0094734,S02002158,S01011486
North Motherwell Community Partnership Forum,SC035144,North Lanarkshire,ML1 3RA,55.79710603,-4.01158028,S02002158,S01011486
St Aidan's Tiny Tots,SC016998,North Lanarkshire,ML2 7JT,55.78200952,-3.9227732,S02002142,S01011406
2nd Wishaw Brownie Unit,SC039094,North Lanarkshire,ML2 7JT,55.78200952,-3.9227732,S02002142,S01011406
2nd Wishaw Guide Unit,SC050690,North Lanarkshire,ML2 7JT,55.78200952,-3.9227732,S02002142,S01011406
4th Wishaw Ranger Unit,SC050691,North Lanarkshire,ML2 7JT,55.78200952,-3.9227732,S02002142,S01011406
Cleland Parish Church of Scotland,SC017084,North Lanarkshire,ML1 5RJ,55.80181557,-3.91708034,S02002150,S01011449
Cambusnethan Miners Charitable Society,SC017127,North Lanarkshire,ML2 8PY,55.77846252,-3.88898514,S02002145,S01011417
Newmains Community Trust Ltd,SC042980,North Lanarkshire,ML2 9AX,55.78319317,-3.87878448,S02002145,S01011417
Cambusnethan Miners Boxing Club,SC050497,North Lanarkshire,ML2 8QA,55.78048695,-3.88707388,S02002145,S01011417
Coatbridge Citizens Advice Bureau,SC017271,North Lanarkshire,ML5 3AA,55.86127015,-4.02871887,S02002176,S01011601
Ecosse ABC,SC047330,North Lanarkshire,ML5 3AA,55.86127015,-4.02871887,S02002176,S01011601
Banton Parish Church Of Scotland,SC017638,North Lanarkshire,G65 0QP,55.99040542,-4.00383013,S02002210,S01011789
Airdrie Division Guides,SC031892,North Lanarkshire,G68 9FA,55.9530353,-4.0363526,S02002210,S01011789
3rd Airdrie Brownie Unit,SC038764,North Lanarkshire,G68 9FA,55.9530353,-4.0363526,S02002210,S01011789
Kilsyth Community Church,SC017980,North Lanarkshire,G65 0BH,55.97561046,-4.05420729,S02002210,S01011792
Greengairs Parish Church of Scotland,SC018154,North Lanarkshire,ML6 7TE,55.91377306,-3.94226908,S02002191,S01011683
Greengairs & Wattstown Village Trust,SC034544,North Lanarkshire,ML6 7TE,55.91377306,-3.94226908,S02002191,S01011683
Upperton Residents Committee,SC048016,North Lanarkshire,ML6 7TR,55.91704596,-3.91114782,S02002191,S01011683
Airdrie Baptist Church,SC018264,North Lanarkshire,ML6 0PY,55.88943387,-3.98805113,S02002191,S01011686
6th Coatbridge Guide Unit,SC035853,North Lanarkshire,ML6 0NP,55.88846386,-3.99024026,S02002191,S01011686
14th Coatbridge Brownie Unit,SC041168,North Lanarkshire,ML6 0NR,55.88890904,-3.98716076,S02002191,S01011686
5th Coatbridge Senior Section,SC042044,North Lanarkshire,ML6 0NP,55.88846386,-3.99024026,S02002191,S01011686
1st Coatbridge Guide Unit,SC046954,North Lanarkshire,ML6 0NR,55.88890904,-3.98716076,S02002191,S01011686
14th Coatbridge Rainbow Unit,SC047298,North Lanarkshire,ML6 0NR,55.88890904,-3.98716076,S02002191,S01011686
Craighalbert Christian Fellowship,SC018603,North Lanarkshire,G68 0LS,55.95813055,-4.01340747,S02002207,S01011775
Peter Allan Stiring Wynd Memorial Trust,SC026872,North Lanarkshire,G68 0LS,55.95813055,-4.01340747,S02002207,S01011775
Islamic Education Trust Cumbernauld,SC032693,North Lanarkshire,G68 0LS,55.95813055,-4.01340747,S02002207,S01011775
Allanton Miners Charitable Society,SC018634,North Lanarkshire,ML7 4DE,55.82454166,-3.79821071,S02002147,S01011433
Forgewood Holdings Ltd,SC019269,North Lanarkshire,ML1 3BQ,55.78240499,-4.0103759,S02002156,S01011477
Glenboig Assembly,SC019861,North Lanarkshire,ML5 1JY,55.86222796,-4.05062999,S02002172,S01011579
7th Coatbridge Guide Unit,SC034643,North Lanarkshire,ML5 1RR,55.86309312,-4.05264123,S02002172,S01011579
6th Coatbridge Rainbow Unit,SC041227,North Lanarkshire,ML5 1RW,55.86411015,-4.05255106,S02002172,S01011579
Sikeside and Greenend Education Centre,SC020604,North Lanarkshire,ML5 4QH,55.8560354,-4.00265788,S02002178,S01011610
Enable Airdrie Branch,SC021020,North Lanarkshire,ML6 9QW,55.85200795,-3.96428402,S02002179,S01011613
Friends of Brownsburn Community Park (SAGES),SC031693,North Lanarkshire,ML6 9QW,55.85200795,-3.96428402,S02002179,S01011613
New College Lanarkshire,SC021206,North Lanarkshire,ML1 2TX,55.78396305,-3.96685398,S02002150,S01011451
15th Motherwell Boys Brigade,SC034673,North Lanarkshire,ML1 5NL,55.80032778,-3.94258246,S02002150,S01011451
Mavisbank School Fund,SC021421,North Lanarkshire,ML6 0EB,55.86921767,-3.98556331,S02002187,S01011655
Enable Cumbernauld Branch,SC021450,North Lanarkshire,G67 3QB,55.96410393,-3.94818711,S02002205,S01011763
Meadow Club Playgroup,SC021568,North Lanarkshire,G67 4RA,55.93685472,-4.0131038,S02002199,S01011732
Utheo Ltd,SC021687,North Lanarkshire,ML4 2SR,55.80589199,-4.03036838,S02002162,S01011515
Motherwell & District Women's Aid,SC022169,North Lanarkshire,ML1 2NT,55.78376226,-3.96311203,S02002139,S01011382
Craigneuk War Memorial Group,SC039963,North Lanarkshire,ML2 7TH,55.78002768,-3.95609911,S02002139,S01011382
Motherwell Islamic Centre,SC041197,North Lanarkshire,ML2 7XE,55.7800684,-3.95862069,S02002139,S01011382
Cumbernauld Action On Care Of The Elderly,SC022277,North Lanarkshire,G67 3EN,55.9696898,-3.95806652,S02002206,S01011766
Recap (N Lanarkshire),SC034452,North Lanarkshire,G68 0EF,55.97435736,-3.9668765,S02002206,S01011766
Coatbridge Spiritualist Church & Healing Sanctuary,SC022523,North Lanarkshire,ML5 3HX,55.86686206,-4.0242318,S02002175,S01011596
Focus Youth Project,SC022960,North Lanarkshire,G71 5BY,55.82972777,-4.05027602,S02002167,S01011540
Netherton Mothers & Toddlers Group,SC024097,North Lanarkshire,ML2 0DN,55.77004782,-3.95693825,S02002136,S01011367
Air Training Corps No 1001 Monklands Squadron Non Public Sports & Welfare Funds,SC024708,North Lanarkshire,ML5 1HQ,55.85802416,-4.04131658,S02002172,S01011578
Urban Jump,SC045776,North Lanarkshire,ML5 1HH,55.85650061,-4.04106091,S02002172,S01011578
Air Training Corps No 498 Wishaw Squadron Non Public Sports & Welfare Funds,SC024728,North Lanarkshire,ML2 7EQ,55.78327505,-3.91770042,S02002142,S01011407
Equality for All,SC042354,North Lanarkshire,ML2 7YP,55.78603662,-3.91753311,S02002142,S01011407
Wishaw Games Trust,SC025045,North Lanarkshire,ML1 3NJ,55.78948259,-4.01172952,S02002157,S01011483
Elutheria Company Ltd,SC026602,North Lanarkshire,G69 7SN,55.85303617,-4.07516519,S02002169,S01011556
Calderbank Conservation Society,SC026784,North Lanarkshire,ML6 9TD,55.84546352,-3.96890552,S02002179,S01011614
North Lanarkshire Out Of School Care Forum,SC026819,North Lanarkshire,G67 2DN,55.95315107,-3.97403372,S02002203,S01011751
Viewpark Family Centre Association Limited,SC027136,North Lanarkshire,G71 6PG,55.82707928,-4.06675728,S02002166,S01011535
Reel Time Music Project,SC027455,North Lanarkshire,ML1 5JU,55.81356783,-3.94413599,S02002151,S01011453
Airdrie Helping Hands,SC028908,North Lanarkshire,ML6 7EA,55.87253284,-3.96153219,S02002188,S01011668
Oscars Playscheme,SC028943,North Lanarkshire,ML6 9BY,55.86158034,-3.99214081,S02002186,S01011650
4th Airdrie Guides,SC040285,North Lanarkshire,ML6 9BY,55.86158034,-3.99214081,S02002186,S01011650
Equals Advocacy Partnership Mental Health / Dementia North Lanarkshire,SC028948,North Lanarkshire,ML1 1PN,55.79197177,-3.98799451,S02002155,S01011472
Parkinsons Self Help Group (Motherwell Area),SC033643,North Lanarkshire,ML1 1PN,55.79197177,-3.98799451,S02002155,S01011472
Equals Advocacy Ltd,SC050005,North Lanarkshire,ML1 1PN,55.79197177,-3.98799451,S02002155,S01011472
Plains Evangelical Church,SC029054,North Lanarkshire,ML6 7JQ,55.87986307,-3.92300489,S02002190,S01011678
Caldercruix Youth And Community Development Project,SC029139,North Lanarkshire,ML6 7QS,55.89174644,-3.88740281,S02002190,S01011681
Airdrie Astronomical Association,SC041014,North Lanarkshire,ML6 7PZ,55.89002579,-3.89118914,S02002190,S01011681
Partners In Play,SC029250,North Lanarkshire,ML2 0LD,55.76035414,-3.92430495,S02002135,S01011362
Garrion Peoples Housing Co-operative Limited,SC045936,North Lanarkshire,ML2 0LD,55.76035414,-3.92430495,S02002135,S01011362
Saint Aidans Shining Stars,SC049004,North Lanarkshire,ML2 0PP,55.76518087,-3.93512711,S02002135,S01011362
Craigneuk Lifelong Learning Association,SC029738,North Lanarkshire,ML2 7SR,55.77738912,-3.94965254,S02002139,S01011387
Redburn School Trust,SC029939,North Lanarkshire,G67 2EL,55.95162125,-3.96686032,S02002203,S01011754
Greater Shotts Disability Association,SC030111,North Lanarkshire,ML7 5ET,55.81930298,-3.7926377,S02002148,S01011435
Getting Better Together Ltd,SC033111,North Lanarkshire,ML7 5ET,55.81930298,-3.7926377,S02002148,S01011435
Calderhead Toddler Group,SC036507,North Lanarkshire,ML7 5ET,55.81930298,-3.7926377,S02002148,S01011435
Airdrie Craft Group,SC030165,North Lanarkshire,ML6 9LZ,55.86481692,-3.96748768,S02002184,S01011638
Dove Association,SC030169,North Lanarkshire,G67 3DT,55.96069677,-3.95790061,S02002205,S01011762
Reach Out,SC030436,North Lanarkshire,ML1 2QE,55.77897534,-3.98584951,S02002138,S01011378
Caldercruix And Longriggend Parish Church of Scotland,SC030492,North Lanarkshire,ML6 8WE,55.88815258,-3.89261711,S02002190,S01011679
Calder Pre 5 Playgroup,SC030670,North Lanarkshire,ML5 4AQ,55.8538854,-4.03237609,S02002171,S01011573
1st Coatbridge Brownie Unit,SC036811,North Lanarkshire,ML5 5HE,55.85370263,-4.03853362,S02002171,S01011573
Coatbridge Division,SC041042,North Lanarkshire,ML5 5HE,55.85370263,-4.03853362,S02002171,S01011573
Drumpellier Allotment Association,SC030709,North Lanarkshire,ML5 2PH,55.877723,-4.05485225,S02002174,S01011590
1st Bellshill  & Mossend Scout Group,SC042004,North Lanarkshire,ML5 2PJ,55.87771027,-4.05669006,S02002174,S01011590
Coatbridge Helping Hands,SC030813,North Lanarkshire,ML7 4LU,55.84420406,-3.86934875,S02002149,S01011444
Rugrats Toddler Group Salsburgh,SC035822,North Lanarkshire,ML7 4LS,55.84449773,-3.86953855,S02002149,S01011444
1st A Tannochside Guide Unit,SC030917,North Lanarkshire,G71 6TW,55.83166613,-4.07562335,S02002168,S01011547
1st Viewpark Senior Section Unit,SC035305,North Lanarkshire,G71 6TW,55.83166613,-4.07562335,S02002168,S01011547
1st A Tannochside Brownie Unit,SC040983,North Lanarkshire,G71 6TR,55.83269538,-4.0710793,S02002168,S01011547
Living Waters Christian Centre,SC031532,North Lanarkshire,ML4 2EE,55.81511455,-4.0237142,S02002163,S01011521
St Helen's Out Of School Care,SC031705,North Lanarkshire,G67 4JL,55.93581324,-4.01963012,S02002199,S01011733
5th Cumbernauld Rainbow Unit,SC031717,North Lanarkshire,G67 2DS,55.95455186,-3.9735444,S02002203,S01011752
16th Cumbernauld Brownies,SC041232,North Lanarkshire,G67 2DS,55.95455186,-3.9735444,S02002203,S01011752
Glenboig Neighbourhood House,SC032236,North Lanarkshire,ML5 2RD,55.8931476,-4.04928649,S02002192,S01011691
GNH,SC041931,North Lanarkshire,ML5 2RD,55.8931476,-4.04928649,S02002192,S01011691
Glenboig Development Trust (SCIO),SC046147,North Lanarkshire,ML5 2RD,55.8931476,-4.04928649,S02002192,S01011691
Church Of Christ Cumbernauld,SC032375,North Lanarkshire,G68 9DB,55.93662384,-4.03806893,S02002198,S01011722
Islamic Society - Asian Educational Cultural Welfare Airdrie & Coatbridge,SC032770,North Lanarkshire,ML5 3PU,55.86222509,-4.00500595,S02002186,S01011651
Cliftonville & Coatdyke Community Group,SC050029,North Lanarkshire,ML5 3PU,55.86222509,-4.00500595,S02002186,S01011651
Abronhill Regeneration Forum,SC032872,North Lanarkshire,G67 3LF,55.95889967,-3.95052079,S02002204,S01011757
Abronhill Housing Association Limited,SC033116,North Lanarkshire,G67 3AZ,55.95933215,-3.95441941,S02002204,S01011757
2nd Cambusnethan Boys Brigade Company,SC032938,North Lanarkshire,ML2 0AU,55.76808843,-3.94847075,S02002136,S01011365
HOPE for Autism,SC033312,North Lanarkshire,ML6 6LH,55.87204782,-3.9777956,S02002188,S01011666
Voice Of Experience Forum,SC037466,North Lanarkshire,ML6 6GX,55.86787308,-3.97977294,S02002188,S01011666
Kilsyth Thistle Pipe Band,SC033707,North Lanarkshire,G65 0TA,55.9695737,-4.05675569,S02002211,S01011795
North Lanarkshire Carers Together,SC033795,North Lanarkshire,ML1 3TT,55.80520568,-4.00373245,S02002159,S01011496
Forgewood Housing Co-Operative Limited,SC045344,North Lanarkshire,ML1 3TT,55.80520568,-4.00373245,S02002159,S01011496
Community Help And Resource Information Service (Chris),SC033924,North Lanarkshire,G65 9HD,55.9609906,-4.04599865,S02002210,S01011787
Croy Regeneration Forum,SC047764,North Lanarkshire,G65 9HR,55.95965388,-4.04206715,S02002210,S01011787
Cleland Mother And Toddler Group,SC034090,North Lanarkshire,ML2 8EG,55.76682255,-3.91408676,S02002141,S01011394
6th A Motherwell Brownies,SC034526,North Lanarkshire,ML1 4BJ,55.79636291,-3.97985884,S02002155,S01011471
6th Motherwell Guides,SC034690,North Lanarkshire,ML2 0EE,55.75654297,-3.9139974,S02002135,S01011358
3rd Stepps Brownie Unit,SC034802,North Lanarkshire,ML5 2PU,55.89008345,-4.03626748,S02002192,S01011690
2nd Chryston Guides,SC036020,North Lanarkshire,ML5 2PU,55.89008345,-4.03626748,S02002192,S01011690
Chryston and Stepps Division,SC042376,North Lanarkshire,ML5 2PU,55.89008345,-4.03626748,S02002192,S01011690
3rd Chryston Brownies,SC043099,North Lanarkshire,ML5 2PU,55.89008345,-4.03626748,S02002192,S01011690
231st Glasgow (1st Kilsyth) Scout Group,SC035230,North Lanarkshire,G68 0FJ,55.96123748,-4.01850334,S02002207,S01011776
Petersburn Development Trust,SC035315,North Lanarkshire,ML6 8FZ,55.85561248,-3.95916145,S02002183,S01011635
18th Cumbernauld Guides,SC035320,North Lanarkshire,G67 3PA,55.95712038,-3.94540126,S02002204,S01011759
Independent Nurseries Forum (North Lanarkshire),SC035367,North Lanarkshire,ML1 4WR,55.83477283,-3.98377504,S02002160,S01011504
North Motherwell Senior Citizens Club,SC035787,North Lanarkshire,ML1 3LS,55.79307407,-4.00808626,S02002157,S01011485
20th Cumbernauld Brownie Unit,SC035847,North Lanarkshire,G67 4PA,55.93037315,-4.03292212,S02002198,S01011720
1st Chryston Brownies,SC036024,North Lanarkshire,G69 0NL,55.9193252,-4.07672252,S02002197,S01011717
1st Chryston Rainbows,SC036029,North Lanarkshire,G69 0NL,55.9193252,-4.07672252,S02002197,S01011717
2nd Stepps Rainbows,SC036026,North Lanarkshire,G33 6LQ,55.8879578,-4.15989594,S02002193,S01011699
3rd Stepps Rainbow Unit,SC045353,North Lanarkshire,G33 6LX,55.88897179,-4.15947253,S02002193,S01011699
2nd Chryston Rainbows,SC036028,North Lanarkshire,G69 9NY,55.90643073,-4.11252627,S02002195,S01011707
5th Chryston Rainbow Unit,SC047726,North Lanarkshire,G69 9NY,55.90643073,-4.11252627,S02002195,S01011707
2nd Bargeddie Brownie Unit,SC036173,North Lanarkshire,ML5 4JN,55.84916773,-4.01431768,S02002177,S01011602
Royal Air Forces Association Airdrie And Coatbridge Branch,SC037838,North Lanarkshire,ML5 4JR,55.84983638,-4.01409668,S02002177,S01011602
Mary Cameron Foundation,SC050529,North Lanarkshire,ML5 4EF,55.85642213,-4.01255211,S02002177,S01011602
2nd Bargeddie Rainbow Unit,SC036175,North Lanarkshire,ML5 1QY,55.86720317,-4.03677975,S02002173,S01011584
10th Wishaw Brownie Unit,SC036359,North Lanarkshire,ML2 7HE,55.78762204,-3.91671786,S02002143,S01011410
"St Mungo's Church of Scotland, Cumbernauld",SC036366,North Lanarkshire,G67 4BG,55.93757421,-4.00425485,S02002200,S01011734
36th Lanarkshire (3rd Shotts) Scout Group,SC036524,North Lanarkshire,ML7 4JQ,55.82586725,-3.81014959,S02002147,S01011432
Glencassels Community Development Project,SC036794,North Lanarkshire,ML2 7RJ,55.78038336,-3.94615035,S02002139,S01011384
Glencassels Community Development Project (SCIO),SC047517,North Lanarkshire,ML2 7RJ,55.78038336,-3.94615035,S02002139,S01011384
Made 4U in ML2,SC037087,North Lanarkshire,ML2 8NT,55.78005988,-3.90020885,S02002144,S01011414
Cornerstone Christian Ministries / Fellowship,SC037165,North Lanarkshire,ML7 4AB,55.82044139,-3.80756704,S02002147,S01011431
North Lanarkshire Leisure Limited,SC037439,North Lanarkshire,G68 9NE,55.94534865,-4.03707004,S02002198,S01011726
Darussalam,SC037720,North Lanarkshire,G33 6AU,55.88787819,-4.13665609,S02002193,S01011697
Our Zone Quality Childcare,SC038517,North Lanarkshire,ML5 5EA,55.84849443,-4.03230229,S02002171,S01011569
15th Coatbridge Boys Brigade Company,SC038592,North Lanarkshire,ML5 4UP,55.84462833,-3.99729516,S02002178,S01011612
New Stevenson Methodist Church,SC038786,North Lanarkshire,ML4 3EP,55.82380936,-4.0261773,S02002165,S01011531
9th A Motherwell Brownie Unit,SC039351,North Lanarkshire,ML2 0AF,55.76993184,-3.95293092,S02002136,S01011366
The Storehouse,SC040583,North Lanarkshire,G65 9JX,55.97570789,-4.06289923,S02002211,S01011797
10th Coatbridge Brownies,SC040886,North Lanarkshire,ML6 8NL,55.8625894,-3.93568625,S02002182,S01011626
10th Coatbridge Guides,SC041163,North Lanarkshire,ML6 8NL,55.8625894,-3.93568625,S02002182,S01011626
20th Coatbridge Rainbows,SC041141,North Lanarkshire,ML5 5DA,55.84588281,-4.0331723,S02002170,S01011567
Viewpark Boxing Club (SCIO),SC048942,North Lanarkshire,ML5 5EQ,55.84775104,-4.03541045,S02002170,S01011567
14th Coatbridge Guides,SC041147,North Lanarkshire,G69 7TA,55.85979618,-4.07079576,S02002169,S01011553
32nd Cumbernauld Brownie Unit,SC041148,North Lanarkshire,G67 3DA,55.95616216,-3.95993027,S02002204,S01011756
10th Cumbernauld Brownies,SC041419,North Lanarkshire,G67 3DB,55.95541036,-3.96143004,S02002204,S01011756
13th Coatbridge Rainbow Unit,SC041245,North Lanarkshire,ML6 6PL,55.87583025,-3.97730058,S02002188,S01011664
Cumbernauld Colts Football Club,SC041460,North Lanarkshire,G67 3PQ,55.95638351,-3.94994568,S02002204,S01011758
1st Kilsyth Brownies,SC041495,North Lanarkshire,G65 0AX,55.98074801,-4.0386909,S02002210,S01011793
Friends of Dunbeth Park,SC041731,North Lanarkshire,ML5 3QW,55.86360269,-4.0114533,S02002176,S01011599
6th Coatbridge Brownies,SC042043,North Lanarkshire,ML5 5GD,55.84883092,-4.03532314,S02002170,S01011568
2nd Airdrie Rainbows,SC042056,North Lanarkshire,ML6 7AR,55.86902497,-3.95098241,S02002189,S01011673
Realise,SC042181,North Lanarkshire,ML2 9JA,55.79183446,-3.88725586,S02002145,S01011420
13th Coatbridge Brownies,SC042466,North Lanarkshire,ML5 5BJ,55.84581471,-4.04649077,S02002170,S01011564
Coatbridge Deaf Club,SC042478,North Lanarkshire,ML1 4DJ,55.80541621,-3.96057989,S02002154,S01011466
Toys and Games Giveaway (TAGG),SC049017,North Lanarkshire,ML1 4BF,55.80421971,-3.95953044,S02002154,S01011466
In Touch,SC042552,North Lanarkshire,G67 1NW,55.94213854,-4.00320962,S02002201,S01011743
One Church Scotland Ltd,SC042677,North Lanarkshire,ML5 3JA,55.86599678,-4.02055889,S02002175,S01011595
Diamonds in the Community ,SC049275,North Lanarkshire,ML5 3JD,55.86619851,-4.01812413,S02002175,S01011595
Coatbridge Autistic Parent Support Group,SC042696,North Lanarkshire,ML5 5RF,55.85242569,-4.05370821,S02002169,S01011561
10th Coatbridge Rainbows,SC042855,North Lanarkshire,ML5 2EA,55.86856906,-4.03678734,S02002174,S01011585
Coatbridge Community Orchard,SC048653,North Lanarkshire,ML5 2EE,55.86781659,-4.03935311,S02002174,S01011585
Moodiesburn Community Development Trust,SC042959,North Lanarkshire,G69 0DX,55.91223713,-4.08719222,S02002196,S01011709
1st Waterside Brownies,SC050817,North Lanarkshire,G69 0PD,55.91440134,-4.08782061,S02002196,S01011709
VIP Arts and Sports Academy ,SC043687,North Lanarkshire,G71 6JN,55.82287739,-4.05256562,S02002166,S01011533
Motherwell African Refugee Community Association,SC043955,North Lanarkshire,ML1 3PA,55.79588764,-4.00639651,S02002158,S01011488
2nd Airdrie Brownie Unit,SC044078,North Lanarkshire,G69 7FN,55.85627958,-4.06346644,S02002192,S01011695
The Bannan Fitness Club,SC044794,North Lanarkshire,ML5 2JG,55.87144517,-4.05191514,S02002174,S01011589
Home Comforts North Lanarkshire,SC044975,North Lanarkshire,ML6 6LS,55.87268254,-3.97520643,S02002188,S01011667
Kilsyth Community Food Bank,SC045108,North Lanarkshire,G65 9EH,55.97292941,-4.09283242,S02002212,S01011803
Kilsyth Community Food Bank SCIO,SC051143,North Lanarkshire,G65 9EH,55.97292941,-4.09283242,S02002212,S01011803
The Well,SC045111,North Lanarkshire,ML6 6BT,55.88090303,-3.98206712,S02002187,S01011661
North Lanarkshire Muslim Women & Family Alliance,SC045588,North Lanarkshire,ML5 1HX,55.85521608,-4.04481217,S02002172,S01011577
DARUL MUSTAFA,SC050994,North Lanarkshire,ML5 1EJ,55.85646037,-4.04618775,S02002172,S01011577
"Harthill, Eastfield & Greenrigg Community Group (HEG)",SC045681,North Lanarkshire,ML7 5SH,55.86271315,-3.75109255,S02002149,S01011443
2nd Bargeddie Guide Unit,SC045818,North Lanarkshire,ML5 2HD,55.86894727,-4.04594951,S02002174,S01011587
25th Coatbridge Brownie Unit,SC046283,North Lanarkshire,ML5 2HD,55.86894727,-4.04594951,S02002174,S01011587
Viewpark Conservation Group,SC045857,North Lanarkshire,G71 5BH,55.83487895,-4.05017989,S02002167,S01011542
Inspiring Queenzieburn SCIO,SC046099,North Lanarkshire,G65 9UH,55.98020359,-4.05900314,S02002212,S01011798
Rivals School of Martial Arts,SC046518,North Lanarkshire,ML7 5AQ,55.80134372,-3.82951292,S02002146,S01011428
Rivals Foundation,SC046652,North Lanarkshire,ML7 5AQ,55.80134372,-3.82951292,S02002146,S01011428
10th Wishaw Guide Unit,SC046519,North Lanarkshire,ML2 8QP,55.78389654,-3.91242032,S02002143,S01011408
Elite Community Gym,SC046587,North Lanarkshire,ML1 4UH,55.80738968,-3.97092393,S02002154,S01011464
The Albion Rovers Community Trust ,SC046671,North Lanarkshire,ML5 3RB,55.85943579,-4.01291571,S02002176,S01011600
Chapelhall Allotments Association ,SC047049,North Lanarkshire,ML6 8QT,55.83976423,-3.95039458,S02002181,S01011621
Community Action Newarthill,SC047207,North Lanarkshire,ML1 5DU,55.81398204,-3.95598322,S02002152,S01011456
1st Coatbridge Boy's Brigade Company,SC047284,North Lanarkshire,ML5 2BZ,55.86857782,-4.02700622,S02002175,S01011592
3rd Viewpark Rainbow Unit,SC047827,North Lanarkshire,G71 6HB,55.82347574,-4.06085082,S02002166,S01011534
Elim Befriending Service,SC048011,North Lanarkshire,ML1 2TN,55.78310138,-3.98523018,S02002138,S01011380
1st Bonkle Guide Unit,SC048250,North Lanarkshire,ML2 9ES,55.79032267,-3.87033915,S02002145,S01011425
Lanarkshire Deaf Club SCIO,SC048560,North Lanarkshire,ML1 1EA,55.79470635,-3.9939406,S02002159,S01011494
Kilsyth Community Football Club,SC048867,North Lanarkshire,G65 9AP,55.97826464,-4.07334161,S02002212,S01011802
Cumbernauld Musical Theatre Society ,SC048925,North Lanarkshire,G68 0JS,55.96802247,-3.99033425,S02002207,S01011772
Cumbernauld Resilience,SC050676,North Lanarkshire,G68 0HS,55.96808579,-3.99253277,S02002207,S01011772
Kirklee Road  Community Allotments Association,SC048951,North Lanarkshire,ML4 2QX,55.81542253,-4.00160812,S02002161,S01011507
Cleland Gala Day,SC049754,North Lanarkshire,ML2 0DH,55.76403777,-3.94264188,S02002136,S01011363
The Economic Forum for Women Empowerment Scotland,SC050074,North Lanarkshire,ML1 2JL,55.77757326,-3.9634864,S02002138,S01011374
Kirkwood Community Aid,SC050094,North Lanarkshire,ML5 5SD,55.85173873,-4.06360913,S02002169,S01011557
ViewCare Project,SC050184,North Lanarkshire,G71 6PJ,55.82918345,-4.07202624,S02002166,S01011537
Hartwood Community Development Group,SC050371,North Lanarkshire,ML7 5DU,55.81089997,-3.83952057,S02002146,S01011429
G71 Community Action Group,SC050440,North Lanarkshire,G71 6TD,55.83147714,-4.07190873,S02002168,S01011546
1st Auchinairn Brownies,SC050465,North Lanarkshire,G67 3NJ,55.96843043,-3.94566453,S02002205,S01011765
1st B Tannochside Brownie Unit,SC050476,North Lanarkshire,ML5 5LL,55.85227242,-4.04564805,S02002171,S01011574
Bellshill Boys Club and Community Centre,SC050595,North Lanarkshire,ML4 1RS,55.82957785,-4.01585932,S02002164,S01011525
Strathclyde Park Rowing Club,SC050728,North Lanarkshire,ML1 3ED,55.78551726,-4.02225867,S02002159,S01011490
Palm Church (SCIO),SC050819,North Lanarkshire,G67 1JF,55.94430521,-3.99928598,S02002201,S01011742
Motherwell Athletics Club,SC050900,North Lanarkshire,ML1 3JL,55.79318985,-4.00043528,S02002157,S01011481
8th Airdrie Boys Brigade,SC051024,North Lanarkshire,ML6 6NE,55.86990128,-3.9832966,S02002188,S01011665
McGurk Boxing and Fitness,SC051032,North Lanarkshire,ML4 2NT,55.81668689,-4.00839287,S02002161,S01011506
Joe Wilson Table Tennis Club,SC051046,North Lanarkshire,ML1 5AT,55.80842344,-3.95627883,S02002152,S01011458
Lanarkshire Police Historical Society,SC051108,North Lanarkshire,ML6 9DU,55.86049487,-3.98312074,S02002185,S01011644
Dare 2 Care SCIO,SC051117,North Lanarkshire,ML1 4EB,55.80293498,-3.96232197,S02002154,S01011467
