Name,Charity Number,Local authority,Postcode,Latitude,Longitude,IntermediateZone2011Code,DataZone2011Code
Bilston Miners Welfare Society & Social Club,SC000099,Midlothian,EH25 9SF,55.87003476,-3.18016835,S02002057,S01010961
Bilston Parish Church (Church of Scotland),SC032180,Midlothian,EH25 9RZ,55.87025704,-3.18041481,S02002057,S01010961
Dalkeith Congregation Of Jehovahs Witnesses,SC000901,Midlothian,EH23 4LS,55.83183287,-3.09209555,S02002051,S01010931
Temple Village Halls Association,SC004324,Midlothian,EH23 4SQ,55.81462638,-3.09099111,S02002051,S01010931
Temple & District Playgroup,SC020435,Midlothian,EH23 4SQ,55.81462638,-3.09099111,S02002051,S01010931
1st A Loanhead Brownie Pack,SC033694,Midlothian,EH23 4FT,55.85357485,-3.06163574,S02002051,S01010931
Temple Old Kirk Friends [SCIO],SC049931,Midlothian,EH23 4SH,55.81786998,-3.09505581,S02002051,S01010931
The Glencorse Association,SC001050,Midlothian,EH26 0QZ,55.84772614,-3.19108771,S02002056,S01010956
Penicuik House Preservation Trust,SC014118,Midlothian,EH25 9RD,55.86446877,-3.18618333,S02002056,S01010956
Rosslyn Chapel Trust,SC024324,Midlothian,EH25 9PU,55.85615458,-3.15910727,S02002056,S01010956
1st Rosslyn Rainbows,SC031122,Midlothian,EH25 9TG,55.87414661,-3.17866286,S02002056,S01010956
Free Baptist Church,SC046125,Midlothian,EH26 0QZ,55.84772614,-3.19108771,S02002056,S01010956
Dalkeith Miners' Charitable Society,SC001182,Midlothian,EH22 2AT,55.892265,-3.0575914,S02002066,S01011013
Midlothian Advice & Resource Centre,SC009769,Midlothian,EH22 2AT,55.892265,-3.0575914,S02002066,S01011013
11th Midlothian Penicuik Scout Group,SC001286,Midlothian,EH26 8DQ,55.83043587,-3.217891,S02002052,S01010937
Air Training Corps No 1739 2nd Midlothian Squadron Non-Public Sports & Welfare Funds,SC024679,Midlothian,EH26 8DD,55.83146416,-3.2184021,S02002052,S01010937
Peniciuk Youth Band,SC041549,Midlothian,EH26 8DQ,55.83043587,-3.217891,S02002052,S01010937
Penicuik Congregation Of Jehovahs Witnesses,SC001374,Midlothian,EH25 9LN,55.85908069,-3.16325246,S02002057,S01010959
Roslin Men's Shed,SC048103,Midlothian,EH25 9LW,55.85954876,-3.16601446,S02002057,S01010959
Miners Welfare Society Arniston,SC001535,Midlothian,EH23 4AQ,55.84828341,-3.05630057,S02002071,S01011039
Gorebridge And District Environmental Group,SC035327,Midlothian,EH23 4BG,55.85013597,-3.05716544,S02002071,S01011039
St Marys Episcopal Church: Dalkeith,SC001677,Midlothian,EH22 3BB,55.89184424,-3.07195481,S02002066,S01011010
Midlothian Voluntary Action,SC008286,Midlothian,EH22 1AE,55.89308182,-3.07016604,S02002066,S01011010
Volunteer Centre Midlothian,SC027578,Midlothian,EH22 1AE,55.89308182,-3.07016604,S02002066,S01011010
Kilbrandon Fund (Midlothian),SC028873,Midlothian,EH22 3BB,55.89184424,-3.07195481,S02002066,S01011010
Royal British Legion Scotland Dalkeith Branch,SC029871,Midlothian,EH22 1HA,55.89271137,-3.07143506,S02002066,S01011010
8th Penicuik Brownie Pack,SC032449,Midlothian,EH22 3BB,55.89184424,-3.07195481,S02002066,S01011010
Midlothian Financial Inclusion Network,SC035964,Midlothian,EH22 1AE,55.89308182,-3.07016604,S02002066,S01011010
Midsafe,SC047969,Midlothian,EH22 3AA,55.89186746,-3.06928514,S02002066,S01011010
One Dalkeith ,SC048018,Midlothian,EH22 1AG,55.89316503,-3.06989649,S02002066,S01011010
Easthouses Miners Charitable Society,SC002122,Midlothian,EH22 4ED,55.88002407,-3.04952176,S02002068,S01011021
Loanhead Miners Charitable Society,SC002860,Midlothian,EH20 9AQ,55.87686349,-3.15270745,S02002059,S01010967
Loanhead Parish Church (Church of Scotland),SC014420,Midlothian,EH20 9AJ,55.87639154,-3.156082,S02002059,S01010967
2nd Loanhead Guides,SC039577,Midlothian,EH20 9AJ,55.87639154,-3.156082,S02002059,S01010967
Bonnyrigg Parish Church (Church of Scotland),SC003482,Midlothian,EH19 2AZ,55.87582195,-3.1115993,S02002061,S01010981
Bright Sparks Playgroup,SC029148,Midlothian,EH19 2AD,55.87751536,-3.1101452,S02002061,S01010981
Bright Sparks SCIO,SC049901,Midlothian,EH19 2AD,55.87751536,-3.1101452,S02002061,S01010981
Newbattle Community Nursery,SC003684,Midlothian,EH22 4RT,55.87265988,-3.06268395,S02002070,S01011032
Newbattle Community Education Centre,SC015325,Midlothian,EH22 4RT,55.87265988,-3.06268395,S02002070,S01011032
Midlothian Community Media Association,SC036762,Midlothian,EH22 4RT,55.87265988,-3.06268395,S02002070,S01011032
PlayBase SCIO,SC043653,Midlothian,EH22 4RT,55.87265988,-3.06268395,S02002070,S01011032
Newbattle Community Nursery SCIO,SC047793,Midlothian,EH22 4RT,55.87265988,-3.06268395,S02002070,S01011032
Penicuik Horticultural Society,SC003929,Midlothian,EH20 9NB,55.8813976,-3.1626411,S02002058,S01010963
Broomhill Day Centre Penicuik,SC004494,Midlothian,EH26 0AB,55.83163527,-3.22920009,S02002053,S01010939
Penicuik: St Mungo's Parish Church (Church of Scotland),SC005838,Midlothian,EH26 9HR,55.82905876,-3.23165715,S02002053,S01010939
Penicuik: North Parish Church (Church of Scotland),SC010902,Midlothian,EH26 9BB,55.83079663,-3.23219104,S02002053,S01010939
Penicuik Trefoil Guild,SC032592,Midlothian,EH26 9BB,55.83079663,-3.23219104,S02002053,S01010939
Penicuik Community First Responders,SC037495,Midlothian,EH26 9BB,55.83079663,-3.23219104,S02002053,S01010939
Gorebridge Parish Church (Church  of Scotland),SC004673,Midlothian,EH23 4TT,55.84510787,-3.05043307,S02002072,S01011041
Arniston Playgroup,SC014648,Midlothian,EH23 4DT,55.84531858,-3.0425652,S02002072,S01011041
Play Midlothian,SC025474,Midlothian,EH23 4TT,55.84510787,-3.05043307,S02002072,S01011041
Gorebridge Opportunities Limited,SC035360,Midlothian,EH23 4TT,55.84510787,-3.05043307,S02002072,S01011041
Gorebridge Community Development Trust,SC036141,Midlothian,EH23 4TT,55.84510787,-3.05043307,S02002072,S01011041
Gorebridge Out of School Care ,SC045276,Midlothian,EH23 4XA,55.84711536,-3.05210034,S02002072,S01011041
Gorebridge Primary School Parent Council,SC045853,Midlothian,EH23 4XA,55.84711536,-3.05210034,S02002072,S01011041
Midlothian Foodbank (SCIO),SC048580,Midlothian,EH23 4TT,55.84510787,-3.05043307,S02002072,S01011041
Roslin Parish Church (Church of Scotland),SC005457,Midlothian,EH25 9NR,55.85677593,-3.17412689,S02002057,S01010957
Roslin Parent & Toddler Group,SC020262,Midlothian,EH25 9ND,55.85736179,-3.17016657,S02002057,S01010957
St Davids Bradbury Day Centre,SC006170,Midlothian,EH22 4LF,55.86689634,-3.0652111,S02002070,S01011034
Newtongrange After School Club Scottish Charitable Incorporated Organisation,SC031220,Midlothian,EH22 4LB,55.86671099,-3.06274518,S02002070,S01011034
1st Newtongrange Rainbows,SC035876,Midlothian,EH22 4PQ,55.86575724,-3.06601083,S02002070,S01011034
Dalkeith Baptist Church,SC006472,Midlothian,EH22 1JE,55.89417272,-3.07181115,S02002063,S01010999
Dalkeith: St John's and King's Park Church (Church of Scotland),SC008958,Midlothian,EH22 1HJ,55.8921113,-3.07327335,S02002063,S01010999
Crescent Playgroup,SC013861,Midlothian,EH22 1HJ,55.8921113,-3.07327335,S02002063,S01010999
12th Midlothian Scouts,SC033959,Midlothian,EH22 1JQ,55.89440591,-3.07495179,S02002063,S01010999
4th Dalkeith Brownie Unit,SC039308,Midlothian,EH22 1JQ,55.89440591,-3.07495179,S02002063,S01010999
Midlothian Amateur Boxing and Fitness Club (SCIO),SC043428,Midlothian,EH22 1JE,55.89417272,-3.07181115,S02002063,S01010999
Tyne Valley Parish (Church of Scotland),SC006926,Midlothian,EH37 5AH,55.8642964,-2.96655305,S02002067,S01011019
Crichton Collegiate Church Trust,SC022901,Midlothian,EH23 4RA,55.82932349,-3.00709597,S02002067,S01011019
Fala Community Committee,SC031043,Midlothian,EH37 5TD,55.83213426,-2.89333735,S02002067,S01011019
Dalkeith Singers,SC032339,Midlothian,EH37 5AH,55.8642964,-2.96655305,S02002067,S01011019
Bonnyrigg Rose Football Club,SC046753,Midlothian,EH23 4GT,55.84395275,-3.0361885,S02002067,S01011019
Penicuik Social Facilities Committee,SC008249,Midlothian,EH26 9BH,55.8276091,-3.22385292,S02002052,S01010936
Penicuik Citizens Advice Bureau,SC014421,Midlothian,EH26 8AB,55.82746296,-3.22228388,S02002052,S01010936
1st Penicuik Senior Section Unit,SC039087,Midlothian,EH26 9EG,55.82659189,-3.22674227,S02002052,S01010936
Food Facts Friends Project,SC047203,Midlothian,EH26 8AB,55.82746296,-3.22228388,S02002052,S01010936
Bonnyrigg Church Playgroup,SC008506,Midlothian,EH22 5QT,55.86631163,-3.03795035,S02002069,S01011030
Gorebridge United Free Church Of Scotland,SC031386,Midlothian,EH22 5RE,55.86686695,-3.03496102,S02002069,S01011030
Middleton Village Community Hall Assoc,SC009253,Midlothian,EH23 4RF,55.81010781,-3.01641266,S02002067,S01011020
Cousland Smiddy Trust,SC009449,Midlothian,EH22 2NZ,55.90528082,-2.99446038,S02002067,S01011017
Pathhead & District Community Association SCIO,SC012253,Midlothian,EH37 5RJ,55.87428785,-3.00031655,S02002067,S01011017
Cousland Village Association,SC023430,Midlothian,EH22 2QW,55.90421204,-3.00215851,S02002067,S01011017
Mayfield Afterschool Childcare Association,SC031110,Midlothian,EH22 2QD,55.88738022,-3.03286903,S02002067,S01011017
1st Dalkeith Brownies,SC042100,Midlothian,EH22 5RQ,55.86377629,-3.0381224,S02002067,S01011017
Bonnyrigg & Lasswade Local History Society,SC009522,Midlothian,EH19 2JE,55.88112237,-3.10972065,S02002061,S01010982
Tuesday Club,SC036665,Midlothian,EH18 1HE,55.87994685,-3.12242718,S02002061,S01010982
99 Ventures Sports Foundation SCIO,SC050193,Midlothian,EH18 1LZ,55.88157399,-3.11641556,S02002061,S01010982
Lasswade Community Rugby Trust (SCIO),SC050404,Midlothian,EH19 2JE,55.88112237,-3.10972065,S02002061,S01010982
Arniston Improvement Trust,SC009647,Midlothian,EH23 4HX,55.83823119,-3.0454892,S02002072,S01011044
Roslin Heritage Society,SC010718,Midlothian,EH25 9PH,55.85705511,-3.16555633,S02002057,S01010958
1st Roslin Company Boys Brigade,SC036914,Midlothian,EH25 9LX,55.85863978,-3.16900676,S02002057,S01010958
St James Episcopal Church: Penicuik,SC011288,Midlothian,EH26 9JE,55.82905068,-3.2467273,S02002053,S01010941
Penicuik: South and Howgate Parish Church (Church of Scotland),SC011871,Midlothian,EH26 0LY,55.84594548,-3.20599831,S02002056,S01010954
Cockpen and Carrington Parish Church (Church of Scotland),SC013139,Midlothian,EH24 9AH,55.85011653,-3.13693287,S02002051,S01010932
1st Lasswade And Polton Brownie Pack,SC034765,Midlothian,EH24 9AR,55.85388181,-3.13495019,S02002051,S01010932
Rosewell Development Trust Community Company Ltd,SC042673,Midlothian,EH24 9AA,55.85067157,-3.13715673,S02002051,S01010932
St Joseph's Homes,SC050125,Midlothian,EH24 9AW,55.85279514,-3.13586097,S02002051,S01010932
St Leonards Episcopal Church: Lasswade,SC014151,Midlothian,EH19 2EL,55.8809488,-3.10002852,S02002061,S01010984
Amuse Me Playgroup,SC020080,Midlothian,EH19 2DY,55.88011722,-3.09755928,S02002061,S01010984
51st Edinburgh Boys Brigade Company,SC031359,Midlothian,EH19 2HU,55.88176811,-3.10085099,S02002061,S01010984
Penicuik Community Arts Association,SC014154,Midlothian,EH26 9DL,55.82574295,-3.22266093,S02002052,S01010935
Penicuik Community Development Trust Ltd,SC037990,Midlothian,EH26 8LL,55.82487732,-3.22205912,S02002052,S01010935
Dalkeith: St Nicholas Buccleuch Parish Church (Church of Scotland),SC014158,Midlothian,EH22 3EZ,55.88636263,-3.08432196,S02002063,S01010996
Dalkeith Old Peoples Welfare Committee,SC014185,Midlothian,EH22 2HF,55.89466338,-3.04822199,S02002065,S01011008
Bill Russell Woodburn Youth Project,SC038574,Midlothian,EH22 2HF,55.89466338,-3.04822199,S02002065,S01011008
Danderhall Playgroup,SC015562,Midlothian,EH22 1QU,55.9175212,-3.1118486,S02002064,S01011000
Danderhall & Newton Miners' Charitable Society,SC021009,Midlothian,EH22 1QU,55.9175212,-3.1118486,S02002064,S01011000
1st Danderhall Rainbows,SC032605,Midlothian,EH22 1FT,55.91029841,-3.09967572,S02002064,S01011000
Kings Park Primary School Parents Assoc,SC015671,Midlothian,EH22 3FQ,55.8828768,-3.07607181,S02002062,S01010991
5th Dalkeith Brownies,SC036991,Midlothian,EH22 4FP,55.86223932,-3.07685917,S02002062,S01010991
1st Bonnyrigg and Lasswade Rainbow Unit,SC043902,Midlothian,EH19 3NN,55.86994194,-3.09596176,S02002062,S01010991
Lasswade and Rosewell Parish Church (Church of Scotland),SC015878,Midlothian,EH19 3AA,55.87634517,-3.10338273,S02002061,S01010983
1st Newtongrange Brownie Unit,SC033341,Midlothian,EH19 3AF,55.87665249,-3.10217669,S02002061,S01010983
Bonnyrigg Seniors Social Club,SC016135,Midlothian,EH19 3NX,55.87372485,-3.09494957,S02002062,S01010986
Bonnyrigg & Lasswade Seniors Forum,SC031525,Midlothian,EH19 3NX,55.87372485,-3.09494957,S02002062,S01010986
Newtongrange Childrens Gala Day Committee,SC016761,Midlothian,EH22 4PN,55.86630432,-3.05988975,S02002070,S01011035
Newtongrange Development Trust,SC050782,Midlothian,EH22 4QF,55.86433953,-3.06266443,S02002070,S01011035
McSence Ltd,SC016874,Midlothian,EH22 5TA,55.87057323,-3.04084476,S02002069,S01011027
14th Midlothian (Bonnyrigg) Scout Group Council,SC018097,Midlothian,EH22 5JB,55.87111267,-3.03761499,S02002069,S01011027
Mayfield-Easthouses Community Association,SC026660,Midlothian,EH22 5DZ,55.87256598,-3.04001908,S02002069,S01011027
McSence Workspace Limited,SC030513,Midlothian,EH22 5TA,55.87057323,-3.04084476,S02002069,S01011027
Mayfield & Easthouses Youth 2000 Project,SC030823,Midlothian,EH22 5DY,55.87364743,-3.04070327,S02002069,S01011027
Midlothian Sure Start,SC031038,Midlothian,EH22 5TA,55.87057323,-3.04084476,S02002069,S01011027
Newbattle Parish Church (Church of Scotland),SC035087,Midlothian,EH22 5DF,55.87451085,-3.04166934,S02002069,S01011027
Scottish Pensions Association - Easthouses & Mayfield Branch,SC036309,Midlothian,EH22 5NX,55.8705431,-3.04015677,S02002069,S01011027
McSence Communication Ltd,SC037156,Midlothian,EH22 5TA,55.87057323,-3.04084476,S02002069,S01011027
Mayfield & Easthouses Development Trust,SC038325,Midlothian,EH22 5DG,55.8746089,-3.04282272,S02002069,S01011027
Mayfield Community Charitable Society,SC040068,Midlothian,EH22 5PE,55.87136753,-3.04254405,S02002069,S01011027
1st Loanhead Company Boys Brigade,SC018137,Midlothian,EH20 9EZ,55.88054307,-3.15510243,S02002059,S01010968
LASC Childcare Services Ltd,SC024467,Midlothian,EH20 9LA,55.87888691,-3.15444582,S02002059,S01010968
Loanhead Housebound Club,SC018862,Midlothian,EH20 9EB,55.88113312,-3.15350541,S02002059,S01010969
Midlothian Youth Platform,SC030027,Midlothian,EH20 9DY,55.881246,-3.15104697,S02002059,S01010969
Christian Brethren Trust Loanhead,SC030422,Midlothian,EH20 9EB,55.88113312,-3.15350541,S02002059,S01010969
2nd Loanhead Brownie Pack,SC033679,Midlothian,EH20 9EN,55.88344495,-3.15801826,S02002059,S01010969
Beeslack Family Club,SC020154,Midlothian,EH26 0QF,55.84046144,-3.21176896,S02002055,S01010949
5th Bonnyrigg Brownie Unit,SC032122,Midlothian,EH26 0LE,55.84145619,-3.21568049,S02002055,S01010949
Bonnyrigg & Sherwood Community Development Trust,SC020174,Midlothian,EH19 3HR,55.87088149,-3.09741056,S02002062,S01010990
Newtongrange Pipe Band,SC028855,Midlothian,EH19 3NQ,55.87067288,-3.09863523,S02002062,S01010990
Bonnyrigg After School Club,SC029617,Midlothian,EH19 3HR,55.87088149,-3.09741056,S02002062,S01010990
Shottstown Miners Welfare Charitable Society,SC021017,Midlothian,EH26 8AT,55.83275953,-3.22278534,S02002052,S01010938
The Penicuik & District Young Men's Christian Association and Young Women's Christian Association,SC021505,Midlothian,EH26 0JJ,55.83718595,-3.22584638,S02002055,S01010952
3rd Penicuik Rainbow Unit,SC026049,Midlothian,EH26 0RX,55.83755637,-3.23194181,S02002055,S01010952
4th Penicuik Rainbows Unit,SC032640,Midlothian,EH26 0RX,55.83755637,-3.23194181,S02002055,S01010952
2nd Penicuik Brownie Unit,SC034406,Midlothian,EH26 0JH,55.83689128,-3.23105852,S02002055,S01010952
Air Training Corps No 2466 Loanhead Squadron Non-Public Sports & Welfare Funds,SC024678,Midlothian,EH25 9SH,55.86883855,-3.17934901,S02002057,S01010960
Green Gate SCIO,SC050842,Midlothian,EH24 9BQ,55.85466201,-3.13609117,S02002057,S01010960
Lasswade High School Phab Club,SC027849,Midlothian,EH19 3QA,55.8802282,-3.09316651,S02002063,S01010995
"Full Gospel Church, Dalkeith",SC029068,Midlothian,EH22 1AY,55.89528489,-3.06790797,S02002066,S01011011
Midlothian Young People's Advice Service,SC029543,Midlothian,EH22 1AY,55.89528489,-3.06790797,S02002066,S01011011
Mayfield And District Breastfeeding Group,SC029374,Midlothian,EH23 4DL,55.84141782,-3.04163038,S02002072,S01011043
Dalkeith After School Club Association,SC029648,Midlothian,EH22 3NX,55.88370953,-3.08153027,S02002063,S01010998
Eskbank Community Woodland (SCIO),SC049739,Midlothian,EH22 3DF,55.88865069,-3.07752669,S02002063,S01010998
Glencorse Parish Church (Church of Scotland),SC030433,Midlothian,EH26 8QP,55.81039123,-3.20212189,S02002051,S01010930
Howgate Village Hall Association,SC035372,Midlothian,EH26 8QB,55.80955618,-3.20113877,S02002051,S01010930
Silverburn Community SCIO,SC036691,Midlothian,EH26 9LH,55.82838948,-3.27267989,S02002051,S01010930
Midlothian District Scout Council,SC041302,Midlothian,EH26 9LH,55.82838948,-3.27267989,S02002051,S01010930
Royal British Legion Scotland Penicuik,SC030721,Midlothian,EH26 8JF,55.82941092,-3.21340486,S02002052,S01010934
4th Penicuik Guide Unit,SC032348,Midlothian,EH26 8NT,55.82529911,-3.21576702,S02002052,S01010934
1st Penicuik Guides,SC034234,Midlothian,EH26 8NS,55.82533103,-3.21889674,S02002052,S01010934
Newton Parish Church (Church of Scotland),SC030879,Midlothian,EH26 8HT,55.83050345,-3.21013414,S02002054,S01010947
Penicuik Silver Band,SC031142,Midlothian,EH26 8JH,55.83273291,-3.20911771,S02002054,S01010947
Penicuik Community Education Association,SC030904,Midlothian,EH26 9AT,55.83242868,-3.23700047,S02002053,S01010942
Penicuik 5th Rainbows,SC032078,Midlothian,EH26 9AT,55.83242868,-3.23700047,S02002053,S01010942
Penicuik Athletic Youth Football Club,SC046914,Midlothian,EH26 9AW,55.83339255,-3.23854786,S02002053,S01010942
3rd Gorebridge Brownies,SC031794,Midlothian,EH19 2JZ,55.87463451,-3.11572091,S02002060,S01010975
Lasswade Gymnastics Club,SC045040,Midlothian,EH19 2LA,55.87249622,-3.11470065,S02002060,S01010975
Bonnyrigg Rose Community Football Club (SCIO),SC050923,Midlothian,EH19 2NU,55.86910161,-3.11647312,S02002060,S01010975
1st Easthouses Guide Unit,SC031922,Midlothian,EH22 4TN,55.86188735,-3.05420927,S02002070,S01011031
6th Penicuik Rainbow Guide Unit,SC032349,Midlothian,EH26 0HF,55.83719697,-3.22203045,S02002055,S01010950
9th Penicuik Brownie Unit,SC039090,Midlothian,EH26 0HQ,55.8380743,-3.22416576,S02002055,S01010950
Danderhall After School Club Association,SC034050,Midlothian,EH22 1QL,55.91578219,-3.11039084,S02002064,S01011002
Danderhall Primary School Pta,SC036565,Midlothian,EH22 1NN,55.9149141,-3.10900607,S02002064,S01011002
Midlothian Gymnastics Club SCIO,SC049748,Midlothian,EH22 1LU,55.91192108,-3.1081047,S02002064,S01011002
Loanhead Music Festival,SC034137,Midlothian,EH20 9RT,55.87761997,-3.14385867,S02002059,S01010970
Growing Families (SCIO),SC050263,Midlothian,EH20 9AA,55.87703529,-3.14874854,S02002059,S01010970
11th Penicuik Brownie Unit,SC034401,Midlothian,EH26 0RJ,55.84417717,-3.21038335,S02002056,S01010955
Scots Corner Families Group (SCFG) (SCIO),SC047654,Midlothian,EH26 0EW,55.8495504,-3.20765933,S02002056,S01010955
5th Penicuik Brownie Unit,SC034637,Midlothian,EH26 0JN,55.83635593,-3.23426701,S02002055,S01010953
48th Edinburgh Company Boys Brigade,SC034697,Midlothian,EH26 0AL,55.83519796,-3.22966378,S02002055,S01010953
38th Edinburgh & Lothians Company Girls Brigade,SC035185,Midlothian,EH19 3BZ,55.86389067,-3.10044104,S02002062,S01010989
2nd Loanhead Rainbow Unit,SC035890,Midlothian,EH20 9HG,55.88014288,-3.15943852,S02002058,S01010964
Bonnyrigg Art Club,SC041808,Midlothian,EH20 9ER,55.88114034,-3.15847715,S02002058,S01010964
2nd Dalkeith Rainbows,SC036590,Midlothian,EH22 5PJ,55.86911061,-3.04484868,S02002069,S01011028
8th Penicuik Guide Unit,SC036899,Midlothian,EH22 2ED,55.89782144,-3.04243801,S02002065,S01011006
Grandparents Parenting Again and Kinship Carers Midlothian,SC043967,Midlothian,EH22 2ND,55.89838348,-3.05241641,S02002065,S01011006
2nd Bonnyrigg Girl Guides,SC037184,Midlothian,EH19 3NS,55.87274536,-3.0939471,S02002062,S01010987
2nd Bonnyrigg Brownies,SC037989,Midlothian,EH19 2BG,55.87600488,-3.11620775,S02002061,S01010979
1st Lasswade Guides,SC040329,Midlothian,EH19 2BG,55.87600488,-3.11620775,S02002061,S01010979
Penicuik Community Sports And Leisure Foundation,SC038282,Midlothian,EH26 8HD,55.83724196,-3.21294622,S02002054,S01010945
"1st Bonnybrigg, Lasswade and Rosewell Senior Section Unit",SC040242,Midlothian,EH22 1EJ,55.89564151,-3.06304039,S02002065,S01011005
Dalkeith History Society,SC045434,Midlothian,EH22 1AZ,55.89616347,-3.06710055,S02002065,S01011005
1st Crichton Brownies,SC040528,Midlothian,EH22 4HT,55.88745188,-3.05199256,S02002067,S01011014
Bonnyrigg Rose Charitable Society,SC041189,Midlothian,EH19 3AE,55.87548632,-3.10396572,S02002061,S01010980
The Midlothian Muslim Community Centre Trust,SC044579,Midlothian,EH19 3AD,55.87515073,-3.10531476,S02002061,S01010980
1st Midlothian (Gorebridge) Scout Group,SC042361,Midlothian,EH23 4TL,55.84128626,-3.04970719,S02002072,S01011042
Gorebridge Community Cares (SCIO),SC047443,Midlothian,EH23 4TP,55.84312473,-3.04907005,S02002072,S01011042
1st Gorebridge Guides,SC031795,Midlothian,EH23 4BX,55.84153889,-3.04747832,S02002072,S01011042
Midlothian People's Equality Group,SC042949,Midlothian,EH22 5AR,55.88110721,-3.04154231,S02002068,S01011022
Friends of Burghlee Park,SC044651,Midlothian,EH20 9BE,55.87499069,-3.15885339,S02002059,S01010966
21st Midlothian (Newtongrange) Scout Group,SC045419,Midlothian,EH22 4AQ,55.8625589,-3.06283949,S02002070,S01011036
Newtongrange Silver Band SCIO,SC045828,Midlothian,EH22 4NG,55.87090297,-3.07152152,S02002063,S01010994
Victory Hill Church,SC050771,Midlothian,EH22 3DR,55.88587793,-3.06988781,S02002063,S01010994
Danderhall & District Community Action Group ,SC045918,Midlothian,EH22 1PL,55.90931117,-3.10756633,S02002064,S01011001
Arniston Rangers Youth Football Club,SC046210,Midlothian,EH23 4BQ,55.85114684,-3.05768806,S02002071,S01011037
1st Rosewell Brownie Unit,SC047246,Midlothian,EH19 3ES,55.87142945,-3.10445789,S02002061,S01010978
Penicuik & District Men's Shed,SC049319,Midlothian,EH26 0HJ,55.84012025,-3.22534789,S02002055,S01010951
1st Dalkeith Rainbows,SC049954,Midlothian,EH22 2AX,55.89283389,-3.05831045,S02002066,S01011012
