Name,Charity Number,Local authority,Postcode,Latitude,Longitude,IntermediateZone2011Code,DataZone2011Code
Water Of Leith Conservation Trust,SC000015,City of Edinburgh,EH14 1TQ,55.92380779,-3.24727191,S02001593,S01008510
Kirkliston Community Centre Association,SC000028,City of Edinburgh,EH29 9AQ,55.95746133,-3.40324294,S02001684,S01009000
Kirkliston After School Club,SC028153,City of Edinburgh,EH29 9AQ,55.95746133,-3.40324294,S02001684,S01009000
2nd Kirkliston Brownies,SC036226,City of Edinburgh,EH29 9FQ,55.95985256,-3.40315328,S02001684,S01009000
2nd Kirkliston Rainbow Unit,SC044010,City of Edinburgh,EH29 9AR,55.95702713,-3.40428438,S02001684,S01009000
2nd Kirkliston Guide Unit,SC050570,City of Edinburgh,EH29 9FF,55.95817519,-3.39735816,S02001684,S01009000
Meadowbank Church of Scotland Edinburgh,SC000052,City of Edinburgh,EH5 3EQ,55.97892299,-3.20319503,S02001650,S01008825
Episcopal Church Of The Good Shepherd,SC000357,City of Edinburgh,EH12 6JJ,55.94608367,-3.25251962,S02001662,S01008881
Jewish Board Of Guardians,SC004015,City of Edinburgh,EH12 6HZ,55.94710924,-3.24797302,S02001662,S01008881
Edinburgh: Corstorphine St Anne's Parish Church (Church of Scotland),SC006300,City of Edinburgh,EH12 6HT,55.94571217,-3.25016981,S02001662,S01008881
Augustine United Church,SC000385,City of Edinburgh,EH1 1EL,55.94752717,-3.19123605,S02001622,S01008678
"St Giles' Cathedral, Edinburgh (Church of Scotland)",SC003565,City of Edinburgh,EH1 1RE,55.94958795,-3.190915,S02001622,S01008678
St Giles Appeal Trust,SC007126,City of Edinburgh,EH1 1RE,55.94958795,-3.190915,S02001622,S01008678
Roots:Globalscope Edinburgh,SC044374,City of Edinburgh,EH8 9AA,55.94697849,-3.18663953,S02001622,S01008678
The Signet Library Heritage Fund,SC044547,City of Edinburgh,EH1 1RF,55.94951716,-3.18987193,S02001622,S01008678
SHRUB Cooperative,SC048825,City of Edinburgh,EH1 1JG,55.94827486,-3.1882485,S02001622,S01008678
St Giles' Heritage and Culture SCIO,SC049530,City of Edinburgh,EH1 1RE,55.94958795,-3.190915,S02001622,S01008678
Dean Village Association,SC000404,City of Edinburgh,EH4 3BU,55.95223432,-3.22073614,S02001660,S01008870
Scottish Community Drama Association Edinburgh District,SC021396,City of Edinburgh,EH4 3BB,55.95233435,-3.21880146,S02001660,S01008870
Canongate Youth (SCIO),SC000600,City of Edinburgh,EH1 1LT,55.94812563,-3.18601808,S02001622,S01008679
The Runciman Apse Trust,SC046772,City of Edinburgh,EH1 1TQ,55.94983787,-3.18456513,S02001622,S01008679
Networking Key Services Limited,SC000697,City of Edinburgh,EH3 9NH,55.94108199,-3.20719264,S02001617,S01008638
Cramond School Parent Teacher Association,SC000709,City of Edinburgh,EH4 6PW,55.97330953,-3.30196784,S02001673,S01008942
197th City Of Edinburgh Brownie Guides,SC032188,City of Edinburgh,EH4 6PW,55.97330953,-3.30196784,S02001673,S01008942
213 Cramond Rainbow Guides,SC036695,City of Edinburgh,EH4 6RB,55.97222139,-3.30883741,S02001673,S01008942
Bingham & District 50+ Project,SC000782,City of Edinburgh,EH15 3HZ,55.93933071,-3.12352002,S02001629,S01008712
Jewel Miners Welfare Charitable Society,SC015240,City of Edinburgh,EH15 3LJ,55.94040071,-3.11553003,S02001629,S01008712
St Ninians Kids Club,SC034110,City of Edinburgh,EH15 3DB,55.94149983,-3.11421675,S02001629,S01008712
Mayfield Salisbury Parish (Edinburgh) Church of Scotland,SC000785,City of Edinburgh,EH9 1TQ,55.9335502,-3.17675263,S02001612,S01008604
Newington Nursery,SC006565,City of Edinburgh,EH9 1TQ,55.9335502,-3.17675263,S02001612,S01008604
Mayfield Radio Unit,SC013624,City of Edinburgh,EH9 1TF,55.93328683,-3.17610436,S02001612,S01008604
Duncan Street Baptist Church,SC018115,City of Edinburgh,EH9 1SR,55.9350501,-3.17870305,S02001612,S01008604
Hunter Bequest Fund : Mayfield Church,SC020704,City of Edinburgh,EH9 1TQ,55.9335502,-3.17675263,S02001612,S01008604
Agnes Cecilia Crispin Charitable Trust,SC025708,City of Edinburgh,EH9 1TQ,55.9335502,-3.17675263,S02001612,S01008604
Chinese Evangelical Church In Edinburgh,SC028397,City of Edinburgh,EH9 1TQ,55.9335502,-3.17675263,S02001612,S01008604
St Philips & St James Episcopal Church: Edinburgh,SC000910,City of Edinburgh,EH3 5PX,55.97044959,-3.20871609,S02001652,S01008833
104th Edinburgh North East Scout Group,SC029283,City of Edinburgh,EH3 5QA,55.96899659,-3.20844647,S02001652,S01008833
Corstorphine Trust,SC000913,City of Edinburgh,EH12 7SX,55.93983158,-3.28289694,S02001679,S01008975
Corstorphine Village Playgroup,SC008829,City of Edinburgh,EH12 7ST,55.94085625,-3.28286678,S02001679,S01008975
"Corstorphine Old Parish Church, Church of Scotland, Edinburgh",SC016009,City of Edinburgh,EH12 7ST,55.94085625,-3.28286678,S02001679,S01008975
Edinburgh: Willowbrae Parish Church of Scotland,SC000963,City of Edinburgh,EH7 6TB,55.95771088,-3.13473595,S02001636,S01008750
The Redeemed Christian Church of God- King of Glory,SC044273,City of Edinburgh,EH7 6QJ,55.96009871,-3.13595914,S02001636,S01008750
Christ Church Edinburgh,SC046474,City of Edinburgh,EH7 6PT,55.95851479,-3.13914826,S02001636,S01008750
Len Thomson Charitable Trust,SC000981,City of Edinburgh,EH3 9EE,55.94372139,-3.19360096,S02001621,S01008673
Addison Smith/ Ewart Charitable Trust,SC006493,City of Edinburgh,EH3 9EE,55.94372139,-3.19360096,S02001621,S01008673
Edinburgh University Childrens Holiday Venture,SC007496,City of Edinburgh,EH8 9AL,55.94599354,-3.18814659,S02001621,S01008673
Royal Medical Society Trust,SC011518,City of Edinburgh,EH8 9AL,55.94599354,-3.18814659,S02001621,S01008673
City Of Edinburgh Guides Association,SC013171,City of Edinburgh,EH8 9NL,55.9417778,-3.1845752,S02001621,S01008673
St Mary's Tolbooth Charitable Trust,SC013224,City of Edinburgh,EH3 9GL,55.94396114,-3.19389654,S02001621,S01008673
Douglas Trust,SC016213,City of Edinburgh,EH3 9EE,55.94372139,-3.19360096,S02001621,S01008673
Ruth And Graham Munro Trust,SC016246,City of Edinburgh,EH3 9GL,55.94396114,-3.19389654,S02001621,S01008673
Royal Medical Society,SC019898,City of Edinburgh,EH8 9AL,55.94599354,-3.18814659,S02001621,S01008673
Iain Paul Fund,SC025605,City of Edinburgh,EH3 9EE,55.94372139,-3.19360096,S02001621,S01008673
Dundas Foundation,SC027860,City of Edinburgh,EH3 9EE,55.94372139,-3.19360096,S02001621,S01008673
Onward Trust,SC028389,City of Edinburgh,EH3 9EE,55.94372139,-3.19360096,S02001621,S01008673
Glenpark Foundation,SC029676,City of Edinburgh,EH3 9EE,55.94372139,-3.19360096,S02001621,S01008673
Bolfracks Gardens Trust,SC030216,City of Edinburgh,EH3 9EE,55.94372139,-3.19360096,S02001621,S01008673
Forth Valley College Foundation,SC044597,City of Edinburgh,EH3 9EE,55.94372139,-3.19360096,S02001621,S01008673
Fife College Foundation,SC044598,City of Edinburgh,EH3 9EE,55.94372139,-3.19360096,S02001621,S01008673
Lanarkshire Further Education Foundation,SC044697,City of Edinburgh,EH3 9EE,55.94372139,-3.19360096,S02001621,S01008673
THE AIRLIE MONUMENT PRESERVATION TRUST SCIO,SC049367,City of Edinburgh,EH3 9EE,55.94372139,-3.19360096,S02001621,S01008673
Scottish Motoring Heritage Trust,SC049868,City of Edinburgh,EH3 9GL,55.94396114,-3.19389654,S02001621,S01008673
Castlebrae Community SCIO,SC050015,City of Edinburgh,EH3 9EE,55.94372139,-3.19360096,S02001621,S01008673
St Andrews Film Festival,SC050596,City of Edinburgh,EH3 9EX,55.94554841,-3.19607502,S02001621,S01008673
Inch Community Education Centre Association,SC001317,City of Edinburgh,EH16 5UF,55.92490456,-3.15891855,S02001627,S01008704
Thistle Trust,SC003834,City of Edinburgh,EH16 4EA,55.93158581,-3.13131499,S02001627,S01008704
"Drylaw Parish Church of Scotland, Edinburgh",SC005744,City of Edinburgh,EH16 4EB,55.93058489,-3.13267833,S02001627,S01008704
Mrs Elizabeth Honeyman Gillespie Trust- Allopathy Lectures,SC008521,City of Edinburgh,EH16 4TJ,55.92114517,-3.13614742,S02001627,S01008704
Edinburgh People's Theatre,SC014988,City of Edinburgh,EH16 4WT,55.92400423,-3.12224429,S02001627,S01008704
Craigmillar Literacy Trust,SC027495,City of Edinburgh,EH16 4DP,55.9304516,-3.13544346,S02001627,S01008704
Health Opportunities Team,SC031463,City of Edinburgh,EH16 4EA,55.93158581,-3.13131499,S02001627,S01008704
Kids in the Street,SC036936,City of Edinburgh,EH16 4DP,55.9304516,-3.13544346,S02001627,S01008704
Bridgend Growing Communities,SC042318,City of Edinburgh,EH16 4TE,55.92750225,-3.15595521,S02001627,S01008704
Glowaid,SC044746,City of Edinburgh,EH16 4GX,55.92989783,-3.12921707,S02001627,S01008704
Bridgend Farmhouse,SC048396,City of Edinburgh,EH16 4TE,55.92750225,-3.15595521,S02001627,S01008704
Inch Community Association,SC049401,City of Edinburgh,EH16 5UF,55.92490456,-3.15891855,S02001627,S01008704
Edinburgh Currie Kirk (Church of Scotland),SC001554,City of Edinburgh,EH14 5NY,55.89713505,-3.3056678,S02001578,S01008430
Currie Kirk Minibus Fund,SC012965,City of Edinburgh,EH14 5NY,55.89713505,-3.3056678,S02001578,S01008430
Currie Playgroup,SC015122,City of Edinburgh,EH14 5NY,55.89713505,-3.3056678,S02001578,S01008430
Currie Youth Club,SC027575,City of Edinburgh,EH14 5RU,55.89397995,-3.31673968,S02001578,S01008430
10th Craigalmond Scout Group,SC001570,City of Edinburgh,EH12 8RS,55.9443156,-3.29061886,S02001679,S01008970
Governors Of Dean Orphanage & Cauvins Trust,SC013890,City of Edinburgh,EH12 8AT,55.94291626,-3.28178208,S02001679,S01008970
Edinburgh: Corstorphine St Ninian's Parish Church (Church of Scotland),SC016557,City of Edinburgh,EH12 8AY,55.94318547,-3.28526546,S02001679,S01008970
125th Craigalmond Scout Group,SC047166,City of Edinburgh,EH12 8AY,55.94318547,-3.28526546,S02001679,S01008970
Sadaya (SCIO),SC047678,City of Edinburgh,EH12 8QE,55.94659609,-3.28219191,S02001679,S01008970
Veterans Community Cafe,SC049725,City of Edinburgh,EH12 8QE,55.94659609,-3.28219191,S02001679,S01008970
Calton Welfare Services,SC001656,City of Edinburgh,EH6 8SH,55.96322608,-3.17707658,S02001646,S01008804
Portobello Community Centre Association,SC001903,City of Edinburgh,EH15 1AP,55.95390902,-3.11715176,S02001632,S01008732
Simpsons Special Care Babies,SC002013,City of Edinburgh,EH3 8HA,55.94811355,-3.21127068,S02001620,S01008660
Royal High School Club Trust Ltd,SC005875,City of Edinburgh,EH3 8JB,55.94687961,-3.21339388,S02001620,S01008660
Seaforth Sanatorium,SC010292,City of Edinburgh,EH3 8HA,55.94811355,-3.21127068,S02001620,S01008660
"St Cuthberts Parish Church of Scotland, Edinburgh",SC010592,City of Edinburgh,EH1 2EP,55.94959912,-3.20547199,S02001620,S01008660
Little Sparta Trust,SC023222,City of Edinburgh,EH1 2BB,55.94834597,-3.2095645,S02001620,S01008660
Edinburgh Legal Education Trust,SC024471,City of Edinburgh,EH3 8HA,55.94811355,-3.21127068,S02001620,S01008660
Cromarty Firth Fisheries Trust,SC029221,City of Edinburgh,EH3 8HA,55.94811355,-3.21127068,S02001620,S01008660
Society Of Friends Of The Parish Church Of St Cuthbert,SC033254,City of Edinburgh,EH1 2EP,55.94959912,-3.20547199,S02001620,S01008660
Gilded Balloon Futures Limited,SC034460,City of Edinburgh,EH1 2BB,55.94834597,-3.2095645,S02001620,S01008660
Edinburgh Art Festival,SC038360,City of Edinburgh,EH1 2BB,55.94834597,-3.2095645,S02001620,S01008660
W Gordon Smith Award,SC044727,City of Edinburgh,EH1 2AE,55.94951621,-3.20843198,S02001620,S01008660
Prewired,SC047780,City of Edinburgh,EH1 2EL,55.94713593,-3.20283337,S02001620,S01008660
Murray Play Foundation ,SC048661,City of Edinburgh,EH3 8HA,55.94811355,-3.21127068,S02001620,S01008660
St Cuthbert's Kirkyard Heritage Association,SC050932,City of Edinburgh,EH1 2EP,55.94959912,-3.20547199,S02001620,S01008660
Queensferry Parish Church Of Scotland,SC002329,City of Edinburgh,EH30 9NS,55.98919518,-3.39724283,S02001685,S01009003
Tom Thumb Nursery And Playgroup Limited,SC007562,City of Edinburgh,EH30 9HU,55.98943607,-3.39580875,S02001685,S01009003
Queensferry History Group,SC019503,City of Edinburgh,EH30 9JX,55.98705881,-3.38749976,S02001685,S01009003
Rotary Club Of South Queensferry Trust Fund,SC025363,City of Edinburgh,EH30 9TA,55.98987582,-3.38630218,S02001685,S01009003
Friends Of Dalmeny - Dalmeny Primary School Psa,SC036643,City of Edinburgh,EH30 9JZ,55.9878314,-3.38111538,S02001685,S01009003
Christ Church Queensferry,SC050483,City of Edinburgh,EH30 9HX,55.98911625,-3.3946911,S02001685,S01009003
Edinburgh Sculpture Workshop Ltd,SC002404,City of Edinburgh,EH6 4JT,55.97856394,-3.19206193,S02001641,S01008773
Victoria Primary Charitable Trust,SC045994,City of Edinburgh,EH6 4HY,55.98036141,-3.19295062,S02001641,S01008773
"Stockbridge Parish Church of Scotland, Edinburgh",SC002499,City of Edinburgh,EH3 5BN,55.96011813,-3.20669605,S02001658,S01008858
St Vincent's Chapel Stockbridge,SC023274,City of Edinburgh,EH3 5JE,55.96157785,-3.20994526,S02001658,S01008858
Pilmeny Development Project,SC002549,City of Edinburgh,EH6 8SQ,55.96346208,-3.17682743,S02001646,S01008803
Pilmeny Youth Centre,SC006692,City of Edinburgh,EH6 8RF,55.96445756,-3.17514351,S02001646,S01008803
North East Edinburgh Care Action Group - Portobello Branch,SC035417,City of Edinburgh,EH6 8SQ,55.96346208,-3.17682743,S02001646,S01008803
Om Music Sanctuary (SCIO),SC047500,City of Edinburgh,EH6 8SE,55.96358963,-3.17758423,S02001646,S01008803
Craigentinny & Lochend Playgroup,SC002667,City of Edinburgh,EH7 6JE,55.95930096,-3.14834956,S02001637,S01008755
Craigentinny/Lochend Social Centre,SC004774,City of Edinburgh,EH7 6JE,55.95930096,-3.14834956,S02001637,S01008755
Methodist Church Edinburgh - Square Centre,SC002711,City of Edinburgh,EH8 9BX,55.94575894,-3.18544934,S02001623,S01008680
Buccleuch & Greyfriars Free Church of Scotland,SC009634,City of Edinburgh,EH8 9JP,55.94391012,-3.18428805,S02001623,S01008680
South Side Association,SC012262,City of Edinburgh,EH8 9ER,55.94404019,-3.1838437,S02001623,S01008680
ACE IT Scotland SCIO,SC036315,City of Edinburgh,EH8 9BX,55.94575894,-3.18544934,S02001623,S01008680
Edinburgh: St Andrew's Clermiston Church of Scotland,SC002748,City of Edinburgh,EH4 7DH,55.96047454,-3.28260279,S02001675,S01008950
215th City Of Edinburgh Guide Company,SC031161,City of Edinburgh,EH4 7BU,55.9569697,-3.28264703,S02001675,S01008950
215th City Of Edinburgh Brownie Pack,SC031312,City of Edinburgh,EH4 7EB,55.95760829,-3.28258807,S02001675,S01008950
191st City of Edinburgh Rainbow Unit,SC035328,City of Edinburgh,EH4 7DU,55.95701917,-3.28565989,S02001675,S01008950
Bruntsfield Community Nursery,SC002751,City of Edinburgh,EH10 4JS,55.93913748,-3.2075644,S02001617,S01008639
St James Episcopal Church: Leith,SC002833,City of Edinburgh,EH6 4PU,55.97658091,-3.18991766,S02001650,S01008822
Trinity After School Club,SC024455,City of Edinburgh,EH6 4QA,55.97604689,-3.19310623,S02001650,S01008822
Fettes Row and Royal Crescent Association,SC003008,City of Edinburgh,EH3 6QA,55.95942444,-3.19767236,S02001657,S01008854
New Town Concerts Society Ltd,SC015893,City of Edinburgh,EH3 6LJ,55.95767334,-3.19571222,S02001657,S01008854
Friends Of King George V And Scotland Yard Parks,SC033445,City of Edinburgh,EH3 6SF,55.95938596,-3.1988565,S02001657,S01008854
35th City of Edinburgh Rainbows,SC041466,City of Edinburgh,EH3 6RY,55.95934441,-3.19666076,S02001657,S01008854
Stewarts Melville Lions Mini Rugby Ltd,SC050639,City of Edinburgh,EH3 6QL,55.95843976,-3.19728955,S02001657,S01008854
Christ Church Morningside,SC003009,City of Edinburgh,EH10 4DD,55.93473271,-3.21050083,S02001616,S01008635
Eric Liddell Centre,SC003147,City of Edinburgh,EH10 4DP,55.93388642,-3.2097541,S02001616,S01008635
Edinburgh Napier Students' Association,SC012506,City of Edinburgh,EH10 5DT,55.93338485,-3.21324405,S02001616,S01008635
Edinburgh: Morningside United Church,SC015552,City of Edinburgh,EH10 4DJ,55.93453363,-3.20881381,S02001616,S01008635
Holy Corner Community Playgroup,SC017661,City of Edinburgh,EH10 4DD,55.93473271,-3.21050083,S02001616,S01008635
Activate Ministries,SC046061,City of Edinburgh,EH10 4DP,55.93388642,-3.2097541,S02001616,S01008635
Bruntsfield St. Oswald's,SC050913,City of Edinburgh,EH10 4DP,55.93388642,-3.2097541,S02001616,S01008635
The Dove Centre (SCIO),SC003026,City of Edinburgh,EH14 3BG,55.91172449,-3.27598501,S02001582,S01008450
Munro Community Centre,SC003195,City of Edinburgh,EH4 8AH,55.96212425,-3.31533676,S02001674,S01008945
Friends of the River Almond Walkway,SC045077,City of Edinburgh,EH4 8EX,55.95891943,-3.31673373,S02001674,S01008945
Lewis Leap,SC050181,City of Edinburgh,EH4 8EX,55.95891943,-3.31673373,S02001674,S01008945
The Edinburgh Jam Group SCIO,SC051044,City of Edinburgh,EH4 8AN,55.95871899,-3.31783216,S02001674,S01008945
Pilton Youth & Children's Project,SC003353,City of Edinburgh,EH4 4BH,55.97294869,-3.24114571,S02001666,S01008907
Pilton Equalities Project,SC010108,City of Edinburgh,EH4 4EL,55.97193783,-3.24337261,S02001666,S01008907
Prop-Stress Centre,SC017752,City of Edinburgh,EH4 4EL,55.97193783,-3.24337261,S02001666,S01008907
Friends of Forthview ,SC048261,City of Edinburgh,EH4 4DF,55.9709297,-3.24087276,S02001666,S01008907
Ama-zing Harmonies,SC048267,City of Edinburgh,EH4 4BH,55.97294869,-3.24114571,S02001666,S01008907
"Cramond Kirk, Edinburgh (Church of Scotland)",SC003430,City of Edinburgh,EH4 6NS,55.97773339,-3.29998507,S02001673,S01008941
Friends of the City Art Centre & Museums,SC003449,City of Edinburgh,EH1 1DE,55.95095364,-3.18999607,S02001622,S01008677
"St Andrew's and St George's West Church of Scotland, Edinburgh",SC008990,City of Edinburgh,EH2 2PA,55.95384291,-3.19690739,S02001622,S01008677
Edinburgh Old Town Association,SC009217,City of Edinburgh,EH1 1SR,55.95078789,-3.18481834,S02001622,S01008677
Cockburn Association,SC011544,City of Edinburgh,EH1 1SR,55.95078789,-3.18481834,S02001622,S01008677
Chessels Court Area Association,SC013741,City of Edinburgh,EH8 8AD,55.95033472,-3.18241839,S02001622,S01008677
Stills Ltd,SC014136,City of Edinburgh,EH1 1BP,55.95074409,-3.19029391,S02001622,S01008677
Brownlee Old Town Trust,SC023216,City of Edinburgh,EH1 1SR,55.95078789,-3.18481834,S02001622,S01008677
Edinburgh City Centre Churches Together,SC040773,City of Edinburgh,EH2 2PA,55.95384291,-3.19690739,S02001622,S01008677
Edinburgh Old Town Development Trust,SC042964,City of Edinburgh,EH8 8BE,55.95092104,-3.18405372,S02001622,S01008677
Turkish-Religious Foundation of Scotland,SC043772,City of Edinburgh,EH1 1PB,55.95048559,-3.18914897,S02001622,S01008677
Super Power Agency,SC046550,City of Edinburgh,EH1 1SR,55.95078789,-3.18481834,S02001622,S01008677
186th City Of Edinburgh Brownie Unit,SC050696,City of Edinburgh,EH8 8BQ,55.95096774,-3.18293413,S02001622,S01008677
Edinburgh Society Of Musicians Ltd,SC003525,City of Edinburgh,EH4 3BL,55.9519351,-3.21646675,S02001660,S01008869
Charitable Trust Of The Society Of High Constables Of Edinburgh,SC031810,City of Edinburgh,EH3 7PE,55.95081941,-3.21205982,S02001660,S01008869
Edinburgh Young Musicians,SC033153,City of Edinburgh,EH3 7PR,55.95128194,-3.21162586,S02001660,S01008869
Kilbrandon Children's Fund (Edinburgh),SC033356,City of Edinburgh,EH3 7QJ,55.950647,-3.21405622,S02001660,S01008869
51st A Edinburgh Rainbows,SC035776,City of Edinburgh,EH3 7JF,55.95029573,-3.2132285,S02001660,S01008869
73rd A City Of Edinburgh Brownie Unit,SC038123,City of Edinburgh,EH3 7JF,55.95029573,-3.2132285,S02001660,S01008869
36th City of Edinburgh Brownie Pack,SC039955,City of Edinburgh,EH3 7JF,55.95029573,-3.2132285,S02001660,S01008869
103rd B City of Edinburgh Rainbow Unit,SC044238,City of Edinburgh,EH3 7JF,55.95029573,-3.2132285,S02001660,S01008869
Edinburgh Young Musicians SCIO,SC051034,City of Edinburgh,EH3 7PR,55.95128194,-3.21162586,S02001660,S01008869
Lethem Park Trustees,SC003557,City of Edinburgh,EH6 4SP,55.97306539,-3.19293431,S02001649,S01008819
7th Edinburgh North East (Leith Sea Scouts) Group,SC031674,City of Edinburgh,EH6 4SP,55.97306539,-3.19293431,S02001649,S01008819
Edinburgh Muslim Community Association,SC035710,City of Edinburgh,EH6 4NN,55.97340179,-3.1906693,S02001649,S01008819
112th City of Edinburgh Brownie Unit,SC040423,City of Edinburgh,EH6 4BJ,55.97200233,-3.19043402,S02001649,S01008819
"The Boys' Brigade - Edinburgh, Leith & District Battalion SCIO",SC050272,City of Edinburgh,EH6 4SP,55.97306539,-3.19293431,S02001649,S01008819
114 Braid District Fairmilehead Scout Group,SC003561,City of Edinburgh,EH10 6RL,55.90263489,-3.20698951,S02001598,S01008538
The Broomhouse Centre,SC003706,City of Edinburgh,EH11 3RH,55.92875296,-3.27764909,S02001586,S01008471
"St Davids Broomhouse Church of Scotland, Edinburgh",SC004746,City of Edinburgh,EH11 3RH,55.92875296,-3.27764909,S02001586,S01008471
B Healthy Together ,SC023736,City of Edinburgh,EH11 3RH,55.92875296,-3.27764909,S02001586,S01008471
Edinburgh: Greyfriars Kirk (Church of Scotland),SC003761,City of Edinburgh,EH1 2QQ,55.94666297,-3.19140166,S02001622,S01008674
William Brotherston's Grassmarket Charitable Trust,SC005440,City of Edinburgh,EH1 2QQ,55.94666297,-3.19140166,S02001622,S01008674
The Kirk of the Greyfriars Foundation,SC006644,City of Edinburgh,EH1 2QQ,55.94666297,-3.19140166,S02001622,S01008674
Grassmarket Community Project,SC041674,City of Edinburgh,EH1 2QA,55.94762396,-3.1933047,S02001622,S01008674
The Michael Chibbett Charitable Trust,SC045725,City of Edinburgh,EH1 2QQ,55.94666297,-3.19140166,S02001622,S01008674
Diocese Of Edinburgh Scottish Episcopal Church - Dean Ramsay Fund,SC003798,City of Edinburgh,EH12 5EL,55.94765573,-3.21942308,S02001660,S01008871
Dunmore Church Endowment Fund,SC004085,City of Edinburgh,EH12 5EL,55.94765573,-3.21942308,S02001660,S01008871
Miss W M Watson Fund For Saint Barnabas Mission,SC004092,City of Edinburgh,EH12 5EL,55.94765573,-3.21942308,S02001660,S01008871
Edinburgh: Palmerston Place Church of Scotland,SC004291,City of Edinburgh,EH12 5AA,55.94727749,-3.21587232,S02001660,S01008871
Miss Francis Jane R Langland's Trust,SC012182,City of Edinburgh,EH12 5EL,55.94765573,-3.21942308,S02001660,S01008871
Balerno Mission Endowment Fund,SC016006,City of Edinburgh,EH12 5EL,55.94765573,-3.21942308,S02001660,S01008871
Presbytery Of Edinburgh,SC017076,City of Edinburgh,EH12 5AA,55.94727749,-3.21587232,S02001660,S01008871
Ronnie Williamson Trust,SC037016,City of Edinburgh,EH12 5AA,55.94727749,-3.21587232,S02001660,S01008871
The Palmerston Trust,SC042492,City of Edinburgh,EH12 5AP,55.94938426,-3.2181803,S02001660,S01008871
Rotary Club Of Leith Benevolent Fund,SC003915,City of Edinburgh,EH4 1ED,55.95784512,-3.21580324,S02001658,S01008862
LifeCare (Edinburgh) Limited,SC012641,City of Edinburgh,EH4 1JB,55.9582601,-3.21290107,S02001658,S01008862
Edinburgh Women's Aid Ltd,SC028301,City of Edinburgh,EH4 1JB,55.9582601,-3.21290107,S02001658,S01008862
112th City of Edinburgh Rainbow Unit,SC040385,City of Edinburgh,EH4 1EE,55.95809933,-3.21553892,S02001658,S01008862
"Polwarth Parish Church, Edinburgh (Church of Scotland)",SC004183,City of Edinburgh,EH11 1LU,55.93398196,-3.22373163,S02001592,S01008507
Elder Memorial Free Church Of Scotland,SC029186,City of Edinburgh,EH11 1SD,55.93498526,-3.22765319,S02001592,S01008507
Forth Canoe Club,SC050275,City of Edinburgh,EH11 1EG,55.93680306,-3.22647803,S02001592,S01008507
Godfrey Thomson Research Fund,SC004266,City of Edinburgh,EH9 1SE,55.93467298,-3.16924705,S02001611,S01008599
Royal Scottish Society Of Arts,SC015549,City of Edinburgh,EH9 2BB,55.93413049,-3.16865444,S02001611,S01008599
Home-Start Leith & North East Edinburgh,SC004387,City of Edinburgh,EH6 8NY,55.96616415,-3.17521127,S02001644,S01008797
Clag Ltd,SC032369,City of Edinburgh,EH6 8PJ,55.96567973,-3.17324208,S02001644,S01008797
"St Stephen's Comely Bank Church of Scotland, Edinburgh",SC004487,City of Edinburgh,EH4 1HQ,55.95967511,-3.21429085,S02001658,S01008863
Sikh Sanjog,SC004495,City of Edinburgh,EH6 5QW,55.96930154,-3.1872428,S02001649,S01008818
Edinburgh Royal Infirmary Samaritan Society,SC004519,City of Edinburgh,EH9 2NL,55.93259231,-3.17826025,S02001612,S01008606
Royal Edinburgh Repository & Self Aid Society For The Lady H V Younger Trust,SC004575,City of Edinburgh,EH10 5LZ,55.92396065,-3.21125317,S02001594,S01008517
Open Door Edinburgh,SC007315,City of Edinburgh,EH10 5HY,55.92561156,-3.20967227,S02001594,S01008517
Deaf Children's Society Of East Scotland,SC009034,City of Edinburgh,EH10 5LZ,55.92396065,-3.21125317,S02001594,S01008517
"South Leith Parish Church of Scotland, Edinburgh",SC004695,City of Edinburgh,EH6 6BS,55.97202832,-3.17272926,S02001643,S01008786
King James VI Hosp. Fund-Sth Leith Parish Church,SC004698,City of Edinburgh,EH6 6BS,55.97202832,-3.17272926,S02001643,S01008786
Mrs J L W Murrays Trust,SC013528,City of Edinburgh,EH6 6BS,55.97202832,-3.17272926,S02001643,S01008786
36th Edinburgh Rainbow Guide Unit,SC034705,City of Edinburgh,EH6 6BS,55.97202832,-3.17272926,S02001643,S01008786
Junction-Young People Health & Wellbeing,SC036721,City of Edinburgh,EH6 5LL,55.97209834,-3.17386902,S02001643,S01008786
Looking After Our Elderly (Edinburgh),SC044076,City of Edinburgh,EH6 6ED,55.97462954,-3.17226316,S02001643,S01008786
Edinburgh North East Foodbank,SC044944,City of Edinburgh,EH6 6BS,55.97202832,-3.17272926,S02001643,S01008786
Sighthill Community Education Centre,SC004763,City of Edinburgh,EH11 4PB,55.92061046,-3.28728648,S02001583,S01008458
Wester Hailes Educational Enhancement Association,SC035117,City of Edinburgh,EH14 2SU,55.91742489,-3.29287718,S02001583,S01008458
St Margaret's Church Of Scotland: Edinburgh,SC004779,City of Edinburgh,EH8 7QX,55.95088044,-3.13295069,S02001634,S01008741
Edina Hibs,SC049454,City of Edinburgh,EH8 7SW,55.95169112,-3.13273415,S02001634,S01008741
Northfield & Willowbrae Community Association,SC004915,City of Edinburgh,EH8 7PP,55.95254635,-3.14035024,S02001634,S01008742
Edinburgh Leith North Parish Church of Scotland,SC004932,City of Edinburgh,EH6 4AW,55.97570732,-3.18359314,S02001641,S01008775
Leith Benevolent Assoc Ltd,SC011276,City of Edinburgh,EH6 4EY,55.97501724,-3.18434123,S02001641,S01008775
North East Edinburgh Counselling Service,SC023482,City of Edinburgh,EH6 4EX,55.97513119,-3.18370374,S02001641,S01008775
Leith Civic Trust,SC027850,City of Edinburgh,EH6 4EY,55.97501724,-3.18434123,S02001641,S01008775
Fort Youth And Community Centre,SC029232,City of Edinburgh,EH6 4HF,55.97645736,-3.1859557,S02001641,S01008775
"Gracemount Church of Scotland, Edinburgh",SC004950,City of Edinburgh,EH16 6SF,55.910092,-3.15748473,S02001607,S01008577
Edinburgh: Liberton Kirk (Church of Scotland),SC011602,City of Edinburgh,EH16 6SE,55.91034353,-3.1603558,S02001607,S01008577
South Edinburgh Amenities Group,SC005114,City of Edinburgh,EH16 6NQ,55.90797711,-3.16829945,S02001607,S01008579
EDO ASSOCIATION EDINBURGH,SC051257,City of Edinburgh,EH16 6FT,55.90641229,-3.16559705,S02001607,S01008579
Edinburgh Juniper Green Parish Church of Scotland,SC005197,City of Edinburgh,EH14 5BW,55.90692556,-3.28037039,S02001579,S01008435
Octagon Club,SC038354,City of Edinburgh,EH14 3EP,55.90833366,-3.28062476,S02001579,S01008435
Pentlands Community Space,SC049766,City of Edinburgh,EH14 3EH,55.90901879,-3.28386282,S02001579,S01008435
Edinburgh Murrayfield Parish Church of Scotland,SC005198,City of Edinburgh,EH12 6BT,55.95018196,-3.2391039,S02001662,S01008883
Spartan's FC (Youth),SC029945,City of Edinburgh,EH12 6DW,55.9494979,-3.24367806,S02001662,S01008883
Foolproof Creative Arts,SC040968,City of Edinburgh,EH12 6DW,55.9494979,-3.24367806,S02001662,S01008883
Heart of Newhaven Community SCIO,SC049919,City of Edinburgh,EH12 6BN,55.95043419,-3.2363575,S02001662,S01008883
Society For The Relief Of Destitute Sick,SC005466,City of Edinburgh,EH3 9QG,55.94320541,-3.20781911,S02001620,S01008665
Tollcross Community Centre Association,SC006156,City of Edinburgh,EH3 9QG,55.94320541,-3.20781911,S02001620,S01008665
Adult Learning Project Association,SC007226,City of Edinburgh,EH3 9QG,55.94320541,-3.20781911,S02001620,S01008665
The Ark,SC049574,City of Edinburgh,EH3 9NB,55.9420469,-3.20408454,S02001620,S01008665
Fountainbridge Blue Green Community Development Trust,SC050879,City of Edinburgh,EH3 9QP,55.94182367,-3.20852859,S02001620,S01008665
Edinburgh Muirhouse Congregation Of Jehovahs Witnesses,SC005528,City of Edinburgh,EH4 4FF,55.96765254,-3.25569985,S02001671,S01008931
Friends of Oaklands ,SC048592,City of Edinburgh,EH4 4PQ,55.96717541,-3.25225584,S02001671,S01008931
Northfield & Willowbrae Community Services Group Council,SC005635,City of Edinburgh,EH4 2EQ,55.95647037,-3.23656597,S02001663,S01008891
Jafaria Foundation (Edinburgh),SC032837,City of Edinburgh,EH4 2JS,55.95950037,-3.2381683,S02001663,S01008891
Granton Baptist Church,SC005818,City of Edinburgh,EH4 5NB,55.97124938,-3.26860274,S02001672,S01008939
30th Craigalmond Scout Group,SC007789,City of Edinburgh,EH4 5LD,55.97133528,-3.27160186,S02001672,S01008939
Reindeer Playgroup,SC037488,City of Edinburgh,EH4 5NH,55.96931476,-3.26799466,S02001672,S01008939
Ek Onkar Gurdwara Sahib Trust,SC048489,City of Edinburgh,EH4 5JA,55.96998503,-3.27357639,S02001672,S01008939
Health All Round,SC006065,City of Edinburgh,EH11 2QH,55.93845703,-3.24433275,S02001590,S01008494
Balgreen Out Of School Care Club (The Squirrel Club),SC022016,City of Edinburgh,EH11 3AT,55.93733766,-3.24839515,S02001590,S01008494
The Gorgie Mem SCIO,SC023903,City of Edinburgh,EH11 2QU,55.93677565,-3.23909201,S02001590,S01008494
1st Currie Rainbow Unit,SC036764,City of Edinburgh,EH11 2TN,55.93848243,-3.24359713,S02001590,S01008494
The Welcoming Association,SC041952,City of Edinburgh,EH11 2TT,55.9386943,-3.24397214,S02001590,S01008494
Balgreen Playgroup,SC043734,City of Edinburgh,EH11 3AT,55.93733766,-3.24839515,S02001590,S01008494
28th Braid Scout Group,SC006141,City of Edinburgh,EH17 8SN,55.90026356,-3.1706105,S02001601,S01008552
Friends of the Music of St Giles Cathedral,SC038128,City of Edinburgh,EH17 8SN,55.90026356,-3.1706105,S02001601,S01008552
Old Edinburgh Club,SC006177,City of Edinburgh,EH10 5AU,55.93499551,-3.21756852,S02001616,S01008634
Edinburgh Highland Reel & Strathspey Society,SC006204,City of Edinburgh,EH9 2HJ,55.92845803,-3.19329163,S02001612,S01008609
85th Braid Scout Group Edinburgh,SC036036,City of Edinburgh,EH9 3EX,55.92579988,-3.18568801,S02001612,S01008609
Currie Star Football Club,SC045131,City of Edinburgh,EH9 2HE,55.92967132,-3.1895516,S02001612,S01008609
C3 Church Edinburgh,SC046105,City of Edinburgh,EH9 2HS,55.92740038,-3.1911625,S02001612,S01008609
Ionad Gàidhlig Dhùn Eideann (SCIO),SC050169,City of Edinburgh,EH9 2HG,55.92899917,-3.19122757,S02001612,S01008609
Edinburgh: The Old Kirk and Muirhouse (Church of Scotland),SC006457,City of Edinburgh,EH4 4PE,55.97239369,-3.25777629,S02001671,S01008929
Craigroyston High School Fund,SC010243,City of Edinburgh,EH4 4NL,55.97361694,-3.25413048,S02001671,S01008929
Muirhouse Youth Development Group,SC028495,City of Edinburgh,EH4 4NL,55.97361694,-3.25413048,S02001671,S01008929
60th Braid (Buckstone) Scout Group,SC006761,City of Edinburgh,EH10 6PL,55.90896245,-3.2049785,S02001599,S01008541
Fet-Lor Youth Club Endowment Trust,SC006852,City of Edinburgh,EH2 3BU,55.9525609,-3.20122394,S02001660,S01008868
Positive Help,SC008382,City of Edinburgh,EH2 4JY,55.95228815,-3.20614812,S02001660,S01008868
Edinburgh International Book Festival Limited,SC010120,City of Edinburgh,EH2 4DR,55.95254622,-3.20823812,S02001660,S01008868
The Scottish Literary Tour Trust,SC024466,City of Edinburgh,EH2 3BN,55.95287442,-3.20408437,S02001660,S01008868
The Hutchison Vale Foundation,SC048190,City of Edinburgh,EH2 4QG,55.95062981,-3.21032434,S02001660,S01008868
Charlotte Baptist Chapel Limited,SC048212,City of Edinburgh,EH2 4PF,55.9500018,-3.21022467,S02001660,S01008868
The Jubilo Society SCIO,SC006981,City of Edinburgh,EH5 3NS,55.97188598,-3.20701437,S02001651,S01008830
Wardie Nursery,SC018518,City of Edinburgh,EH5 3NT,55.97222846,-3.2078262,S02001651,S01008830
4th City of Edinburgh Rainbow Unit,SC050681,City of Edinburgh,EH5 3AR,55.97255233,-3.2050322,S02001651,S01008830
Lochend Neighbourhood Centre,SC007018,City of Edinburgh,EH7 6BP,55.95985981,-3.15680762,S02001638,S01008757
Edinburgh: St Nicholas' Sighthill Parish Church of Scotland,SC007068,City of Edinburgh,EH12 8JZ,55.94254499,-3.31023776,S02001677,S01008963
16th Craigalmond Scout Group,SC027502,City of Edinburgh,EH12 8JD,55.94227139,-3.30723444,S02001677,S01008963
103rd C Edinburgh Rainbow Unit,SC032169,City of Edinburgh,EH12 8JZ,55.94254499,-3.31023776,S02001677,S01008963
27a Edinburgh Guide Company,SC033530,City of Edinburgh,EH12 8LE,55.94314266,-3.3081124,S02001677,S01008963
The Parent Teacher Association of Corstorphine Primary School,SC043645,City of Edinburgh,EH12 8JZ,55.94254499,-3.31023776,S02001677,S01008963
Clovenstone Community Education Centre,SC007211,City of Edinburgh,EH14 3EY,55.91099192,-3.27296929,S02001582,S01008449
Westerhailes LPT Educational Trust,SC038328,City of Edinburgh,EH14 3BF,55.91103788,-3.27807422,S02001582,S01008449
Edinburgh: Pilrig St Paul's Parish Church of Scotland,SC007277,City of Edinburgh,EH6 5AH,55.96443366,-3.17858708,S02001648,S01008814
53rd City Of Edinburgh Rainbow Unit,SC036234,City of Edinburgh,EH6 5AP,55.96617587,-3.17868812,S02001648,S01008814
Rhubaba Gallery and Studios,SC043963,City of Edinburgh,EH6 5DA,55.96531724,-3.17733232,S02001648,S01008814
Leith Community Cinema (SCIO),SC047794,City of Edinburgh,EH6 5AH,55.96443366,-3.17858708,S02001648,S01008814
Magdalene Community Education Centre,SC007306,City of Edinburgh,EH15 3BE,55.94299357,-3.10399661,S02001629,S01008715
Duddingston Brownie Unit,SC035031,City of Edinburgh,EH15 3BJ,55.94285018,-3.10895592,S02001629,S01008715
Magdalene CC SCIO,SC050855,City of Edinburgh,EH15 3BE,55.94299357,-3.10399661,S02001629,S01008715
City Gates Baptist Church,SC007337,City of Edinburgh,EH4 6BU,55.96182071,-3.30501009,S02001674,S01008946
Senga Munnoch Charitable Trust,SC009484,City of Edinburgh,EH4 6BL,55.96326584,-3.31108218,S02001674,S01008946
Friends Of Cammo,SC033394,City of Edinburgh,EH4 8DZ,55.96078453,-3.31035752,S02001674,S01008946
City Gates Baptist Church SCIO,SC050780,City of Edinburgh,EH4 6BU,55.96182071,-3.30501009,S02001674,S01008946
Colinton Amenity Association,SC007466,City of Edinburgh,EH13 0RB,55.90404395,-3.26619957,S02001580,S01008441
193 City Of Edinburgh (Colinton Dell) Guides,SC034855,City of Edinburgh,EH13 0HS,55.90326832,-3.27170855,S02001580,S01008441
St Cuthberts Episcopal Church: Edinburgh,SC007578,City of Edinburgh,EH13 0HA,55.90166385,-3.25908452,S02001580,S01008439
The Colinton Tunnel,SC048476,City of Edinburgh,EH13 0HE,55.90303125,-3.26243977,S02001580,S01008439
9th Morningside Scouts (George Watson College),SC007608,City of Edinburgh,EH10 6DP,55.92326308,-3.2054223,S02001615,S01008627
"Morningside Parish Church of Scotland, Edinburgh",SC034396,City of Edinburgh,EH10 6BQ,55.92438893,-3.208818,S02001615,S01008627
Tollcross Community Action Network,SC046346,City of Edinburgh,EH10 4RF,55.92610577,-3.2060067,S02001615,S01008627
Prestonfield & District Neighbourhood Workers Project,SC007869,City of Edinburgh,EH16 5EX,55.93344673,-3.15923764,S02001610,S01008597
176th City Of Edinburgh Brownie Pack,SC035123,City of Edinburgh,EH16 5HY,55.9362326,-3.16205828,S02001610,S01008597
Grassmarket Mission,SC008062,City of Edinburgh,EH4 1NZ,55.95543528,-3.22142951,S02001659,S01008867
Edinburgh Concert Band,SC036509,City of Edinburgh,EH4 3AD,55.95489244,-3.21726423,S02001659,S01008867
Waverley Congregation Of Jehovahs Witnesses,SC008104,City of Edinburgh,EH7 6JX,55.96075602,-3.14744757,S02001637,S01008754
Edinburgh Music Theatre Co Ltd,SC008131,City of Edinburgh,EH3 5JU,55.96619079,-3.20225508,S02001652,S01008834
Southside Community Orchestra,SC023696,City of Edinburgh,EH3 5NS,55.9637381,-3.2031402,S02001652,S01008834
Braeburn Home,SC039330,City of Edinburgh,EH3 5NU,55.96275865,-3.2086525,S02001652,S01008834
Lodge St Luke No 44 Benevolent Fund,SC008258,City of Edinburgh,EH6 4BB,55.97724762,-3.18226202,S02001641,S01008774
Canonmills Baptist Church,SC008297,City of Edinburgh,EH6 6BE,55.97274406,-3.17021922,S02001643,S01008785
Kinsfolk Carers (Edinburgh),SC037797,City of Edinburgh,EH6 6AD,55.971634,-3.17167583,S02001643,S01008785
Leith Community Centre Association SCIO,SC047512,City of Edinburgh,EH6 6AD,55.971634,-3.17167583,S02001643,S01008785
"Wardie Parish Church of Scotland, Edinburgh",SC008710,City of Edinburgh,EH5 3JE,55.97890582,-3.21045429,S02001651,S01008827
St Serf's Players,SC018937,City of Edinburgh,EH5 3PE,55.97429856,-3.2074741,S02001651,S01008827
125th Wardie Guide Unit,SC030837,City of Edinburgh,EH5 3JE,55.97890582,-3.21045429,S02001651,S01008827
Eastern Amateur Coastal Rowing Club,SC047648,City of Edinburgh,EH5 3JQ,55.97877026,-3.20870322,S02001651,S01008827
Air Training Corps No 0142 2nd Edinburgh Squadron Non Public Sports & Welfare Funds,SC024936,City of Edinburgh,EH5 3BG,55.97477637,-3.20731272,S02001651,S01008827
"Blackhall St Columba's Church of Scotland, Edinburgh",SC008756,City of Edinburgh,EH3 5PG,55.96754174,-3.21931165,S02001652,S01008832
Abbeyhill Baptist Church,SC008797,City of Edinburgh,EH7 5PB,55.96069577,-3.17293107,S02001647,S01008807
Holyrood Evangelical Church,SC044820,City of Edinburgh,EH7 5EP,55.95881456,-3.17232956,S02001647,S01008807
Abbeyhill Baptist Church SCIO,SC051158,City of Edinburgh,EH7 5PB,55.96069577,-3.17293107,S02001647,S01008807
Nile Grove Community Playgroup,SC008817,City of Edinburgh,EH10 6ES,55.91949432,-3.21130587,S02001595,S01008520
Edinburgh Greenbank Parish Church of Scotland,SC011325,City of Edinburgh,EH10 6ES,55.91949432,-3.21130587,S02001595,S01008520
Friends of Braidburn Valley Park,SC040192,City of Edinburgh,EH10 6HU,55.91557421,-3.2115516,S02001595,S01008520
Shakti Women's Aid,SC008837,City of Edinburgh,EH7 5QY,55.96125962,-3.16654067,S02001645,S01008800
Edinburgh Young Carers,SC026270,City of Edinburgh,EH7 5QY,55.96125962,-3.16654067,S02001645,S01008800
Edinburgh Tenants Federation ,SC048236,City of Edinburgh,EH7 5QY,55.96125962,-3.16654067,S02001645,S01008800
Norton Park SCIO ,SC048639,City of Edinburgh,EH7 5QY,55.96125962,-3.16654067,S02001645,S01008800
LeithLate,SC049909,City of Edinburgh,EH7 5QZ,55.96089239,-3.16641749,S02001645,S01008800
"Liberton Northfield Parish Church of Scotland, Edinburgh",SC008891,City of Edinburgh,EH17 7PR,55.91654293,-3.15180493,S02001606,S01008576
198a Guide Company,SC035506,City of Edinburgh,EH16 6DX,55.91570119,-3.15533193,S02001606,S01008576
176th City of Edinburgh Rainbow Unit,SC044421,City of Edinburgh,EH17 7QD,55.91408606,-3.15029214,S02001606,S01008576
Nancie Massey Charitable Trust,SC008977,City of Edinburgh,EH3 6NL,55.95744402,-3.19341469,S02001655,S01008848
"Richmond Craigmillar Parish Church of Scotland, Edinburgh",SC009035,City of Edinburgh,EH16 4PA,55.93287239,-3.12917556,S02001627,S01008701
Bingham Community Centre Management Committee,SC016634,City of Edinburgh,EH16 4AS,55.93417649,-3.14171529,S02001627,S01008701
Venchie Children And Young Peoples Project,SC027424,City of Edinburgh,EH16 4NX,55.93584034,-3.12985422,S02001627,S01008701
Craigmillar Youth Challenge,SC029725,City of Edinburgh,EH16 4BB,55.93531068,-3.13955558,S02001627,S01008701
Richmond Café Project,SC031536,City of Edinburgh,EH16 4PA,55.93287239,-3.12917556,S02001627,S01008701
Craigmillar Community Arts,SC032911,City of Edinburgh,EH16 4BA,55.93476759,-3.14192477,S02001627,S01008701
Caring For Craigmillar,SC032975,City of Edinburgh,EH16 4NX,55.93584034,-3.12985422,S02001627,S01008701
"St Michaels Parish Church of Scotland, Edinburgh",SC009038,City of Edinburgh,EH11 2SN,55.9372477,-3.24485428,S02001590,S01008493
95th A City of Edinburgh Rainbow Unit,SC031363,City of Edinburgh,EH11 2SN,55.9372477,-3.24485428,S02001590,S01008493
Polish - Speaking Church in Edinburgh,SC041982,City of Edinburgh,EH11 2RQ,55.93656322,-3.24055802,S02001590,S01008493
Edinburgh: Gorgie Dalry Stenhouse Church of Scotland,SC009146,City of Edinburgh,EH11 2NX,55.9378405,-3.23326667,S02001590,S01008495
Royston Wardieburn Community Education Centre,SC009175,City of Edinburgh,EH5 1NF,55.9762214,-3.2301933,S02001668,S01008917
Pilton Community Health Project,SC018460,City of Edinburgh,EH5 2PW,55.9757314,-3.2315719,S02001668,S01008917
Stepping Stones (North Edinburgh),SC021775,City of Edinburgh,EH5 1NF,55.9762214,-3.2301933,S02001668,S01008917
Granton Community Gardeners SCIO ,SC047087,City of Edinburgh,EH5 1NF,55.9762214,-3.2301933,S02001668,S01008917
University Of Edinburgh Sports Union,SC009248,City of Edinburgh,EH8 9TJ,55.94740148,-3.18189662,S02001623,S01008683
Medina Mosque Trust of Edinburgh,SC048057,City of Edinburgh,EH8 9TA,55.94752968,-3.18351784,S02001623,S01008683
Hidden Door Charitable Company Ltd,SC050108,City of Edinburgh,EH8 9TY,55.94769682,-3.18389124,S02001623,S01008683
"Tron Kirk (Gilmerton and Moredun), Edinburgh, Church of Scotland",SC009274,City of Edinburgh,EH14 3BZ,55.91102031,-3.28924038,S02001579,S01008433
74th City of Edinburgh Rainbow Unit,SC044333,City of Edinburgh,EH14 3HE,55.91013676,-3.2955142,S02001579,S01008433
"Marchmont St Giles Parish Church of Scotland, Edinburgh",SC009338,City of Edinburgh,EH9 2DW,55.93449465,-3.19346123,S02001612,S01008610
St Catherine's Argyle Parish Church of Scotland Edinburgh,SC009379,City of Edinburgh,EH9 1TY,55.93577995,-3.18970682,S02001612,S01008610
Charles Smith Trust Scheme 1991,SC019974,City of Edinburgh,EH9 2JB,55.93332635,-3.18790283,S02001612,S01008610
157th Braid Scout Group,SC037239,City of Edinburgh,EH9 2JH,55.93417729,-3.18538368,S02001612,S01008610
Leith Industrial School Trust,SC009351,City of Edinburgh,EH6 7DX,55.97942485,-3.17162297,S02001640,S01008768
North Edinburgh Dementia Care,SC024898,City of Edinburgh,EH7 6GY,55.96714571,-3.14733232,S02001640,S01008768
53rd City of Edinburgh Brownie Unit,SC044554,City of Edinburgh,EH7 6GY,55.96714571,-3.14733232,S02001640,S01008768
Leith Community Fund,SC051023,City of Edinburgh,EH6 7DX,55.97942485,-3.17162297,S02001640,S01008768
"Davidsons Mains Parish Church of Scotland, Edinburgh",SC009470,City of Edinburgh,EH4 5BB,55.96348446,-3.27222542,S02001672,S01008937
North Edinburgh Drug and Alcohol Centre,SC009510,City of Edinburgh,EH4 4TZ,55.97128734,-3.25347826,S02001671,S01008930
North Edinburgh Arts,SC027700,City of Edinburgh,EH4 4TZ,55.97128734,-3.25347826,S02001671,S01008930
Tinderbox Project,SC042825,City of Edinburgh,EH4 4TZ,55.97128734,-3.25347826,S02001671,S01008930
Community Action North,SC047226,City of Edinburgh,EH4 4TZ,55.97128734,-3.25347826,S02001671,S01008930
Equality and Human Rights,SC050938,City of Edinburgh,EH4 4SQ,55.97280906,-3.26197194,S02001671,S01008930
Portobello United Free Church,SC009637,City of Edinburgh,EH4 6DB,55.96438334,-3.30823633,S02001674,S01008944
Royal High School Club Prize Funds,SC012539,City of Edinburgh,EH4 6DB,55.96438334,-3.30823633,S02001674,S01008944
Craigalmond District Scout Council,SC027398,City of Edinburgh,EH4 6QH,55.96446106,-3.31275668,S02001674,S01008944
229th Rainbow Unit,SC035875,City of Edinburgh,EH4 6RD,55.9694403,-3.31095458,S02001674,S01008944
Russell Foundation,SC036372,City of Edinburgh,EH4 6DE,55.96766704,-3.30107335,S02001674,S01008944
213th Edinburgh Brownie Pack,SC038409,City of Edinburgh,EH4 6QN,55.96377583,-3.31044261,S02001674,S01008944
Murrayfield Wanderers Rugby Trust Foundation,SC039024,City of Edinburgh,EH4 6DH,55.96641772,-3.31464935,S02001674,S01008944
Cramond Senior Section,SC039993,City of Edinburgh,EH4 6QN,55.96377583,-3.31044261,S02001674,S01008944
1st Dalmeny/3rd South Queensferry  Brownies,SC041368,City of Edinburgh,EH4 6QN,55.96377583,-3.31044261,S02001674,S01008944
197th City of Edinburgh Rainbow Unit,SC044504,City of Edinburgh,EH4 6QN,55.96377583,-3.31044261,S02001674,S01008944
The Cramond Association,SC047183,City of Edinburgh,EH4 6RD,55.9694403,-3.31095458,S02001674,S01008944
1st South Queensferry Guide Unit,SC050795,City of Edinburgh,EH4 6QN,55.96377583,-3.31044261,S02001674,S01008944
Edinburgh Cine & Video Society,SC009670,City of Edinburgh,EH30 9RU,55.98899455,-3.40776775,S02001686,S01009010
21st Craigalmond (South Queensferry) Scout Group,SC035688,City of Edinburgh,EH30 9XX,55.98697103,-3.40713315,S02001686,S01009010
Greenferry Trust,SC038774,City of Edinburgh,EH30 9RZ,55.98952303,-3.41184278,S02001686,S01009010
Echline Parent Association ,SC049732,City of Edinburgh,EH30 9XJ,55.98832916,-3.41173514,S02001686,S01009010
Edinburgh Greenside Church of Scotland,SC009749,City of Edinburgh,EH7 5AB,55.95675153,-3.18041975,S02001647,S01008809
The Calton Youth Ministry Trust,SC009795,City of Edinburgh,EH7 5AB,55.95675153,-3.18041975,S02001647,S01008809
117th City of Edinburgh Guide Unit,SC047234,City of Edinburgh,EH7 5AB,55.95675153,-3.18041975,S02001647,S01008809
117th City of Edinburgh Brownie Unit,SC048205,City of Edinburgh,EH7 5AB,55.95675153,-3.18041975,S02001647,S01008809
Edinburgh Voluntary Organisations Council,SC009944,City of Edinburgh,EH5 2FF,55.96819547,-3.23307879,S02001663,S01008889
Fet-Lor Youth Club,SC013866,City of Edinburgh,EH4 2NY,55.96794236,-3.23412816,S02001663,S01008889
Home-Start Edinburgh West and South West,SC030624,City of Edinburgh,EH5 2FF,55.96819547,-3.23307879,S02001663,S01008889
Scran Academy SCIO,SC049911,City of Edinburgh,EH5 2FF,55.96819547,-3.23307879,S02001663,S01008889
The Goal Foundation,SC010047,City of Edinburgh,EH15 1TG,55.95577707,-3.11626062,S02001632,S01008731
All Together Edinburgh,SC041816,City of Edinburgh,EH15 1TS,55.95521462,-3.11387405,S02001632,S01008731
Lothian Buses Employees' Charities Fund,SC010162,City of Edinburgh,EH7 4AZ,55.96103574,-3.18529169,S02001655,S01008845
Edinburgh Christadelphian Ecclesia,SC014140,City of Edinburgh,EH7 4AB,55.95902385,-3.18426912,S02001655,S01008845
"Colinton Parish Church of Scotland, Edinburgh",SC010313,City of Edinburgh,EH13 0JR,55.90926824,-3.25707536,S02001581,S01008447
Stableroom Playgroup,SC011063,City of Edinburgh,EH13 0JR,55.90926824,-3.25707536,S02001581,S01008447
Stableroom Playgroup (SCIO),SC050746,City of Edinburgh,EH13 0JR,55.90926824,-3.25707536,S02001581,S01008447
"Craiglockhart Parish Church, Edinburgh (Church of Scotland)",SC010545,City of Edinburgh,EH14 2JH,55.91705368,-3.26108751,S02001581,S01008448
The Rainbow Boxes Foundation SCIO,SC050071,City of Edinburgh,EH14 2LW,55.91577897,-3.26096611,S02001581,S01008448
Ebenezer United Free Church,SC010626,City of Edinburgh,EH6 5JX,55.97250181,-3.17772684,S02001643,S01008789
Valley Park Community Centre,SC010700,City of Edinburgh,EH17 8EU,55.89814031,-3.15663296,S02001602,S01008554
Childcare Connections Limited,SC029731,City of Edinburgh,EH17 8EU,55.89814031,-3.15663296,S02001602,S01008554
ECP - Education Centre SCIO,SC047747,City of Edinburgh,EH17 8EY,55.89752992,-3.15656681,S02001602,S01008554
St Martins Episcopal Church: Edinburgh,SC011137,City of Edinburgh,EH14 1PL,55.93150444,-3.23876366,S02001589,S01008490
137th City of Edinburgh Rainbow Unit,SC048251,City of Edinburgh,EH14 1PT,55.93058849,-3.23959876,S02001589,S01008490
Edinburgh Police Fund for Children,SC011164,City of Edinburgh,EH8 9QW,55.94367405,-3.17986169,S02001623,S01008682
We Play Together SCIO,SC042676,City of Edinburgh,EH8 9RY,55.94416265,-3.17950828,S02001623,S01008682
Blackhall Playgroup,SC011212,City of Edinburgh,EH4 3QU,55.95794935,-3.25293492,S02001664,S01008893
170th City Of Edinburgh Girlguiding Company,SC034808,City of Edinburgh,EH4 3RN,55.95773807,-3.25691643,S02001664,S01008893
Comely Bank Scout Group (122nd Craigalmond),SC011217,City of Edinburgh,EH4 3EJ,55.95332756,-3.2318693,S02001662,S01008885
Lochend Football Academy,SC051226,City of Edinburgh,EH4 3HY,55.95282629,-3.23705835,S02001662,S01008885
Braid District Scout Council,SC011339,City of Edinburgh,EH9 3HZ,55.92677508,-3.18238887,S02001609,S01008588
"Church of Scotland, Reid Memorial Church, Edinburgh",SC014027,City of Edinburgh,EH9 3HY,55.92687971,-3.18365641,S02001609,S01008588
27th City of Edinburgh Brownie Unit,SC044821,City of Edinburgh,EH9 3HH,55.92558642,-3.18265674,S02001609,S01008588
27th A City of Edinburgh Brownie Unit,SC045433,City of Edinburgh,EH9 3HY,55.92687971,-3.18365641,S02001609,S01008588
Transition Edinburgh South (Scotland) Ltd,SC050894,City of Edinburgh,EH9 3HW,55.92613804,-3.18696267,S02001609,S01008588
"Bristo Memorial Church of Scotland, Craigmillar, Edinburgh",SC011625,City of Edinburgh,EH16 4AJ,55.93213877,-3.14247168,S02001627,S01008703
Grassroots Clothing,SC048810,City of Edinburgh,EH16 4BN,55.93031945,-3.14293032,S02001627,S01008703
Korean Language Classes,SC049992,City of Edinburgh,EH16 4BN,55.93031945,-3.14293032,S02001627,S01008703
82nd Craigalmond (Cramond) Scout Group,SC011669,City of Edinburgh,EH4 6DF,55.96836378,-3.30146524,S02001673,S01008943
Libertus Services,SC011678,City of Edinburgh,EH16 6RN,55.90384421,-3.15683474,S02001602,S01008557
South Edinburgh Day Centre Volunteers Forum,SC034181,City of Edinburgh,EH16 6RN,55.90384421,-3.15683474,S02001602,S01008557
Gracemount Community Church,SC048054,City of Edinburgh,EH16 6FD,55.90559401,-3.15421557,S02001602,S01008557
St Catherine's RC Primary School Parent Council,SC050809,City of Edinburgh,EH16 6RN,55.90384421,-3.15683474,S02001602,S01008557
Edinburgh: Portobello and Joppa Parish Church (Church of Scotland),SC011728,City of Edinburgh,EH15 2DL,55.95095837,-3.10257385,S02001631,S01008725
138a City Of Edinburgh Brownies,SC031664,City of Edinburgh,EH15 2DL,55.95095837,-3.10257385,S02001631,S01008725
Whiteadder Watersports Trust (SCIO),SC050575,City of Edinburgh,EH15 2DW,55.95102765,-3.10286407,S02001631,S01008725
23rd Craigalmond Scout Group,SC011914,City of Edinburgh,EH12 5RH,55.94217372,-3.25087234,S02001661,S01008877
Saughtonhall United Reformed Church,SC014175,City of Edinburgh,EH12 5TR,55.94203394,-3.25136418,S02001661,S01008877
Friends Of Corstorphine Hill,SC028842,City of Edinburgh,EH12 5RH,55.94217372,-3.25087234,S02001661,S01008877
20th Leith Boys Brigade Company,SC035670,City of Edinburgh,EH12 5RH,55.94217372,-3.25087234,S02001661,S01008877
162b Greenbank Rainbows,SC036186,City of Edinburgh,EH12 5TW,55.94416916,-3.25080859,S02001661,S01008877
Spiritual Assembly Of The Baha'is Of Edinburgh,SC011916,City of Edinburgh,EH1 3QR,55.95761067,-3.19012028,S02001655,S01008847
Sporting Start,SC048015,City of Edinburgh,EH1 3QR,55.95761067,-3.19012028,S02001655,S01008847
"Granton Parish Church of Scotland, Edinburgh",SC011985,City of Edinburgh,EH5 2PS,55.97139779,-3.22008991,S02001667,S01008912
Granton United Church (Methodist and United Reformed),SC012023,City of Edinburgh,EH4 2UR,55.95543492,-3.22689108,S02001663,S01008886
Queens Hall Edinburgh Ltd,SC012294,City of Edinburgh,EH8 9JG,55.94159641,-3.18194393,S02001621,S01008670
Southside and Central Out Of School Hours,SC021435,City of Edinburgh,EH8 9QZ,55.94170686,-3.17885724,S02001621,S01008670
Spit it Out (SCIO),SC051134,City of Edinburgh,EH8 9JD,55.9413984,-3.18104131,S02001621,S01008670
Edinburgh City Mission,SC012385,City of Edinburgh,EH11 1DS,55.93758737,-3.22350914,S02001618,S01008646
Edinburgh Society Of Organists,SC013728,City of Edinburgh,EH11 1LG,55.93623852,-3.22180173,S02001618,S01008646
North Merchiston Club,SC013785,City of Edinburgh,EH11 1EP,55.93708704,-3.22322121,S02001618,S01008646
Edinburgh Society Of Organists Benevolent Fund,SC017308,City of Edinburgh,EH11 1LG,55.93623852,-3.22180173,S02001618,S01008646
Air Training Corps No 870 Dreghorn Squadron Non-Public Sports & Welfare Funds,SC024639,City of Edinburgh,EH11 1LE,55.9365068,-3.22102576,S02001618,S01008646
The School of Ancient Crafts,SC043789,City of Edinburgh,EH11 1LE,55.9365068,-3.22102576,S02001618,S01008646
Edinburgh City Mission SCIO,SC050644,City of Edinburgh,EH11 1DS,55.93758737,-3.22350914,S02001618,S01008646
Screen Education Edinburgh,SC012460,City of Edinburgh,EH4 4BA,55.9691614,-3.24336365,S02001666,S01008904
North Edinburgh Childcare,SC023245,City of Edinburgh,EH4 4BL,55.96932886,-3.24101377,S02001666,S01008904
"Holy Trinity Church of Scotland, Edinburgh",SC012562,City of Edinburgh,EH14 2SL,55.9165853,-3.28035284,S02001584,S01008459
Saughtonhall Assoc,SC012605,City of Edinburgh,EH12 5RB,55.94251609,-3.24901008,S02001661,S01008876
150th Craigalmond Scout Group,SC029561,City of Edinburgh,EH12 5QS,55.9442616,-3.24612011,S02001661,S01008876
Edinburgh: Broughton St Mary's Parish Church (Church of Scotland),SC012642,City of Edinburgh,EH3 6NE,55.96055593,-3.19403909,S02001657,S01008853
160th City Of Edinburgh Brownie Pack,SC032056,City of Edinburgh,EH3 6NE,55.96055593,-3.19403909,S02001657,S01008853
"Leith St Andrew's Church of Scotland, Edinburgh",SC012680,City of Edinburgh,EH6 7NL,55.96822991,-3.1572657,S02001639,S01008766
10th Leith Boys Brigade Company,SC014912,City of Edinburgh,EH6 7PW,55.96888353,-3.15271901,S02001639,S01008766
Johnston Children Sports Trust,SC032315,City of Edinburgh,EH6 7PW,55.96888353,-3.15271901,S02001639,S01008766
156th City of Edinburgh Guide Company,SC043296,City of Edinburgh,EH6 7NP,55.96846386,-3.15435676,S02001639,S01008766
Leith Athletic Football Club (SCIO),SC049043,City of Edinburgh,EH6 7LX,55.96973818,-3.15931351,S02001639,S01008766
South Side Community Centre Association,SC012864,City of Edinburgh,EH17 7SL,55.91111349,-3.14433287,S02001606,S01008573
66th Edinburgh North East Scout Group,SC042039,City of Edinburgh,EH17 7SL,55.91111349,-3.14433287,S02001606,S01008573
4th Portobello Scout & Cub Group,SC012933,City of Edinburgh,EH8 7DW,55.95409197,-3.15192695,S02001626,S01008696
Astronomical Society Of Edinburgh Trust,SC013921,City of Edinburgh,EH8 7HD,55.95338587,-3.14863885,S02001626,S01008696
154th Edinburgh North East Scout Group,SC045127,City of Edinburgh,EH8 7DW,55.95409197,-3.15192695,S02001626,S01008696
Slateford Congregation Of Jehovahs Witnesses,SC012972,City of Edinburgh,EH14 2HN,55.92302196,-3.25739261,S02001588,S01008485
Fettesian Trust,SC013008,City of Edinburgh,EH9 2NU,55.93373104,-3.18226463,S02001612,S01008607
Grange Association,SC025491,City of Edinburgh,EH9 2LQ,55.93097297,-3.18688644,S02001612,S01008607
Interview Room 11,SC046674,City of Edinburgh,EH9 2NX,55.93335437,-3.18218913,S02001612,S01008607
Compass Playgroup,SC013050,City of Edinburgh,EH14 7EQ,55.88390612,-3.33847675,S02001576,S01008421
Balerno Village Trust,SC043318,City of Edinburgh,EH14 7EH,55.88376687,-3.33888762,S02001576,S01008421
Scottish Chamber Choir SCIO,SC013058,City of Edinburgh,EH12 6LU,55.94363525,-3.27484078,S02001679,S01008972
Emmanuel Scottish Episcopal Church Clermiston,SC019950,City of Edinburgh,EH12 6NZ,55.94268719,-3.27788378,S02001679,S01008972
St Salvadors Scottish Episcopal Church: Edinburgh,SC013329,City of Edinburgh,EH11 3QX,55.93141669,-3.26507558,S02001587,S01008480
Forever Young Club,SC036502,City of Edinburgh,EH11 3HH,55.93138279,-3.26400204,S02001587,S01008480
Dreghorn Pre School and Crèche,SC013346,City of Edinburgh,EH13 9NW,55.90373057,-3.22794506,S02001598,S01008533
Ferrywell Youth Project,SC045027,City of Edinburgh,EH13 9LX,55.90464439,-3.22189568,S02001598,S01008533
Care For Carers,SC013450,City of Edinburgh,EH7 6AE,55.95569587,-3.15240704,S02001625,S01008691
Link Up Women's Support Centre,SC017541,City of Edinburgh,EH7 6AE,55.95569587,-3.15240704,S02001625,S01008691
The Soundhouse Organisation,SC044521,City of Edinburgh,EH8 8JA,55.95490067,-3.16149652,S02001625,S01008691
Cameron House Community Centre,SC013627,City of Edinburgh,EH16 5EU,55.93287544,-3.15883641,S02001610,S01008596
Blackhall Mother & Toddler Group,SC013652,City of Edinburgh,EH4 3NH,55.95597136,-3.25216628,S02001664,S01008894
157 City Of Edinburgh Rainbow Unit,SC035917,City of Edinburgh,EH4 3PH,55.95573738,-3.25925406,S02001664,S01008894
202a City Of Edinburgh Brownie Unit,SC035925,City of Edinburgh,EH4 3SJ,55.95736458,-3.26268655,S02001664,S01008894
Blackhall School Parent Staff Association,SC045714,City of Edinburgh,EH4 3PH,55.95573738,-3.25925406,S02001664,S01008894
Moredun Community Association,SC013788,City of Edinburgh,EH17 7HT,55.91205904,-3.1304902,S02001604,S01008566
Friends Of Morningside Parish Church,SC013837,City of Edinburgh,EH10 6HE,55.91148138,-3.21291176,S02001598,S01008540
"St Martins Church of Scotland, Portobello, Edinburgh",SC013918,City of Edinburgh,EH15 3HD,55.93551926,-3.11777488,S02001628,S01008711
Jack Kane Centre Community Wing,SC020762,City of Edinburgh,EH16 4ND,55.9322061,-3.11750339,S02001628,S01008711
Gilmerton Community Centre,SC013955,City of Edinburgh,EH17 8QG,55.90629859,-3.13448151,S02001603,S01008563
Gilmerton Miners Charitable Society,SC021011,City of Edinburgh,EH17 8RE,55.90530293,-3.13526821,S02001603,S01008563
Gilmerton 60+ Club,SC032536,City of Edinburgh,EH17 8QG,55.90629859,-3.13448151,S02001603,S01008563
The Gilmerton Community Centre SCIO,SC050815,City of Edinburgh,EH17 8QG,55.90629859,-3.13448151,S02001603,S01008563
Firrhill High School Fund,SC014013,City of Edinburgh,EH14 1DP,55.91483594,-3.23789595,S02001596,S01008526
Oxgangs After School Club,SC026915,City of Edinburgh,EH13 9DS,55.91309317,-3.23606452,S02001596,S01008526
Friends of St Crispin's School,SC042778,City of Edinburgh,EH13 9AW,55.91086737,-3.23311405,S02001596,S01008526
A Sure Start For Families (Edinburgh),SC047555,City of Edinburgh,EH13 9EJ,55.91254536,-3.23244738,S02001596,S01008526
175th City of Edinburgh Brownie Unit,SC049261,City of Edinburgh,EH13 9EQ,55.91285268,-3.23136921,S02001596,S01008526
Garvald Edinburgh,SC014228,City of Edinburgh,EH11 3AL,55.93104536,-3.25393904,S02001587,S01008478
Community Help And Advice Initiative,SC027594,City of Edinburgh,EH11 3AF,55.93236529,-3.2496118,S02001587,S01008478
DAG Arts Limited,SC044526,City of Edinburgh,EH11 3AF,55.93236529,-3.2496118,S02001587,S01008478
The Salisbury Centre,SC014432,City of Edinburgh,EH16 5AB,55.93758355,-3.17593042,S02001611,S01008601
"Priestfield Parish Church of Scotland, Edinburgh",SC014499,City of Edinburgh,EH16 5HW,55.93640547,-3.16942732,S02001611,S01008601
Fairmilehead Rangers,SC045396,City of Edinburgh,EH16 5BS,55.93866641,-3.17450638,S02001611,S01008601
71st (St Annes) Craigalmond Scout Group,SC014481,City of Edinburgh,EH12 6LL,55.94689581,-3.27669335,S02001679,S01008971
Edinburgh: Corstorphine Craigsbank Parish Church (Church of Scotland),SC014719,City of Edinburgh,EH12 8HD,55.94362001,-3.2986656,S02001677,S01008964
A-Team Productions,SC050041,City of Edinburgh,EH12 8HD,55.94362001,-3.2986656,S02001677,S01008964
Edinburgh Barclay Viewforth Church of Scotland,SC014757,City of Edinburgh,EH10 4HR,55.93993814,-3.20379496,S02001621,S01008666
Edinburgh Chinese Christian Church,SC017702,City of Edinburgh,EH10 4HR,55.93993814,-3.20379496,S02001621,S01008666
St Fillans Playgroup,SC014841,City of Edinburgh,EH10 7JQ,55.9028335,-3.19491973,S02001599,S01008544
The Edinburgh Cat Protection League,SC014916,City of Edinburgh,EH6 5HA,55.97019642,-3.17355506,S02001643,S01008790
Dr Bell's Family Centre,SC037216,City of Edinburgh,EH6 5JA,55.97165739,-3.17488113,S02001643,S01008790
9th City of Edinburgh Guide Unit,SC040932,City of Edinburgh,EH6 5EZ,55.97066701,-3.17414612,S02001643,S01008790
YMCA Edinburgh SCIO,SC048494,City of Edinburgh,EH6 5JA,55.97165739,-3.17488113,S02001643,S01008790
Girls Brigade - 11th Edinburgh & Lothians Company,SC014946,City of Edinburgh,EH7 4QZ,55.97059063,-3.19795331,S02001652,S01008835
4th Braid Scout Group,SC015021,City of Edinburgh,EH10 5HB,55.92804907,-3.2112527,S02001615,S01008631
26th Craigalmond (Craigsbank) Scout Group,SC015103,City of Edinburgh,EH12 8XT,55.949678,-3.30191112,S02001676,S01008958
Edinburgh North East District Scout Council,SC020388,City of Edinburgh,EH12 8XT,55.949678,-3.30191112,S02001676,S01008958
"Canongate Parish Church of Scotland, Edinburgh",SC015251,City of Edinburgh,EH9 1RY,55.93546182,-3.17039138,S02001611,S01008600
Preston Street Parent Council,SC036034,City of Edinburgh,EH9 1RX,55.93586941,-3.17194046,S02001611,S01008600
The Church in Edinburgh,SC050488,City of Edinburgh,EH9 1RQ,55.93493286,-3.17498568,S02001611,S01008600
Portobello Amenity Society,SC015268,City of Edinburgh,EH15 2EF,55.95173829,-3.10578292,S02001631,S01008727
Play - Base Edinburgh,SC029191,City of Edinburgh,EH15 2BP,55.95251635,-3.10819133,S02001631,S01008727
Friends of Seaview,SC048301,City of Edinburgh,EH15 2BB,55.95385766,-3.10991128,S02001631,S01008727
Carers & Co,SC049629,City of Edinburgh,EH15 2EF,55.95173829,-3.10578292,S02001631,S01008727
Portobello Baptist Church,SC015322,City of Edinburgh,EH15 1EU,55.95237931,-3.11342428,S02001632,S01008729
Portobello Sailing and Kayaking Club,SC041579,City of Edinburgh,EH15 1LR,55.95061618,-3.11563165,S02001632,S01008729
Portobello Heritage Trust,SC042138,City of Edinburgh,EH15 1LU,55.95119595,-3.11907541,S02001632,S01008729
Craigmillar Now,SC050027,City of Edinburgh,EH15 1AT,55.95307158,-3.11635891,S02001632,S01008729
Portobello Baptist Church SCIO,SC050925,City of Edinburgh,EH15 1EU,55.95237931,-3.11342428,S02001632,S01008729
West Lothian Educational Trust,SC015454,City of Edinburgh,EH3 8BL,55.94490563,-3.20670317,S02001620,S01008659
Governors Of The Red House Home Trust,SC015748,City of Edinburgh,EH3 8BL,55.94490563,-3.20670317,S02001620,S01008659
Common Ground Against Homelessness,SC050648,City of Edinburgh,EH3 9QA,55.94365314,-3.20797715,S02001620,S01008659
St Margarets Episcopal Church: Edinburgh,SC015569,City of Edinburgh,EH6 8RQ,55.96410087,-3.17391519,S02001645,S01008798
Out Of The Blue Arts & Education Trust,SC022812,City of Edinburgh,EH6 8RG,55.96459508,-3.17391414,S02001645,S01008798
Edinburgh Citizens Advice Bureau,SC038195,City of Edinburgh,EH6 8PG,55.96507343,-3.17463351,S02001645,S01008798
Strange Town,SC045646,City of Edinburgh,EH6 8RG,55.96459508,-3.17391414,S02001645,S01008798
"Fairmilehead Parish Church of Scotland, Edinburgh",SC015967,City of Edinburgh,EH10 7AA,55.90172011,-3.20313849,S02001599,S01008545
198th A Edinburgh Rainbows,SC035218,City of Edinburgh,EH10 7AA,55.90172011,-3.20313849,S02001599,S01008545
Ferniehill Evangelical Church SCIO,SC050491,City of Edinburgh,EH10 7AQ,55.90237273,-3.20163922,S02001599,S01008545
Edinburgh: St John's Colinton Mains Church of Scotland,SC015982,City of Edinburgh,EH13 9ED,55.90952077,-3.22849603,S02001596,S01008525
South Queensferry & Rosebery Hall Community Education Centre Association,SC016087,City of Edinburgh,EH30 9LL,55.99017839,-3.39690959,S02001685,S01009008
Rosebery Playgroup,SC023341,City of Edinburgh,EH30 9LL,55.99017839,-3.39690959,S02001685,S01009008
4th South Queensferry Brownie Pack,SC036913,City of Edinburgh,EH30 9RQ,55.99028562,-3.40092126,S02001685,S01009008
Forth Childrens Theatre Group,SC016149,City of Edinburgh,EH10 7AS,55.89972038,-3.20272472,S02001599,S01008546
162 Greenbank Brownies,SC033615,City of Edinburgh,EH10 7AP,55.89898729,-3.20142258,S02001599,S01008546
Princes Street Easter Play Trust,SC035933,City of Edinburgh,EH10 7EU,55.89749043,-3.20104047,S02001599,S01008546
The Rannoch Centre,SC016166,City of Edinburgh,EH4 7ES,55.9550619,-3.28722867,S02001675,S01008951
103rd C City of Edinburgh Brownie Unit,SC031390,City of Edinburgh,EH4 7HZ,55.95302089,-3.28304494,S02001675,S01008951
St Michael & All Saints Episcopal Church: Edinburgh,SC016184,City of Edinburgh,EH3 9JH,55.9434733,-3.20247964,S02001620,S01008663
155th Edinburgh Brownie Pack,SC034321,City of Edinburgh,EH3 9JJ,55.94320631,-3.20037389,S02001620,S01008663
155th Edinburgh Rainbows,SC035262,City of Edinburgh,EH3 9JJ,55.94320631,-3.20037389,S02001620,S01008663
Arabesque,SC049266,City of Edinburgh,EH3 9HY,55.94443108,-3.20009155,S02001620,S01008663
Anna Younger Charitable Trust,SC016325,City of Edinburgh,EH3 6AQ,55.95258708,-3.20956865,S02001656,S01008852
Hirioth Trust,SC025515,City of Edinburgh,EH3 6AQ,55.95258708,-3.20956865,S02001656,S01008852
Ark Inazuma,SC048613,City of Edinburgh,EH3 6AQ,55.95258708,-3.20956865,S02001656,S01008852
Drylaw Rainbow Club Day Centre,SC016422,City of Edinburgh,EH4 2RG,55.96646096,-3.2500539,S02001665,S01008903
Pilton Central Association,SC017501,City of Edinburgh,EH4 2QP,55.96615627,-3.24286673,S02001665,S01008903
202c City Of Edinburgh Brownie Unit,SC035923,City of Edinburgh,EH4 2TX,55.96719366,-3.24602415,S02001665,S01008903
Granton Information Centre,SC016522,City of Edinburgh,EH5 1PE,55.97873193,-3.23253268,S02001669,S01008921
Granton: Hub ,SC046708,City of Edinburgh,EH5 1HS,55.98035343,-3.231222,S02001669,S01008921
St Columba Episcopal Church: Edinburgh,SC016571,City of Edinburgh,EH1 2PW,55.94851571,-3.19493348,S02001622,S01008675
Edinburgh City Youth Café,SC022146,City of Edinburgh,EH1 2HU,55.94629966,-3.19736318,S02001622,S01008675
Duddingston Conservation Society,SC016606,City of Edinburgh,EH15 3PT,55.94328427,-3.14305605,S02001626,S01008700
"Duddingston Kirk (Church of Scotland), Edinburgh",SC016610,City of Edinburgh,EH15 3PX,55.94161653,-3.14750587,S02001626,S01008700
The Field Group (Duddingston),SC045240,City of Edinburgh,EH15 3PZ,55.94282099,-3.14746144,S02001626,S01008700
Jock Tamson's Gairden,SC050428,City of Edinburgh,EH15 3PX,55.94161653,-3.14750587,S02001626,S01008700
108th Pentland Scout Group,SC016914,City of Edinburgh,EH13 0PH,55.90081409,-3.26659013,S02001580,S01008438
Colinton Village Enterprise,SC049496,City of Edinburgh,EH13 0QX,55.89972683,-3.25430368,S02001580,S01008438
Edinburgh Hebrew Congregation (EHC) SCIO,SC016924,City of Edinburgh,EH10 6DU,55.92440431,-3.20081671,S02001615,S01008625
Enable Edinburgh Branch,SC016961,City of Edinburgh,EH12 8DB,55.94985349,-3.29890633,S02001677,S01008966
"Craigmillar Park Church of Scotland, Edinburgh",SC017061,City of Edinburgh,EH16 5ND,55.93035954,-3.17212622,S02001609,S01008594
Craigmillar Park Association,SC027293,City of Edinburgh,EH16 5PQ,55.93115092,-3.16922098,S02001609,S01008594
St Crispin's Out of School Care Association Limited,SC038968,City of Edinburgh,EH16 5PQ,55.93115092,-3.16922098,S02001609,S01008594
IQRA Academy Edinburgh,SC041986,City of Edinburgh,EH16 5PH,55.92971822,-3.16869766,S02001609,S01008594
Amal,SC042065,City of Edinburgh,EH16 5XG,55.92923459,-3.16378543,S02001609,S01008594
Meadows Festival Association,SC017116,City of Edinburgh,EH13 9AP,55.91065611,-3.2326754,S02001596,S01008527
Triratna Edinburgh,SC017133,City of Edinburgh,EH7 6HG,55.96396874,-3.1469179,S02001638,S01008758
St Marks Episcopal Church: Portobello,SC017137,City of Edinburgh,EH15 2AR,55.95086222,-3.10928108,S02001631,S01008726
Portobello Timebank (SCIO),SC050023,City of Edinburgh,EH15 2QE,55.94966226,-3.10682868,S02001631,S01008726
St Davids Episcopal Church: Edinburgh,SC017258,City of Edinburgh,EH4 5JD,55.96815487,-3.27242678,S02001672,S01008938
155th Edinburgh Guide Unit,SC034389,City of Edinburgh,EH4 5HJ,55.96709051,-3.27368956,S02001672,S01008938
157a City Of Edinburgh Guide Unit,SC035920,City of Edinburgh,EH4 5HZ,55.96866196,-3.27378927,S02001672,S01008938
The Liminal Space,SC050515,City of Edinburgh,EH4 5HE,55.96878023,-3.27103737,S02001672,S01008938
Craiglockhart Mother & Toddler Group,SC017306,City of Edinburgh,EH3 8BB,55.94561636,-3.2130181,S02001619,S01008655
St Peters Scottish Episcopal Church: Edinburgh,SC017358,City of Edinburgh,EH8 9PE,55.94024709,-3.1783486,S02001621,S01008669
Coracle Trust,SC033358,City of Edinburgh,EH8 9QB,55.93945859,-3.17811653,S02001621,S01008669
Ratho Community Centre Assoc,SC017396,City of Edinburgh,EH28 8TT,55.92228129,-3.38425576,S02001683,S01008995
1st Ratho Brownies,SC032965,City of Edinburgh,EH28 8SD,55.92189581,-3.38896288,S02001683,S01008995
1st Ratho Rainbow Unit,SC045388,City of Edinburgh,EH28 8SD,55.92189581,-3.38896288,S02001683,S01008995
2nd Ratho Brownie Unit,SC049337,City of Edinburgh,EH28 8PD,55.92302767,-3.372968,S02001683,S01008995
The Governors of the Fettes Trust,SC017489,City of Edinburgh,EH4 1QX,55.96366188,-3.22636647,S02001659,S01008864
St Ninians Scottish Episcopal Church: Edinburgh,SC023246,City of Edinburgh,EH4 1AG,55.95905944,-3.22474725,S02001659,S01008864
Fettes Foundation,SC028350,City of Edinburgh,EH4 1QX,55.96366188,-3.22636647,S02001659,S01008864
Flora Stevenson After School Club,SC031057,City of Edinburgh,EH4 1BG,55.95845607,-3.22578535,S02001659,S01008864
Craiglockhart After School Club,SC017608,City of Edinburgh,EH11 1RG,55.93175855,-3.22774321,S02001592,S01008506
West Granton Community Trust,SC017875,City of Edinburgh,EH4 4GA,55.97576005,-3.24392793,S02001670,S01008924
Capital Carers Ltd,SC027274,City of Edinburgh,EH4 4GA,55.97576005,-3.24392793,S02001670,S01008924
Balerno Church Of Scotland,SC018012,City of Edinburgh,EH14 5AJ,55.89356023,-3.32820707,S02001576,S01008424
Edinburgh Canal Society,SC018330,City of Edinburgh,EH3 9HN,55.94250088,-3.19991977,S02001621,S01008667
Towerbank After School Club Limited,SC018433,City of Edinburgh,EH15 2HD,55.94842956,-3.09191723,S02001631,S01008722
Royal British Legion Scotland Portobello Branch,SC031943,City of Edinburgh,EH15 2HF,55.94877824,-3.08805182,S02001631,S01008722
South Bridge Pottery User Group - Sbpug,SC018765,City of Edinburgh,EH7 6UB,55.95702477,-3.13019913,S02001636,S01008748
"Newhaven Church of Scotland, Edinburgh",SC019117,City of Edinburgh,EH6 4ND,55.97980511,-3.19750101,S02001641,S01008772
Leith/St Andrews Playgroup,SC019257,City of Edinburgh,EH6 8HT,55.96842753,-3.16774973,S02001644,S01008793
South Morningside Primary After School Care Club,SC019836,City of Edinburgh,EH10 5QN,55.92097649,-3.21226423,S02001595,S01008519
Saheliya Steering Group,SC020069,City of Edinburgh,EH7 4NW,55.9660035,-3.18821516,S02001654,S01008841
Music In the Community SCIO,SC050479,City of Edinburgh,EH7 4NL,55.96452594,-3.18676011,S02001654,S01008841
Gylemuir After School Club,SC020097,City of Edinburgh,EH12 7PE,55.93536347,-3.28655919,S02001681,S01008986
St Andrews Fox Covert Primary Parent Council,SC042660,City of Edinburgh,EH12 7PJ,55.93627484,-3.28705365,S02001681,S01008986
Edinburgh University of the Third Age,SC020301,City of Edinburgh,EH12 6DZ,55.94645553,-3.2433083,S02001662,S01008882
Murrayfield Dementia Project,SC023210,City of Edinburgh,EH12 6EQ,55.94664944,-3.24100867,S02001662,S01008882
"WHALE, The Arts Agency",SC020305,City of Edinburgh,EH14 2SA,55.91356159,-3.28854077,S02001583,S01008454
Prospect Community Housing Limited,SC029797,City of Edinburgh,EH14 2TH,55.91424986,-3.29145952,S02001583,S01008454
Strengthening Communities for Race Equality Scotland - SCOREscotland,SC036018,City of Edinburgh,EH14 2SA,55.91356159,-3.28854077,S02001583,S01008454
74th A City of Edinburgh Guide Unit,SC044320,City of Edinburgh,EH14 2RY,55.91416386,-3.28937673,S02001583,S01008454
Wester Hailes Community Trust,SC046486,City of Edinburgh,EH14 2SA,55.91356159,-3.28854077,S02001583,S01008454
Wardie Residents Club,SC020393,City of Edinburgh,EH5 3NJ,55.97617931,-3.21541697,S02001651,S01008828
Wardie After School Club,SC022014,City of Edinburgh,EH5 3NJ,55.97617931,-3.21541697,S02001651,S01008828
Wardie Family Forum,SC049561,City of Edinburgh,EH5 3NJ,55.97617931,-3.21541697,S02001651,S01008828
Juniper Green Nursery Playgroup,SC020433,City of Edinburgh,EH14 5DX,55.90552356,-3.2881462,S02001579,S01008437
Harlaw Monday Group,SC020621,City of Edinburgh,EH14 7ET,55.87969337,-3.34080949,S02001576,S01008420
Dean Park Primary School Parent Teacher Association,SC024582,City of Edinburgh,EH14 7ET,55.87969337,-3.34080949,S02001576,S01008420
3rd Balerno Brownies,SC030988,City of Edinburgh,EH14 7ET,55.87969337,-3.34080949,S02001576,S01008420
1st Balerno Rainbow Unit,SC045305,City of Edinburgh,EH14 7ER,55.87857746,-3.34096284,S02001576,S01008420
Firsthand Lothian,SC020655,City of Edinburgh,EH7 4LZ,55.96217577,-3.1826033,S02001654,S01008843
41st City of Edinburgh Guide Unit,SC039393,City of Edinburgh,EH7 4NA,55.96301462,-3.18320559,S02001654,S01008843
Girlguiding New Leith Division (County of Edinburgh),SC039400,City of Edinburgh,EH7 4NA,55.96301462,-3.18320559,S02001654,S01008843
Smart Works Edinburgh,SC044520,City of Edinburgh,EH7 4LS,55.96065552,-3.18278119,S02001654,S01008843
Grace Church Leith,SC045774,City of Edinburgh,EH7 4RB,55.9627688,-3.18073111,S02001654,S01008843
La Petite Ecole ,SC020726,City of Edinburgh,EH4 2LS,55.95981942,-3.24573909,S02001664,S01008892
Friends Of Ravelston Park And Woods,SC032547,City of Edinburgh,EH4 3ND,55.95674839,-3.24820314,S02001664,S01008892
202 City Of Edinburgh Brownie Unit,SC035918,City of Edinburgh,EH4 2BG,55.95661246,-3.2438742,S02001664,S01008892
202b City of Edinburgh Brownie Unit,SC040409,City of Edinburgh,EH4 2BG,55.95661246,-3.2438742,S02001664,S01008892
Portobello Toddlers Hut Playgroup,SC021068,City of Edinburgh,EH15 1HU,55.95516521,-3.11337614,S02001632,S01008730
Friends of Porty Prom,SC048642,City of Edinburgh,EH15 1HF,55.95464603,-3.11116706,S02001632,S01008730
Cramond Playgroup,SC021155,City of Edinburgh,EH6 6NS,55.97982436,-3.18621903,S02001640,S01008769
Royal Yacht Britannia Trust,SC028070,City of Edinburgh,EH6 6JJ,55.98092009,-3.1778385,S02001640,S01008769
The Image Collective ,SC049412,City of Edinburgh,EH6 6JJ,55.98092009,-3.1778385,S02001640,S01008769
The Edinburgh Remakery Ltd,SC043556,City of Edinburgh,EH6 6JJ,55.98092009,-3.1778385,S02001640,S01008769
Holy Cross After School Club,SC021459,City of Edinburgh,EH6 4RE,55.97337832,-3.19587629,S02001650,S01008823
Friends of Prospect Bank School,SC042514,City of Edinburgh,EH6 4NS,55.97417629,-3.188626,S02001650,S01008823
The Men of Leith and District Men's Shed,SC047004,City of Edinburgh,EH6 4NR,55.97502812,-3.18974178,S02001650,S01008823
Edinburgh Arts Collective,SC047499,City of Edinburgh,EH6 4RB,55.97356903,-3.1938151,S02001650,S01008823
Mansfield Traquair Trust,SC021599,City of Edinburgh,EH3 6BB,55.95962468,-3.19091893,S02001655,S01008846
The Edinburgh Mela Ltd,SC023893,City of Edinburgh,EH1 3LH,55.95802582,-3.18713778,S02001655,S01008846
St Mary's Playgroup Edinburgh,SC042948,City of Edinburgh,EH7 4BW,55.95949285,-3.18875246,S02001655,S01008846
Queensferry Churches Care in the Community,SC021833,City of Edinburgh,EH30 9JA,55.98678172,-3.39374143,S02001685,S01009006
Squids,SC023179,City of Edinburgh,EH30 9JA,55.98678172,-3.39374143,S02001685,S01009006
217th City Of Edinburgh Guide Company,SC031768,City of Edinburgh,EH30 9QP,55.98410841,-3.39255529,S02001685,S01009006
Frogston Sports Trust,SC022188,City of Edinburgh,EH13 0DJ,55.90464965,-3.25443062,S02001580,S01008440
David Trust,SC034365,City of Edinburgh,EH13 0DJ,55.90464965,-3.25443062,S02001580,S01008440
4th Balerno Brownie Unit,SC034467,City of Edinburgh,EH13 0QB,55.90018839,-3.25486237,S02001580,S01008440
74c Juniper Green Brownie Unit,SC035217,City of Edinburgh,EH13 0QB,55.90018839,-3.25486237,S02001580,S01008440
2nd Balerno Guide Company City Of Edinburgh,SC036669,City of Edinburgh,EH13 0QB,55.90018839,-3.25486237,S02001580,S01008440
Harlaw Ranger Unit,SC042652,City of Edinburgh,EH13 0QB,55.90018839,-3.25486237,S02001580,S01008440
Longstone After School Club,SC022685,City of Edinburgh,EH14 2DU,55.92150971,-3.26116822,S02001588,S01008484
"Slateford Longstone Parish Church of Scotland, Edinburgh",SC030896,City of Edinburgh,EH14 2DF,55.92380047,-3.26034644,S02001588,S01008484
Heart of Scotland Trampoline Club,SC050498,City of Edinburgh,EH14 2DR,55.92175034,-3.25872765,S02001588,S01008484
Drylaw Telford Community Association (SCIO),SC022867,City of Edinburgh,EH4 2SA,55.96199384,-3.24752301,S02001665,S01008901
142nd City Of Edinburgh Rainbow Unit,SC036670,City of Edinburgh,EH4 2WL,55.96281395,-3.246396,S02001665,S01008901
Al-Huda Trust Edinburgh (The Guided),SC047676,City of Edinburgh,EH4 2RU,55.96367781,-3.24716068,S02001665,S01008901
Meadows Chamber Orchestra,SC023005,City of Edinburgh,EH13 0LT,55.90926304,-3.26984113,S02001580,S01008443
Colinton Community Conservation Trust,SC030703,City of Edinburgh,EH13 0HY,55.90783375,-3.26465942,S02001580,S01008443
188th City Of Edinburgh Guide Unit,SC036710,City of Edinburgh,EH13 0JL,55.91010037,-3.26618901,S02001580,S01008443
Central Leith After School Provision,SC023050,City of Edinburgh,EH6 7EG,55.97054689,-3.16882301,S02001644,S01008792
Edinburgh Carers Council For Those Supporting Mental Health Service Users,SC028469,City of Edinburgh,EH6 7EZ,55.97318298,-3.16467229,S02001644,S01008792
Leith Festival Association,SC036496,City of Edinburgh,EH6 7EE,55.97051373,-3.17042426,S02001644,S01008792
Duncan Place,SC048100,City of Edinburgh,EH6 8HW,55.96945949,-3.16789298,S02001644,S01008792
Manor Estates Housing Association Limited,SC023106,City of Edinburgh,EH11 2HA,55.94280847,-3.22255301,S02001619,S01008653
Moving Parts Theatre Company,SC026556,City of Edinburgh,EH11 2EB,55.94242403,-3.22145215,S02001619,S01008653
Care And Repair Edinburgh Ltd,SC023790,City of Edinburgh,EH9 1PR,55.93667649,-3.18057742,S02001612,S01008605
No Strings Attached - Community Wind Band,SC034371,City of Edinburgh,EH9 2NT,55.93441403,-3.18038053,S02001612,S01008605
Edinburgh Garden Partners ,SC042164,City of Edinburgh,EH9 1PR,55.93667649,-3.18057742,S02001612,S01008605
Autonomous Centre Of Edinburgh,SC023946,City of Edinburgh,EH7 5HA,55.96003284,-3.17837321,S02001647,S01008806
11th Edinburgh North East Scout Group,SC045754,City of Edinburgh,EH7 5AL,55.96139689,-3.17290423,S02001647,S01008806
Friends of Leith Walk Primary School,SC048897,City of Edinburgh,EH7 5NG,55.96079994,-3.17990226,S02001647,S01008806
The Royal Highland Society Development Trust,SC024206,City of Edinburgh,EH28 8NB,55.94112261,-3.36914124,S02001683,S01008993
Columcille Limited,SC024228,City of Edinburgh,EH10 4RT,55.93074651,-3.20832772,S02001615,S01008629
Air Training Corps No 1143 8th Edinburgh Squadron Non-Public Sports & Welfare Funds,SC024646,City of Edinburgh,EH14 3JR,55.91363734,-3.28300753,S02001579,S01008434
Martha Kilpatrick Ritchie Trust For The Relief Of Cancer Sufferers,SC024714,City of Edinburgh,EH6 5JH,55.97122769,-3.18129325,S02001648,S01008816
James Cecil Adam Charitable Trust,SC026874,City of Edinburgh,EH6 5JH,55.97122769,-3.18129325,S02001648,S01008816
Alexandra Constable Cardio-Thoracic Trust,SC031855,City of Edinburgh,EH6 5JH,55.97122769,-3.18129325,S02001648,S01008816
The Marion B Anderson Trust,SC038685,City of Edinburgh,EH6 5JH,55.97122769,-3.18129325,S02001648,S01008816
Ripple Project,SC024973,City of Edinburgh,EH7 6DZ,55.9635366,-3.15374546,S02001638,S01008759
51st B City Of Edinburgh Brownie Pack,SC034246,City of Edinburgh,EH7 6HA,55.96369696,-3.15197206,S02001638,S01008759
Edinburgh Community Food Ltd,SC024980,City of Edinburgh,EH6 5ND,55.97055969,-3.17786009,S02001643,S01008791
Broughton After School Club,SC025500,City of Edinburgh,EH7 4LD,55.96542986,-3.1889986,S02001653,S01008836
Broughton Primary School Trust ,SC044041,City of Edinburgh,EH7 4LD,55.96542986,-3.1889986,S02001653,S01008836
64th City of Edinburgh Brownie Unit,SC049093,City of Edinburgh,EH7 4LL,55.96912408,-3.18794233,S02001653,S01008836
Corstorphine Dementia Project Limited,SC026190,City of Edinburgh,EH12 7DR,55.93493079,-3.27806058,S02001681,S01008982
224th City Of Edinburgh Rainbow Unit,SC031273,City of Edinburgh,EH12 7ND,55.93473785,-3.27933486,S02001681,S01008982
Hufstetler Cycling Heritage Trust,SC026553,City of Edinburgh,EH15 2NB,55.94553896,-3.09868901,S02001631,S01008724
Action Porty,SC047358,City of Edinburgh,EH15 2QS,55.94546104,-3.10137681,S02001631,S01008724
Goodtrees Neighbourhood Centre,SC026880,City of Edinburgh,EH17 7LB,55.91525099,-3.14000688,S02001605,S01008572
Inclusion Alliance Limited,SC026889,City of Edinburgh,EH6 6EX,55.97569131,-3.17399389,S02001642,S01008778
125a Wardie Brownie Unit,SC034998,City of Edinburgh,EH6 6QB,55.97795289,-3.17145025,S02001642,S01008778
The Bhat Sikh Gurdwara and Community Association Edinburgh,SC042053,City of Edinburgh,EH6 6EQ,55.97563835,-3.17295069,S02001642,S01008778
All Nations Christian Fellowship,SC026966,City of Edinburgh,EH13 9JA,55.90746744,-3.22625556,S02001597,S01008530
Wester Hailes Youth Agency,SC027150,City of Edinburgh,EH14 2QR,55.92107135,-3.27059534,S02001584,S01008461
Ferryfield League Of Friends,SC027262,City of Edinburgh,EH14 1TX,55.92814177,-3.2487556,S02001589,S01008487
Kintry Environmental Trust,SC033303,City of Edinburgh,EH14 1RL,55.92732846,-3.24920958,S02001589,S01008487
Edinburgh Leisure,SC027450,City of Edinburgh,EH14 1BZ,55.92387033,-3.23571948,S02001593,S01008511
Friends of Braidburn School,SC043231,City of Edinburgh,EH14 1ED,55.91418665,-3.23365142,S02001593,S01008511
Smilechildcare,SC027601,City of Edinburgh,EH11 4LZ,55.91789062,-3.2947328,S02001583,S01008455
About Youth,SC046776,City of Edinburgh,EH11 4JH,55.91899812,-3.29622587,S02001583,S01008455
Oxgangs Care,SC027609,City of Edinburgh,EH13 9FF,55.91141517,-3.22233264,S02001596,S01008524
Tartan Ribbon Re-Creations SCIO,SC049234,City of Edinburgh,EH13 9FF,55.91141517,-3.22233264,S02001596,S01008524
Oxgangs Neighbourhood Centre SCIO,SC049520,City of Edinburgh,EH13 9EU,55.91239914,-3.22277957,S02001596,S01008524
Multi - Cultural Family Base,SC027644,City of Edinburgh,EH6 6HE,55.97587424,-3.17648326,S02001641,S01008777
Citadel Youth Centre SCIO,SC047933,City of Edinburgh,EH6 6JE,55.9772535,-3.17601233,S02001641,S01008777
The Health Agency,SC027773,City of Edinburgh,EH14 3JF,55.91220629,-3.28236831,S02001582,S01008451
The Solace Recovery Cafe,SC046261,City of Edinburgh,EH14 3JF,55.91220629,-3.28236831,S02001582,S01008451
South West Edible Estates,SC047594,City of Edinburgh,EH14 3JF,55.91220629,-3.28236831,S02001582,S01008451
Dr. Neils Garden Trust,SC028097,City of Edinburgh,EH15 3NX,55.94303607,-3.11623023,S02001629,S01008714
Currie Day Centre,SC028104,City of Edinburgh,EH14 7BS,55.88963226,-3.34404638,S02001576,S01008423
Balerno High School PTA,SC041861,City of Edinburgh,EH14 7AQ,55.88574397,-3.33969115,S02001576,S01008423
Edinburgh (Trinity) Unit (No 125) of the Sea Cadets Corps,SC028448,City of Edinburgh,EH5 1HA,55.98061913,-3.2234895,S02001669,S01008920
125 City Of Edinburgh Brownie And Rainbow Units,SC034596,City of Edinburgh,EH5 1JD,55.98154446,-3.23342352,S02001669,S01008920
Newhaven Heritage Centre,SC044837,City of Edinburgh,EH5 1EY,55.9804223,-3.22159214,S02001669,S01008920
Friends of Granton Castle Walled Garden ,SC048884,City of Edinburgh,EH5 1QB,55.9831467,-3.23672819,S02001669,S01008920
Edinburgh College Students’ Association,SC028544,City of Edinburgh,EH5 1QE,55.97706347,-3.24209481,S02001670,S01008928
Muirhouse Millennium Centre Limited,SC028782,City of Edinburgh,EH4 4RW,55.97055776,-3.26069693,S02001671,S01008933
Muirhouse Housing Association Limited,SC040979,City of Edinburgh,EH4 4RW,55.97055776,-3.26069693,S02001671,S01008933
The Bohemians Lyric Opera Company,SC028788,City of Edinburgh,EH6 6RR,55.97431281,-3.16776684,S02001642,S01008783
Tailor Ed Foundation,SC039246,City of Edinburgh,EH6 6SB,55.97451701,-3.1689748,S02001642,S01008783
The Leith Trust,SC044005,City of Edinburgh,EH6 6RR,55.97431281,-3.16776684,S02001642,S01008783
Leith Hub,SC045391,City of Edinburgh,EH6 6SB,55.97451701,-3.1689748,S02001642,S01008783
Liberton After School Club,SC028859,City of Edinburgh,EH16 5UD,55.92333997,-3.16380077,S02001609,S01008587
Edinburgh South Community Football Club SCIO,SC048866,City of Edinburgh,EH16 5UD,55.92333997,-3.16380077,S02001609,S01008587
Southern Light Opera Company,SC029172,City of Edinburgh,EH8 7SY,55.95283998,-3.12895611,S02001634,S01008740
Pakistan Society Advice & Information Services Ltd,SC029281,City of Edinburgh,EH14 5JG,55.90245911,-3.30269574,S02001578,S01008431
Leith Local History Society,SC029343,City of Edinburgh,EH5 3ES,55.97534279,-3.20084042,S02001650,S01008824
Friends Of Sciennes School,SC029465,City of Edinburgh,EH9 1LG,55.9381075,-3.18688053,S02001613,S01008613
"Friends of Panmure House, Inc",SC043655,City of Edinburgh,EH9 1UE,55.93679682,-3.1876889,S02001613,S01008613
Sciennes After School Care Scheme SCIO,SC048931,City of Edinburgh,EH9 1LG,55.9381075,-3.18688053,S02001613,S01008613
Edinburgh Schools Kayak Club SCIO,SC050408,City of Edinburgh,EH9 1LG,55.9381075,-3.18688053,S02001613,S01008613
Volunteer Centre Edinburgh,SC029681,City of Edinburgh,EH6 5EQ,55.96697184,-3.17531586,S02001648,S01008815
Friends of Pilrig Park School,SC047854,City of Edinburgh,EH6 5DW,55.96762918,-3.17986983,S02001648,S01008815
Living Memory Association,SC030234,City of Edinburgh,EH8 7EY,55.95400468,-3.14587046,S02001635,S01008745
Edinburgh Chinese Community School,SC030510,City of Edinburgh,EH9 1JT,55.9393096,-3.1917362,S02001613,S01008614
87th Craigalmond (Granton Seaway) Scout Group,SC030643,City of Edinburgh,EH4 2SS,55.96217053,-3.24959517,S02001665,S01008900
139th Braid Scout Group,SC030686,City of Edinburgh,EH17 7EP,55.9120935,-3.14039416,S02001605,S01008571
Gilmerton Heritage Trust,SC035135,City of Edinburgh,EH17 7EP,55.9120935,-3.14039416,S02001605,S01008571
Friends of Burdiehouse Burn Valley Park,SC040288,City of Edinburgh,EH17 7ER,55.91227657,-3.14003157,S02001605,S01008571
Friends of Burdiehouse Burn LNR (SCIO),SC050612,City of Edinburgh,EH17 7ER,55.91227657,-3.14003157,S02001605,S01008571
4th & 4th A City Of Edinburgh Brownie Packs,SC030741,City of Edinburgh,EH4 5NE,55.97050314,-3.26514946,S02001671,S01008934
103rd D City of Edinburgh Rainbow Unit,SC030855,City of Edinburgh,EH12 8GR,55.94683885,-3.30782071,S02001677,S01008961
191st City of Edinburgh Guide Unit,SC036470,City of Edinburgh,EH12 8GN,55.94734033,-3.30798173,S02001677,S01008961
1st Currie Brownie Pack,SC030899,City of Edinburgh,EH14 5LL,55.89853801,-3.30640264,S02001578,S01008429
2nd Currie Brownie Pack,SC031545,City of Edinburgh,EH14 5LL,55.89853801,-3.30640264,S02001578,S01008429
65th Edinburgh Boys Brigade,SC034640,City of Edinburgh,EH14 5LH,55.89858391,-3.30800349,S02001578,S01008429
3rd Currie Guide Unit,SC037020,City of Edinburgh,EH14 5LL,55.89853801,-3.30640264,S02001578,S01008429
Girlguiding Currie District,SC045326,City of Edinburgh,EH14 5LL,55.89853801,-3.30640264,S02001578,S01008429
217th A Brownie Pack,SC030921,City of Edinburgh,EH4 2AR,55.96247842,-3.25642934,S02001664,S01008898
103rd City of Edinburgh Rainbow Unit,SC030958,City of Edinburgh,EH12 8YB,55.95412865,-3.30843491,S02001676,S01008956
239th City Of Edinburgh Rainbow Unit,SC031313,City of Edinburgh,EH4 8BP,55.95751628,-3.30504141,S02001676,S01008956
6th South Queensferry Brownie Pack,SC030996,City of Edinburgh,EH30 9JQ,55.98568558,-3.39134568,S02001685,S01009007
3rd South Queensferry Guides,SC036232,City of Edinburgh,EH30 9JQ,55.98568558,-3.39134568,S02001685,S01009007
Capital City Partnership Limited,SC031026,City of Edinburgh,EH6 8NR,55.96759534,-3.174005,S02001644,S01008796
93rd C Edinburgh Brownie Guide Unit,SC031069,City of Edinburgh,EH17 8UN,55.89656993,-3.14873417,S02001600,S01008548
Liberton United Football Club,SC041404,City of Edinburgh,EH17 8UN,55.89656993,-3.14873417,S02001600,S01008548
Gregarious Chinwag SCIO,SC049983,City of Edinburgh,EH17 8TW,55.90170332,-3.13780205,S02001600,S01008548
148th City Of Edinburgh Guide Company,SC031123,City of Edinburgh,EH9 2EA,55.93062243,-3.19062114,S02001612,S01008608
215th City Of Edinburgh Rainbow Unit,SC031156,City of Edinburgh,EH12 9AQ,55.93257543,-3.28593853,S02001681,S01008985
4th Currie Brownies,SC031158,City of Edinburgh,EH14 5SA,55.89310532,-3.32205101,S02001577,S01008428
1st Currie Guide Unit,SC032850,City of Edinburgh,EH14 5SF,55.89396842,-3.3236795,S02001577,S01008428
239th City Of Edinburgh Brownie Pack,SC031159,City of Edinburgh,EH3 9BW,55.94502084,-3.20227142,S02001620,S01008662
224th City Of Edinburgh Guide Company,SC031162,City of Edinburgh,EH12 5UH,55.94038027,-3.25492915,S02001661,S01008879
Clermiston District Guide Association,SC047625,City of Edinburgh,EH12 5UH,55.94038027,-3.25492915,S02001661,S01008879
239th City Of Edinburgh Guide Company,SC031163,City of Edinburgh,EH4 6DX,55.96536062,-3.31855459,S02001684,S01009002
Queensferry Harbour Trust,SC033687,City of Edinburgh,EH30 9TT,55.98272994,-3.3752756,S02001684,S01009002
103rd D City of Edinburgh Brownie Unit,SC044788,City of Edinburgh,EH4 6AU,55.96394975,-3.31267528,S02001684,S01009002
1st Kirkliston Brownie Unit,SC045229,City of Edinburgh,EH29 9EY,55.96017924,-3.4115269,S02001684,S01009002
St Margaret's RC Primary School Parent Council,SC046403,City of Edinburgh,EH29 9FH,55.95971585,-3.41040475,S02001684,S01009002
The Hellenic Community of Edinburgh,SC048115,City of Edinburgh,EH30 9AH,55.98221705,-3.3801619,S02001684,S01009002
107th Pentland Scout Group,SC031234,City of Edinburgh,EH14 1JF,55.91431448,-3.25391079,S02001581,S01008446
Colinton Lawn Tennis Club,SC050790,City of Edinburgh,EH13 0BD,55.9061306,-3.25283084,S02001581,S01008446
88th Craigalmond Scout Group,SC031236,City of Edinburgh,EH12 8EF,55.94553256,-3.29794501,S02001677,S01008962
2nd South Queensferry Rainbows Unit,SC031246,City of Edinburgh,EH30 9PJ,55.98163689,-3.38701707,S02001685,S01009005
224th City Of Edinburgh Brownie Pack,SC031270,City of Edinburgh,EH12 7DW,55.94122705,-3.29722459,S02001682,S01008988
Friends Of The Gyle Park,SC036079,City of Edinburgh,EH12 7UG,55.93937789,-3.29789922,S02001682,S01008988
East Craigs Playgroup,SC042321,City of Edinburgh,EH12 8LJ,55.94120741,-3.30249145,S02001682,S01008988
18th City of Edinburgh Brownie Unit,SC048341,City of Edinburgh,EH12 7RZ,55.93765583,-3.29844997,S02001682,S01008988
193rd B City Of Edinburgh Guides,SC031322,City of Edinburgh,EH11 1JP,55.9390745,-3.21670392,S02001617,S01008644
95th B City of Edinburgh Rainbow Unit,SC031354,City of Edinburgh,EH12 7RH,55.93696863,-3.29629779,S02001682,S01008987
Gylemuir Community Playgroup,SC038445,City of Edinburgh,EH12 7RT,55.93791274,-3.29538478,S02001682,S01008987
Edinburgh City Youth Football Club,SC042965,City of Edinburgh,EH12 7QS,55.93497777,-3.29078854,S02001682,S01008987
75th Blackford Scout Group,SC031395,City of Edinburgh,EH9 2NH,55.93139901,-3.17713559,S02001609,S01008591
Braidwood Bikepark Group,SC044576,City of Edinburgh,EH9 3AH,55.92803248,-3.17493685,S02001609,S01008591
103rd Braid Scout Group,SC031405,City of Edinburgh,EH10 6AL,55.92294226,-3.20973313,S02001615,S01008626
103rd A City of Edinburgh Brownie Unit,SC031410,City of Edinburgh,EH3 6TQ,55.95734979,-3.20861203,S02001658,S01008860
Stockbridge After School Club,SC043519,City of Edinburgh,EH4 1LW,55.95837624,-3.21114277,S02001658,S01008860
31st Pentland (Juniper Green)Scout Group,SC031424,City of Edinburgh,EH14 5DR,55.90447022,-3.28575993,S02001579,S01008436
74th A Edinburgh Brownie Unit,SC031574,City of Edinburgh,EH14 5BQ,55.90720194,-3.27625238,S02001579,S01008436
Playback Trust,SC031679,City of Edinburgh,EH14 5DQ,55.90487005,-3.28102246,S02001579,S01008436
172nd Pentland Scout Group,SC035852,City of Edinburgh,EH14 5BR,55.90568209,-3.28415245,S02001579,S01008436
73rd City of Edinburgh Rainbow Unit,SC040425,City of Edinburgh,EH14 5BN,55.90642786,-3.28070591,S02001579,S01008436
103rd C City of Edinburgh Guide Unit,SC031465,City of Edinburgh,EH11 3EQ,55.9325751,-3.2625202,S02001587,S01008475
Friends Of The Hermitage Of Braid & Blackford Hill,SC031776,City of Edinburgh,EH16 5NX,55.9267918,-3.17029002,S02001609,S01008593
1st Leith (Wardie) Scout Group,SC031820,City of Edinburgh,EH5 1AG,55.97794088,-3.2190139,S02001667,S01008915
142nd City Of Edinburgh Guide Unit,SC031856,City of Edinburgh,EH7 6JN,55.96091519,-3.14482525,S02001637,S01008753
106th City Of Edinburgh Rainbow Unit,SC032038,City of Edinburgh,EH12 7AZ,55.94186485,-3.26615275,S02001679,S01008973
76th Edinburgh Brownie Unit,SC033906,City of Edinburgh,EH12 7AZ,55.94186485,-3.26615275,S02001679,S01008973
202 City Of Edinburgh Rainbow Unit,SC035919,City of Edinburgh,EH12 7AZ,55.94186485,-3.26615275,S02001679,S01008973
106th City of Edinburgh Guide Unit,SC045719,City of Edinburgh,EH12 7AZ,55.94186485,-3.26615275,S02001679,S01008973
93rd Edinburgh Brownie Pack,SC032113,City of Edinburgh,EH16 6YD,55.90586374,-3.1732106,S02001601,S01008550
93rd B Edinburgh Rainbow Guide Unit,SC037240,City of Edinburgh,EH16 6YG,55.90494196,-3.17564606,S02001601,S01008550
160th City Of Edinburgh Rainbow Unit,SC032166,City of Edinburgh,EH4 2EP,55.95734967,-3.22680751,S02001663,S01008887
Lismore Rugby Football Club,SC043329,City of Edinburgh,EH4 2DP,55.95797851,-3.22772438,S02001663,S01008887
51st Pentland (Balerno) Scout Group,SC032223,City of Edinburgh,EH14 7GB,55.88184898,-3.33842193,S02001576,S01008419
102nd Craigalmond (St Andrews Clermiston) Scout Group,SC032234,City of Edinburgh,EH4 7LB,55.95390619,-3.29290798,S02001675,S01008953
Clermiston And Drumbrae Childrens Gala,SC032261,City of Edinburgh,EH4 7JY,55.95280745,-3.29485727,S02001675,S01008953
Portobello Pakistani Educational & Cultural Centre (The Madrasah),SC032274,City of Edinburgh,EH15 1DF,55.95521787,-3.11946375,S02001632,S01008733
72nd City Of Edinburgh Guide Unit,SC037906,City of Edinburgh,EH15 1UD,55.9567583,-3.12002075,S02001632,S01008733
Portobello Older Peoples Project SCIO ,SC048384,City of Edinburgh,EH15 1DX,55.95806811,-3.11925773,S02001632,S01008733
The Lighthouze ltd,SC050427,City of Edinburgh,EH15 1EB,55.95800969,-3.12271576,S02001632,S01008733
Buckstone Youth Club,SC032493,City of Edinburgh,EH10 6UY,55.90592373,-3.19592654,S02001599,S01008543
95th City of Edinburgh Guide Unit,SC032581,City of Edinburgh,EH12 7AL,55.94012408,-3.27462935,S02001680,S01008977
Stockbridge & New Town Community Orchestra,SC032890,City of Edinburgh,EH12 7HJ,55.94001957,-3.27950901,S02001680,S01008977
42nd Pentland (Currie) Scout Group,SC032836,City of Edinburgh,EH14 5TL,55.89477488,-3.32639355,S02001577,S01008427
Edinburgh School Uniform Bank,SC047524,City of Edinburgh,EH14 5TH,55.89594746,-3.32764897,S02001577,S01008427
Lothian Youth Arts & Musicals Company,SC032873,City of Edinburgh,EH5 2GB,55.97187496,-3.22723524,S02001667,S01008911
The Spartans Community Football Academy,SC037598,City of Edinburgh,EH5 2HF,55.97201368,-3.23044428,S02001667,S01008911
Scottish Indian Arts Forum,SC033214,City of Edinburgh,EH11 3AH,55.92752412,-3.27570406,S02001586,S01008470
Community One Stop Shop Project,SC033454,City of Edinburgh,EH11 3UU,55.92838354,-3.27947755,S02001586,S01008470
Edinburgh Food Project,SC043220,City of Edinburgh,EH11 3UY,55.92684069,-3.28267565,S02001586,S01008470
Community One Stop Shop,SC049181,City of Edinburgh,EH11 3UU,55.92838354,-3.27947755,S02001586,S01008470
183rd A City of Edinburgh Brownie Unit,SC033384,City of Edinburgh,EH12 8NQ,55.9389853,-3.30867667,S02001682,S01008992
Edinburgh Park Leisure,SC045952,City of Edinburgh,EH12 9DF,55.93201273,-3.3145562,S02001682,S01008992
Lady Flora Hastings Trust,SC048757,City of Edinburgh,EH12 9DQ,55.93355325,-3.30996619,S02001682,S01008992
46th Edinburgh & Lothian's Girls Brigade,SC033501,City of Edinburgh,EH30 9XQ,55.98576706,-3.41340498,S02001686,S01009012
Murrayfield - DAFS Cricket Club,SC039920,City of Edinburgh,EH30 9SW,55.98561484,-3.41570765,S02001686,S01009012
4th South Queensferry Rainbow Unit,SC043116,City of Edinburgh,EH30 9UX,55.98655735,-3.41657564,S02001686,S01009012
Forth Bridges Men's Shed,SC051057,City of Edinburgh,EH30 9UZ,55.98686927,-3.41366962,S02001686,S01009012
210th Cluny Brownie Unit,SC033513,City of Edinburgh,EH11 2ES,55.94064896,-3.22466236,S02001591,S01008499
St Martin's Community Resource Centre,SC042335,City of Edinburgh,EH11 2JG,55.93994806,-3.22556881,S02001591,S01008499
2nd Currie Rainbow Unit,SC044146,City of Edinburgh,EH11 2LG,55.94051811,-3.22517056,S02001591,S01008499
93rd A Edinburgh Brownie Guide Unit,SC033533,City of Edinburgh,EH16 6EB,55.90824953,-3.16134904,S02001602,S01008558
93rd Edinburgh Rainbow Guide Unit,SC033583,City of Edinburgh,EH16 6EB,55.90824953,-3.16134904,S02001602,S01008558
93rd Edinburgh Guide Unit,SC033992,City of Edinburgh,EH16 6EN,55.90779552,-3.15708038,S02001602,S01008558
127th City Of Edinburgh Guide Unit,SC034030,City of Edinburgh,EH16 6EB,55.90824953,-3.16134904,S02001602,S01008558
27th Edinburgh Rainbows,SC034757,City of Edinburgh,EH16 6EB,55.90824953,-3.16134904,S02001602,S01008558
111th Edinburgh Brownie Unit,SC036551,City of Edinburgh,EH16 6EN,55.90779552,-3.15708038,S02001602,S01008558
101st Edinburgh Brownie Unit,SC033599,City of Edinburgh,EH9 2LZ,55.92942057,-3.18293362,S02001609,S01008589
59th City Of Edinburgh Guide Unit,SC033715,City of Edinburgh,EH10 6SY,55.90390713,-3.21558641,S02001598,S01008536
98th Pentland Scout Group,SC035171,City of Edinburgh,EH10 7AZ,55.90279637,-3.22068595,S02001598,S01008536
Friends of Fairmilehead Park,SC047349,City of Edinburgh,EH10 6SZ,55.90351303,-3.21909297,S02001598,S01008536
187 Rainbow Guide Unit Edinburgh,SC034130,City of Edinburgh,EH9 1AN,55.93566253,-3.19533809,S02001614,S01008617
Roseburn Afterschool Club Limited,SC034306,City of Edinburgh,EH12 5PL,55.94290685,-3.23789485,S02001661,S01008875
155th A Edinburgh Brownie Pack,SC034322,City of Edinburgh,EH4 1AX,55.95746189,-3.2191228,S02001659,S01008866
93rd B Brownie Unit,SC034326,City of Edinburgh,EH9 3EQ,55.92823194,-3.17851201,S02001609,S01008590
198b City Of Edinburgh Brownie Unit,SC034397,City of Edinburgh,EH10 7HD,55.90052615,-3.21946308,S02001598,S01008535
198th C City of Edinburgh Brownie Unit,SC048965,City of Edinburgh,EH10 7HE,55.89950501,-3.21823154,S02001598,S01008535
193a City Of Edinburgh Brownie Unit,SC034468,City of Edinburgh,EH13 0BQ,55.90662245,-3.25129506,S02001581,S01008445
193b City Of Edinburgh Brownie Unit,SC034985,City of Edinburgh,EH13 0AD,55.90668625,-3.24589035,S02001581,S01008445
The Army School of Bagpipe Music and Highland Drumming Memorial Fund,SC044115,City of Edinburgh,EH13 0LA,55.9099809,-3.24973948,S02001581,S01008445
23rd City Of Edinburgh Guide Company,SC034650,City of Edinburgh,EH10 5PF,55.92180526,-3.21478649,S02001594,S01008518
The Seven Hills Chorus,SC049639,City of Edinburgh,EH10 5NE,55.92235448,-3.2137635,S02001594,S01008518
1st & 2nd South Queensferry Brownie Pack,SC034671,City of Edinburgh,EH30 9XF,55.98864959,-3.41670026,S02001686,S01009013
193rd City Of Edinburgh Brownies,SC034682,City of Edinburgh,EH13 0AS,55.90586386,-3.2410172,S02001581,S01008444
Portobello Open Door,SC034702,City of Edinburgh,EH15 1NB,55.9495595,-3.12117404,S02001633,S01008734
Friends of St.John's RC Primary School Edinburgh,SC048927,City of Edinburgh,EH15 1NE,55.9483493,-3.12480608,S02001633,S01008734
Portobello Central SCIO,SC051106,City of Edinburgh,EH15 1NB,55.9495595,-3.12117404,S02001633,S01008734
100a City Of Edinburgh Brownie Guides,SC034719,City of Edinburgh,EH5 2JL,55.97476514,-3.23474606,S02001669,S01008922
72nd City Of Edinburgh Rainbow Unit,SC034858,City of Edinburgh,EH14 1XQ,55.92892213,-3.23283926,S02001593,S01008508
180th Brownie Pack,SC035038,City of Edinburgh,EH15 2NY,55.94466556,-3.09384476,S02001631,S01008723
Commotion Women Drummers,SC035665,City of Edinburgh,EH15 2NT,55.9431293,-3.09381746,S02001631,S01008723
35th Braid Scout Group,SC035115,City of Edinburgh,EH16 6TU,55.92039479,-3.16168027,S02001607,S01008580
17th City Of Edinburgh Brownie Pack,SC035253,City of Edinburgh,EH14 2AT,55.9256877,-3.26295238,S02001588,S01008482
17th A City Of Edinburgh Brownie Pack,SC035254,City of Edinburgh,EH14 2AT,55.9256877,-3.26295238,S02001588,S01008482
17th City of Edinburgh Guide Unit,SC045807,City of Edinburgh,EH14 2BT,55.92367023,-3.26253468,S02001588,S01008482
187 City Of Edinburgh Brownie Pack,SC035259,City of Edinburgh,EH9 1HX,55.93792838,-3.19518376,S02001614,S01008620
195th A City of Edinburgh Guide Unit,SC035323,City of Edinburgh,EH12 9AJ,55.93270342,-3.28400591,S02001681,S01008983
193a Colinton Rainbow Unit,SC035369,City of Edinburgh,EH13 0DU,55.90479807,-3.26188934,S02001580,S01008442
66th A Edinburgh Guide Company,SC035703,City of Edinburgh,EH13 0NX,55.9057994,-3.26500909,S02001580,S01008442
Redeemer Church Edinburgh,SC050017,City of Edinburgh,EH13 0LQ,55.9073275,-3.25706054,S02001580,S01008442
230th City Of Edinburgh Brownies,SC035370,City of Edinburgh,EH14 1RX,55.93338013,-3.24344964,S02001589,S01008489
North East Edinburgh Care Action Group - Leith Branch,SC035416,City of Edinburgh,EH6 8FG,55.96609945,-3.1678398,S02001644,S01008794
Friends Of Boroughmuir High School,SC035522,City of Edinburgh,EH11 1FL,55.94102742,-3.21457173,S02001619,S01008651
183rd City Of Edinburgh Brownie Unit,SC035543,City of Edinburgh,EH4 4GR,55.96758063,-3.26010343,S02001671,S01008932
195th A City of Edinburgh Brownie Unit,SC035560,City of Edinburgh,EH11 3GX,55.92931868,-3.27073724,S02001587,S01008473
170th Brownie Pack Edinburgh,SC035569,City of Edinburgh,EH5 2PD,55.97301758,-3.23965772,S02001666,S01008908
170th B City of Edinburgh Brownie Pack,SC037153,City of Edinburgh,EH5 2PD,55.97301758,-3.23965772,S02001666,S01008908
Christ Kingdom Victory Church of God International,SC050971,City of Edinburgh,EH5 2NL,55.97120889,-3.23902304,S02001666,S01008908
Big Project Edinburgh,SC035600,City of Edinburgh,EH11 3RQ,55.92842192,-3.27317271,S02001586,S01008472
150th Rainbows,SC035785,City of Edinburgh,EH11 1US,55.93456343,-3.23389889,S02001592,S01008502
City of Edinburgh Gymnastics Club,SC049482,City of Edinburgh,EH11 1AG,55.93585709,-3.23571694,S02001592,S01008502
171st City Of Edinburgh Guide Unit,SC036057,City of Edinburgh,EH8 7PT,55.95117058,-3.13851617,S02001635,S01008744
7th Braid Edinburgh (George Heriot's School) Scout Group,SC036159,City of Edinburgh,EH10 4LL,55.93944316,-3.21212068,S02001617,S01008643
1st Kirkliston Rainbows,SC036245,City of Edinburgh,EH29 9FB,55.9560574,-3.41286644,S02001684,S01008997
15th Edinburgh Rainbows,SC036547,City of Edinburgh,EH14 1PB,55.93115159,-3.23721579,S02001589,S01008491
142nd City Of Edinburgh Brownie Pack,SC036671,City of Edinburgh,EH4 2NB,55.96054261,-3.23996362,S02001663,S01008890
174th City of Edinburgh Rainbow Unit,SC036858,City of Edinburgh,EH4 4DX,55.97102032,-3.24968823,S02001666,S01008905
174th A City of Edinburgh Brownie Guide Pack,SC039059,City of Edinburgh,EH4 4DX,55.97102032,-3.24968823,S02001666,S01008905
195th City of Edinburgh Rainbow Unit,SC036915,City of Edinburgh,EH12 7JW,55.93568066,-3.28285576,S02001681,S01008981
39th Craiglockhart Brownies,SC037071,City of Edinburgh,EH13 9JG,55.90831422,-3.21970755,S02001597,S01008531
Edinburgh World Heritage Trust,SC037183,City of Edinburgh,EH8 8DD,55.95147306,-3.1789619,S02001623,S01008685
The Centre for Ethnic Minorities and Community Projects,SC048365,City of Edinburgh,EH8 8DL,55.95263609,-3.18136749,S02001623,S01008685
198th Edinburgh Guide Unit,SC037205,City of Edinburgh,EH16 6JN,55.91508729,-3.16041753,S02001608,S01008582
Friends Of Inverleith Park,SC037313,City of Edinburgh,EH4 1QD,55.95491128,-3.21353306,S02001658,S01008861
The Friends of Inverleith Park (SCIO),SC051255,City of Edinburgh,EH4 1QD,55.95491128,-3.21353306,S02001658,S01008861
Kurdish Initiative,SC037961,City of Edinburgh,EH14 2AB,55.91910882,-3.27269132,S02001584,S01008462
SEASONS,SC038367,City of Edinburgh,EH7 6BR,55.96092959,-3.15866565,S02001625,S01008692
The Edinburgh Schools Rock Ensemble Trust,SC040003,City of Edinburgh,EH7 5UN,55.95793394,-3.16094669,S02001625,S01008692
Edinburgh Muslim Scouts,SC038621,City of Edinburgh,EH15 1RE,55.94356688,-3.12897445,S02001633,S01008737
Radio Ramadan Edinburgh,SC041243,City of Edinburgh,EH15 1RE,55.94356688,-3.12897445,S02001633,S01008737
The Friends of Duddingston Primary School,SC044754,City of Edinburgh,EH15 1SW,55.9469207,-3.13166611,S02001633,S01008737
St Mary's Parent Forum Committee,SC039639,City of Edinburgh,EH7 5HB,55.95887344,-3.17840205,S02001647,S01008810
Lusofonias-Oficinas de Portugues,SC046096,City of Edinburgh,EH7 5EF,55.95810758,-3.17579997,S02001647,S01008810
Cavalry Park Sports Club,SC040722,City of Edinburgh,EH15 1JU,55.94430557,-3.11693924,S02001633,S01008735
Greenworks (Scotland) Ltd,SC040734,City of Edinburgh,EH6 8DF,55.96675257,-3.16148316,S02001639,S01008763
Friends of Redhall School,SC040890,City of Edinburgh,EH4 7AP,55.95799499,-3.27215742,S02001664,S01008896
Braidwood Neighbourhood Centre Association,SC040934,City of Edinburgh,EH8 9UT,55.94853679,-3.17781576,S02001623,S01008684
Craigentinny Telferton Allotments,SC041179,City of Edinburgh,EH8 7RG,55.95010566,-3.13023771,S02001634,S01008739
The Edinburgh Greek Festival Trust,SC041231,City of Edinburgh,EH3 9LH,55.9414121,-3.20376064,S02001620,S01008664
Edinburgh Incidental Orchestra,SC041515,City of Edinburgh,EH12 7SF,55.94231358,-3.28270683,S02001679,S01008974
Corstorphine  Community Centre,SC046009,City of Edinburgh,EH12 7SL,55.94270028,-3.28440079,S02001679,S01008974
Scottish Turkish Cultural Association,SC041657,City of Edinburgh,EH11 2LZ,55.93920325,-3.22727433,S02001591,S01008498
Highland Educational and Cultural Trust,SC050577,City of Edinburgh,EH11 2LZ,55.93920325,-3.22727433,S02001591,S01008498
Edinburgh Youth Music Forum,SC041719,City of Edinburgh,EH6 8ST,55.96298882,-3.17368928,S02001646,S01008802
The Causey Development Trust,SC042217,City of Edinburgh,EH9 1QT,55.93783565,-3.17963614,S02001621,S01008668
The Hugh Andrew Trust,SC050273,City of Edinburgh,EH9 1QS,55.93855658,-3.17941791,S02001621,S01008668
Leith Theatre Trust,SC042359,City of Edinburgh,EH6 4AE,55.97528477,-3.180808,S02001641,S01008776
125A City of Edinburgh Rainbow Unit,SC048813,City of Edinburgh,EH6 4AS,55.97708424,-3.18055836,S02001641,S01008776
4th City of Edinburgh Guide Unit,SC050953,City of Edinburgh,EH6 4AS,55.97708424,-3.18055836,S02001641,S01008776
15th Edinburgh North East Scout Group,SC042465,City of Edinburgh,EH8 7JA,55.95117992,-3.14235991,S02001626,S01008697
Scottish Ahlul Bayt Society,SC042568,City of Edinburgh,EH2 1EX,55.95347823,-3.20114025,S02001656,S01008849
The Raeburn Place Foundation,SC044826,City of Edinburgh,EH2 1DF,55.95462273,-3.19617871,S02001656,S01008849
Little Steps Baby and Toddler Group,SC042639,City of Edinburgh,EH11 3EZ,55.93462561,-3.26497208,S02001587,S01008476
183 A Rainbows,SC050860,City of Edinburgh,EH11 3DE,55.93414323,-3.25943371,S02001587,S01008476
Friends of Stockbridge School,SC042765,City of Edinburgh,EH7 4GG,55.96695633,-3.19282639,S02001653,S01008837
Niddrie Community Church,SC042804,City of Edinburgh,EH16 4RY,55.93446352,-3.12024164,S02001628,S01008710
Boroughmuir Rugby and Community Sports Club,SC043403,City of Edinburgh,EH14 1XN,55.92663091,-3.23462302,S02001593,S01008509
Friends of Easter Craiglockhart Hill,SC049086,City of Edinburgh,EH14 1AX,55.92533801,-3.23182921,S02001593,S01008509
Edinburgh Street Pastors,SC043582,City of Edinburgh,EH8 9RR,55.94529573,-3.18128805,S02001623,S01008681
Edinburgh Social Enterprise Network Limited,SC044030,City of Edinburgh,EH8 9RR,55.94529573,-3.18128805,S02001623,S01008681
Greyfriars Charteris Centre,SC047573,City of Edinburgh,EH8 9RR,55.94529573,-3.18128805,S02001623,S01008681
19th Pentland Scout Group,SC043764,City of Edinburgh,EH11 1PR,55.9349397,-3.23131757,S02001592,S01008503
Open Book,SC043827,City of Edinburgh,EH10 5ET,55.93114874,-3.21584721,S02001616,S01008633
185th C City of Edinburgh Brownie Unit,SC043894,City of Edinburgh,EH14 1EY,55.91922971,-3.24504466,S02001593,S01008512
Raised Voices,SC043919,City of Edinburgh,EH6 6DY,55.97454515,-3.17452001,S02001643,S01008788
9th City of Edinburgh Brownie Unit,SC045647,City of Edinburgh,EH6 6DU,55.9735051,-3.17522558,S02001643,S01008788
Friends of Woodlands School,SC043958,City of Edinburgh,EH14 5RD,55.89615182,-3.31866836,S02001577,S01008426
Lochend Community Growing Project,SC044024,City of Edinburgh,EH7 6DL,55.96033285,-3.15331374,S02001638,S01008756
Earth in Common,SC044220,City of Edinburgh,EH6 7EY,55.9735171,-3.16639687,S02001642,S01008782
Holy Spirit Ministries,SC047202,City of Edinburgh,EH6 7BD,55.9742759,-3.16597104,S02001642,S01008782
Murrayburn Childminding Group,SC044232,City of Edinburgh,EH11 4SR,55.92459963,-3.26827824,S02001585,S01008464
Morningside Heritage Association,SC044409,City of Edinburgh,EH10 5LE,55.92270267,-3.22307204,S02001594,S01008514
1st Clermiston Senior Section Unit,SC044470,City of Edinburgh,EH8 7BY,55.95574824,-3.14292693,S02001635,S01008746
116th City Of Edinburgh Rainbow Unit,SC050702,City of Edinburgh,EH8 7BY,55.95574824,-3.14292693,S02001635,S01008746
Reforesting the Glens,SC044472,City of Edinburgh,EH4 6SE,55.96786015,-3.28178975,S02001672,S01008940
Edinburgh Forget-Me-Not Garden,SC045756,City of Edinburgh,EH4 6AD,55.96775385,-3.27731621,S02001672,S01008940
185th A City of Edinburgh Rainbow Unit,SC044515,City of Edinburgh,EH11 4AN,55.92296217,-3.28494798,S02001585,S01008466
185th Brownies A Guides,SC050865,City of Edinburgh,EH11 4AN,55.92296217,-3.28494798,S02001585,S01008466
Stockbridge Senior Section Unit,SC044618,City of Edinburgh,EH14 2AF,55.92736215,-3.26439928,S02001588,S01008481
Street Church Edinburgh,SC044631,City of Edinburgh,EH15 3RT,55.93947516,-3.11355025,S02001630,S01008718
Friends of Roseburn Park (SCIO),SC044659,City of Edinburgh,EH12 6AL,55.94617514,-3.23365974,S02001660,S01008873
Eagle's Flight International Gospel Centre,SC044667,City of Edinburgh,EH14 3JL,55.91432869,-3.28047044,S02001582,S01008453
Chalmers Church Edinburgh,SC044674,City of Edinburgh,EH10 4AZ,55.93172142,-3.20970263,S02001616,S01008636
Warriston Community Tennis Club,SC044729,City of Edinburgh,EH3 5LB,55.9647347,-3.19953456,S02001653,S01008838
Stoa School,SC045381,City of Edinburgh,EH7 4HE,55.96472972,-3.19727556,S02001653,S01008838
Edinburgh Iranian Festival,SC044795,City of Edinburgh,EH17 8DY,55.90029146,-3.16197484,S02001602,S01008553
Dr Elsie Inglis Scottish Women's Hospitals' Trust,SC045161,City of Edinburgh,EH9 1JX,55.93940779,-3.19087469,S02001613,S01008615
Friends of The Meadows and Bruntsfield Links,SC045955,City of Edinburgh,EH9 1JD,55.93865029,-3.19301271,S02001613,S01008615
Edinburgh Tool Library,SC045162,City of Edinburgh,EH7 4QB,55.96397379,-3.17969449,S02001648,S01008813
The Eddie Miller Eastbank Foundation SCIO,SC045222,City of Edinburgh,EH10 4EA,55.93575195,-3.20827547,S02001617,S01008641
Cougars Rugby Community Trust,SC045262,City of Edinburgh,EH12 7EE,55.9358031,-3.27365499,S02001680,S01008980
West Pilton Neighbourhood Centre (SCIO),SC045455,City of Edinburgh,EH4 4BY,55.97017911,-3.24402118,S02001666,S01008906
121st City of Edinburgh Rainbow Unit,SC045514,City of Edinburgh,EH16 6QD,55.90475199,-3.16158039,S02001602,S01008556
Leith Community Archers,SC045559,City of Edinburgh,EH7 6QT,55.96200579,-3.13377238,S02001636,S01008749
Love Po,SC049472,City of Edinburgh,EH7 6TL,55.95913942,-3.12593599,S02001636,S01008749
Leith Rugby Limited,SC050085,City of Edinburgh,EH7 6TN,55.95877659,-3.12630988,S02001636,S01008749
Balerno Community Centre Organisation,SC045625,City of Edinburgh,EH14 7NL,55.88523236,-3.34128828,S02001576,S01008422
Currie Community Centre ,SC048211,City of Edinburgh,EH14 7BH,55.88135773,-3.3455668,S02001576,S01008422
Sighthill Cheeky Monkey's Toddler Group,SC045650,City of Edinburgh,EH11 4QE,55.91954847,-3.28486702,S02001585,S01008467
185th C City of Edinburgh Rainbow Unit,SC045698,City of Edinburgh,EH11 4RS,55.92270983,-3.27637802,S02001585,S01008465
Alba New Music,SC045794,City of Edinburgh,EH5 1FF,55.97737434,-3.25133546,S02001670,S01008927
Blackhall Senior Section Unit,SC046086,City of Edinburgh,EH4 2RX,55.96383229,-3.24343302,S02001665,S01008902
The Glencruitten Cathedral of Trees (SCIO),SC046311,City of Edinburgh,EH1 3JX,55.95757081,-3.1877325,S02001622,S01008676
Annandale Mosque and Community Centre,SC050270,City of Edinburgh,EH1 3RJ,55.9580618,-3.18899689,S02001622,S01008676
Foxcovert Primary School (ND) Parent Council,SC046337,City of Edinburgh,EH12 8PG,55.95168769,-3.28077475,S02001678,S01008969
The One o'Clock Gun Association ,SC046764,City of Edinburgh,EH3 8AZ,55.94454536,-3.21228009,S02001619,S01008658
The Ross Development Trust,SC046873,City of Edinburgh,EH12 5HD,55.94576338,-3.22178146,S02001660,S01008872
106th City of Edinburgh Brownie Unit,SC047888,City of Edinburgh,EH12 5LL,55.94676722,-3.22203726,S02001660,S01008872
Spiritual Organisation for Merging into the Absolute  SCIO,SC046878,City of Edinburgh,EH6 7HD,55.97388156,-3.16301078,S02001642,S01008781
The Cheyne Gang,SC047259,City of Edinburgh,EH4 5DU,55.96469654,-3.26446331,S02001672,S01008936
Street Assist (SCIO),SC047327,City of Edinburgh,EH17 8RQ,55.90556315,-3.13238061,S02001604,S01008564
Edinburgh Vineyard Church SCIO ,SC047480,City of Edinburgh,EH10 5NN,55.92217716,-3.21988696,S02001594,S01008515
Edinburgh Lone Fathers,SC047603,City of Edinburgh,EH17 7RL,55.91647361,-3.13897077,S02001605,S01008569
Tap Into IT Where You Are Ltd,SC047766,City of Edinburgh,EH11 1JX,55.93763307,-3.21889998,S02001618,S01008645
The Restoration Royal Mega Church - King's Palace Edinburgh ,SC047880,City of Edinburgh,EH29 9DP,55.95227007,-3.40696288,S02001684,S01008998
Dementia Friendly Pentlands,SC048360,City of Edinburgh,EH14 7LU,55.87754905,-3.34791263,S02001576,S01008417
Blackhall Children's Sports Committee,SC048367,City of Edinburgh,EH4 7BE,55.96170177,-3.26995628,S02001664,S01008897
St Bride's Community Group,SC048398,City of Edinburgh,EH11 2DZ,55.9426578,-3.22053086,S02001619,S01008654
Soul Food Edinburgh,SC048599,City of Edinburgh,EH7 5QE,55.96072197,-3.17112178,S02001645,S01008801
198th City of Edinburgh Brownie Unit,SC048705,City of Edinburgh,EH14 1SZ,55.92956662,-3.25267483,S02001589,S01008486
Girotondo Italian School ,SC049175,City of Edinburgh,EH3 6RE,55.95835533,-3.2022684,S02001657,S01008855
Oxenfoord International SCIO,SC049216,City of Edinburgh,EH7 4DU,55.96133465,-3.19342232,S02001653,S01008839
134th A City of Edinburgh Brownie Unit,SC049239,City of Edinburgh,EH13 9LL,55.90536459,-3.2190391,S02001597,S01008532
The Pentland Community Education Centre (SCIO),SC049029,City of Edinburgh,EH13 9LS,55.90502896,-3.22117198,S02001597,S01008532
Building Bridges SCIO,SC049383,City of Edinburgh,EH6 6LR,55.98452508,-3.19259799,S02001640,S01008771
Bruntsfield Evangelical Church SCIO,SC049393,City of Edinburgh,EH10 4JU,55.93795077,-3.206711,S02001617,S01008640
Conscious Edinburgh,SC049488,City of Edinburgh,EH8 9PF,55.94070859,-3.17801039,S02001611,S01008603
International Teaching Artists Collaborative (ITAC),SC049573,City of Edinburgh,EH7 5AP,55.95774392,-3.17152837,S02001625,S01008689
The Listening Service Edinburgh ( SCIO),SC049587,City of Edinburgh,EH12 5HA,55.94463362,-3.22515642,S02001660,S01008874
Theiya Arts,SC049652,City of Edinburgh,EH11 1DZ,55.93898406,-3.22220837,S02001618,S01008648
Pentlands Men's Shed,SC049747,City of Edinburgh,EH14 5PN,55.90003196,-3.31209865,S02001577,S01008425
3 Good Deeds,SC049936,City of Edinburgh,EH14 5PJ,55.89899784,-3.31385498,S02001577,S01008425
The Raymond Fernie Foundation,SC049825,City of Edinburgh,EH10 5GB,55.91644506,-3.22975508,S02001595,S01008523
Edinburgh Korean Grace Church (SCIO),SC049843,City of Edinburgh,EH6 5FB,55.96585735,-3.18566341,S02001654,S01008842
Redeemed Christian Church of God Tabernacle of Grace Musselburgh,SC049856,City of Edinburgh,EH29 9DQ,55.95464629,-3.40740146,S02001684,S01008999
Hope Church Bingham,SC050500,City of Edinburgh,EH15 3LR,55.94086838,-3.11746469,S02001633,S01008736
186th City of Edinburgh Rainbow Unit,SC050581,City of Edinburgh,EH3 5BF,55.95915384,-3.20423132,S02001658,S01008859
38th Brownie City of Edinburgh,SC050671,City of Edinburgh,EH16 5TD,55.92090476,-3.15235037,S02001608,S01008584
38th Rainbow City of Edinburgh,SC050672,City of Edinburgh,EH16 5TD,55.92090476,-3.15235037,S02001608,S01008584
116th City of Edinburgh Brownies,SC051275,City of Edinburgh,EH7 6TF,55.95729252,-3.12450491,S02001636,S01008747
Our Future Edinburgh,SC051287,City of Edinburgh,EH17 8TH,55.90543332,-3.12890579,S02001600,S01008549
Adam Mickiewicz Polish Cultural & Educational Association in Edinburgh SCIO,SC051301,City of Edinburgh,EH16 4FN,55.93407337,-3.12460039,S02001628,S01008706
