Name,Charity Number,Local authority,Postcode,Latitude,Longitude,IntermediateZone2011Code,DataZone2011Code
Eccles and Leitholm Parish Church (Church of Scotland),SC000031,Scottish Borders,TD12 4NE,55.64434067,-2.33454289,S02002308,S01012324
Coldstream Health Centre Trust Fund,SC000308,Scottish Borders,TD12 4LQ,55.64757586,-2.26445134,S02002308,S01012324
Coldstream Gateway Association,SC034135,Scottish Borders,TD12 4HZ,55.67637888,-2.29738576,S02002308,S01012324
Birgham Community Development Trust,SC037236,Scottish Borders,TD12 4NF,55.64504162,-2.33119646,S02002308,S01012324
Coldstream Men's Shed,SC047122,Scottish Borders,TD12 4NH,55.64524288,-2.35866904,S02002308,S01012324
Seashells Nursery,SC000144,Scottish Borders,TD14 5DE,55.8712585,-2.09073016,S02002306,S01012315
League Of Friends Of Eyemouth Health Centre,SC000607,Scottish Borders,TD14 5DH,55.87103464,-2.08969092,S02002306,S01012315
Eyemouth United Congregational Church,SC006669,Scottish Borders,TD14 5DB,55.87023417,-2.09080766,S02002306,S01012315
Eyemouth Museum Trust Ltd,SC012548,Scottish Borders,TD14 5JE,55.87143969,-2.08868509,S02002306,S01012315
St Abbs & Eyemouth Voluntary Marine Reserve Committee,SC018593,Scottish Borders,TD14 5HT,55.87227616,-2.08747246,S02002306,S01012315
Eyemouth Hospital Comforts Association,SC028371,Scottish Borders,TD14 5JF,55.87148437,-2.08902078,S02002306,S01012315
Coldingham Sands Community Company,SC040172,Scottish Borders,TD14 5HP,55.87258972,-2.08873566,S02002306,S01012315
125 Memorial Association,SC045042,Scottish Borders,TD14 5BG,55.87328531,-2.09568907,S02002306,S01012315
Chirnside Amateur Boxing Club,SC045279,Scottish Borders,TD14 5JF,55.87148437,-2.08902078,S02002306,S01012315
Eyemouth and District Community Trust,SC045880,Scottish Borders,TD14 5DE,55.8712585,-2.09073016,S02002306,S01012315
Eyemouth Men's Shed,SC048035,Scottish Borders,TD14 5ET,55.87428437,-2.09343813,S02002306,S01012315
Re- Tweed,SC048284,Scottish Borders,TD14 5EU,55.87304639,-2.09086219,S02002306,S01012315
 Berwickshire Marine Reserve (SCIO),SC050016,Scottish Borders,TD14 5HT,55.87227616,-2.08747246,S02002306,S01012315
Eyemouth Hippodrome SCIO,SC050386,Scottish Borders,TD14 5HT,55.87227616,-2.08747246,S02002306,S01012315
Peebles Congregation Of Jehovahs Witnesses,SC000152,Scottish Borders,EH45 8AX,55.65140247,-3.18767768,S02002293,S01012255
Peebles and District Citizens Advice Bureau,SC004900,Scottish Borders,EH45 8AG,55.65170457,-3.1889582,S02002293,S01012255
Eastgate Theatre (Peebles) Limited,SC024713,Scottish Borders,EH45 8AD,55.65218669,-3.18835301,S02002293,S01012255
Tweeddale University of the Third Age,SC037086,Scottish Borders,EH45 8BQ,55.65116779,-3.17753159,S02002293,S01012255
Peebles Rugby and Community Sports Club SCIO,SC048220,Scottish Borders,EH45 8AD,55.65218669,-3.18835301,S02002293,S01012255
Miss Frances Sprot Fund,SC000218,Scottish Borders,TD6 9JP,55.51245707,-2.76715754,S02002320,S01012376
St Johns Episcopal Church: Selkirk,SC002969,Scottish Borders,TD7 4PU,55.54924395,-2.82127282,S02002320,S01012376
Currie Memorial Hall Lilliesleaf,SC010554,Scottish Borders,TD6 9HX,55.51761984,-2.74006547,S02002320,S01012376
Ashkirk Parish Church of Scotland,SC010768,Scottish Borders,TD7 4NY,55.49062355,-2.84728978,S02002320,S01012376
Stable Life,SC011786,Scottish Borders,TD7 4NT,55.49874395,-2.84638775,S02002320,S01012376
Ashkirk Village Hall SCIO,SC046476,Scottish Borders,TD7 4NY,55.49062355,-2.84728978,S02002320,S01012376
Midlem Village Hall SCIO,SC048199,Scottish Borders,TD7 4QB,55.5386425,-2.75101364,S02002320,S01012376
Lilliesleaf Community Development LTD,SC049771,Scottish Borders,TD6 9HX,55.51761984,-2.74006547,S02002320,S01012376
Melrose Music Festival,SC049870,Scottish Borders,TD7 4QL,55.52715974,-2.74940076,S02002320,S01012376
Harris Trust,SC050803,Scottish Borders,TD6 9JD,55.51791183,-2.73783789,S02002320,S01012376
Stow St Mary Of Wedale & Heriot Church of Scotland,SC000228,Scottish Borders,TD1 2RD,55.69435706,-2.86371949,S02002296,S01012272
Stow & District Pensioners Society,SC021316,Scottish Borders,TD1 2RH,55.6979212,-2.86543686,S02002296,S01012272
Stow Parish Trust,SC027344,Scottish Borders,TD1 2SF,55.69046668,-2.85983188,S02002296,S01012272
Stow Community Park,SC046308,Scottish Borders,TD1 2SE,55.69517363,-2.86515341,S02002296,S01012272
Lizars & Wilson Trust,SC000237,Scottish Borders,TD8 6UX,55.51356446,-2.5937643,S02002312,S01012342
Jedburgh Old And Trinity Parish Church Of Scotland,SC004530,Scottish Borders,TD8 6SU,55.48763967,-2.60323314,S02002312,S01012342
2nd Jedburgh Brownie Unit,SC032684,Scottish Borders,TD8 6XR,55.51220578,-2.58856583,S02002312,S01012342
Ancrum Public Hall,SC035485,Scottish Borders,TD8 6XH,55.51392151,-2.59053922,S02002312,S01012342
Lanton Village Hall,SC037483,Scottish Borders,TD8 6SX,55.48907377,-2.6003115,S02002312,S01012342
Scottish Borders LGBT Equality,SC044539,Scottish Borders,TD8 6UL,55.49762381,-2.62274474,S02002312,S01012342
Newstead Village Hall Committee,SC000808,Scottish Borders,TD6 9DA,55.60027885,-2.69229594,S02002301,S01012290
Borders Health Board Endowment Funds,SC008225,Scottish Borders,TD6 9DA,55.60027885,-2.69229594,S02002301,S01012290
Galashiels Congregation Of Jehovahs Witnesses,SC011700,Scottish Borders,TD6 9RQ,55.5986653,-2.70110699,S02002301,S01012290
Trustees For Denholm Public Hall,SC000882,Scottish Borders,TD9 8NX,55.45767302,-2.68827678,S02002315,S01012356
Denholm Pre School Playgroup,SC002120,Scottish Borders,TD9 8LZ,55.45791122,-2.68586151,S02002315,S01012356
1st Denholm Brownie Unit,SC037039,Scottish Borders,TD9 8NQ,55.45815803,-2.68189665,S02002315,S01012356
Denholm Feuars' and Householders' Council,SC042692,Scottish Borders,TD9 8NG,55.45878916,-2.68312519,S02002315,S01012356
Denholm Village Hall,SC047889,Scottish Borders,TD9 8NX,55.45767302,-2.68827678,S02002315,S01012356
Kelso Country Churches (Church of Scotland),SC000958,Scottish Borders,TD5 7BL,55.59659225,-2.42723762,S02002309,S01012333
Linton Kirk Heritage Appeal,SC007952,Scottish Borders,TD5 8AA,55.55240457,-2.39155303,S02002309,S01012333
Border Union Agricultural Society,SC016869,Scottish Borders,TD5 8LS,55.58995305,-2.44956828,S02002309,S01012333
1st Kelso Rainbow Unit,SC031700,Scottish Borders,TD5 8HQ,55.59318316,-2.38780203,S02002309,S01012333
1st Kelso Guides,SC032040,Scottish Borders,TD5 8HQ,55.59318316,-2.38780203,S02002309,S01012333
Sprouston Village Hall,SC037663,Scottish Borders,TD5 8HN,55.60836827,-2.39066632,S02002309,S01012333
Kelso Heartbeat,SC045372,Scottish Borders,TD5 7SZ,55.63177165,-2.43943745,S02002309,S01012333
"Holy Trinity Church, Melrose",SC000966,Scottish Borders,TD6 0AE,55.56998001,-2.64786717,S02002313,S01012348
Borders Disability Sport,SC033264,Scottish Borders,TD6 0EP,55.56752427,-2.64497244,S02002313,S01012348
Hawick Acorn Project Initiative SCIO,SC044641,Scottish Borders,TD6 0EP,55.56752427,-2.64497244,S02002313,S01012348
St Boswells Village Hall,SC048481,Scottish Borders,TD6 0AL,55.5703761,-2.64432143,S02002313,S01012348
Survivors Unite,SC048563,Scottish Borders,TD6 0EP,55.56752427,-2.64497244,S02002313,S01012348
Central Borders Citizens Advice Bureau,SC000983,Scottish Borders,TD1 1RZ,55.61806562,-2.81170814,S02002297,S01012275
Gray-Sanderson Trust,SC014930,Scottish Borders,TD1 1BY,55.61777518,-2.80670067,S02002297,S01012275
William Wallace Trust,SC019326,Scottish Borders,TD1 1BW,55.61795508,-2.80667261,S02002297,S01012275
Eildon West Youth Hub,SC022005,Scottish Borders,TD1 1BW,55.61795508,-2.80667261,S02002297,S01012275
Borders Independent Advocacy Service,SC024967,Scottish Borders,TD1 1RT,55.62043296,-2.81243986,S02002297,S01012275
Princess Royal Trust Borders Carers Centre (SCIO),SC028087,Scottish Borders,TD1 1RT,55.62043296,-2.81243986,S02002297,S01012275
Scottish Borders Elder Voice (SCIO),SC031376,Scottish Borders,TD1 1RT,55.62043296,-2.81243986,S02002297,S01012275
Friends Of Central Borders Citizens Advice Bureau,SC034708,Scottish Borders,TD1 1RZ,55.61806562,-2.81170814,S02002297,S01012275
Scottish Borders Community Development Company,SC037646,Scottish Borders,TD1 1NY,55.61906524,-2.81272913,S02002297,S01012275
Brothers of Charity Services (Scotland),SC037943,Scottish Borders,TD1 1SW,55.61830772,-2.81042704,S02002297,S01012275
The Haining Charitable Trust,SC041505,Scottish Borders,TD1 1SQ,55.61850627,-2.81165374,S02002297,S01012275
The Borders Citizens Advice Consortium,SC043253,Scottish Borders,TD1 1RZ,55.61806562,-2.81170814,S02002297,S01012275
Duncan Mackinnon Music and Arts Trust,SC043299,Scottish Borders,TD1 1SP,55.61863273,-2.81019557,S02002297,S01012275
Borders Care Voice,SC043731,Scottish Borders,TD1 1SW,55.61830772,-2.81042704,S02002297,S01012275
Peeblesshire Federation Of Village & Community Halls.,SC001019,Scottish Borders,EH45 8AL,55.65142163,-3.18941049,S02002293,S01012253
Peebles Old Parish Church Of Scotland,SC013316,Scottish Borders,EH45 8SW,55.65164321,-3.19157852,S02002293,S01012253
Peebles Players,SC019933,Scottish Borders,EH45 8LF,55.65301601,-3.19456036,S02002293,S01012253
Tweeddale Youth Action SCIO,SC036135,Scottish Borders,EH45 8AL,55.65142163,-3.18941049,S02002293,S01012253
Kingsmeadow Social Enterprise Ltd,SC038453,Scottish Borders,EH45 8AL,55.65142163,-3.18941049,S02002293,S01012253
Peebles Community Trust,SC050520,Scottish Borders,EH45 8AT,55.65110398,-3.18973458,S02002293,S01012253
"Innerleithen, Traquair & Walkerburn Parish Church Of Scotland",SC001100,Scottish Borders,EH44 6RH,55.61694069,-3.06135901,S02002295,S01012266
Innerleithen Playgroup,SC016190,Scottish Borders,EH44 6JJ,55.61728264,-3.05922474,S02002295,S01012266
Innerleithen Community Trust,SC038822,Scottish Borders,EH44 6JX,55.61702113,-3.05724884,S02002295,S01012266
Gavinton Village Hall (Community Fund),SC001162,Scottish Borders,TD11 3QS,55.76208169,-2.36925527,S02002303,S01012303
Westruther Public Hall,SC005313,Scottish Borders,TD3 6NF,55.73366454,-2.60428437,S02002303,S01012303
Blainslie Under-Fives Playgroup,SC006279,Scottish Borders,TD3 6NA,55.73445126,-2.5809031,S02002303,S01012303
Channelkirk and Lauder Church of Scotland,SC009892,Scottish Borders,TD2 6SQ,55.71941401,-2.65000543,S02002303,S01012303
Friends Of The Knoll,SC032287,Scottish Borders,TD11 3QS,55.76208169,-2.36925527,S02002303,S01012303
Merse Pipers' Society,SC037230,Scottish Borders,TD11 3QT,55.76261872,-2.3699456,S02002303,S01012303
The Three Brethren University of the Third Age,SC039266,Scottish Borders,TD3 6NF,55.73366454,-2.60428437,S02002303,S01012303
1st Duns Brownies,SC040253,Scottish Borders,TD11 3QL,55.77091952,-2.36742615,S02002303,S01012303
The Learning Space,SC046856,Scottish Borders,TD11 3QT,55.76261872,-2.3699456,S02002303,S01012303
Ayton and District Churches (Church of Scotland),SC001208,Scottish Borders,TD14 5LN,55.84821274,-2.22373001,S02002305,S01012312
Grantshouse Village Hall Committee,SC029381,Scottish Borders,TD11 3RW,55.88224002,-2.30642413,S02002305,S01012312
Reston Village Hall Committee,SC029434,Scottish Borders,TD14 5JX,55.85176343,-2.20202798,S02002305,S01012312
Berwickshire Swap (SCIO),SC050223,Scottish Borders,TD14 5JR,55.85199999,-2.19463395,S02002305,S01012312
Reston Village Hall SCIO,SC050374,Scottish Borders,TD14 5JX,55.85176343,-2.20202798,S02002305,S01012312
Coldstream and District Parishes (Church of Scotland),SC001456,Scottish Borders,TD11 3JH,55.71963462,-2.26554346,S02002303,S01012301
Fogo Nursery School Trust,SC020759,Scottish Borders,TD11 3RA,55.7358141,-2.35542296,S02002303,S01012301
1st Duns Rainbows,SC037238,Scottish Borders,TD12 4JL,55.69043933,-2.33619336,S02002303,S01012301
Admiral Ramsay Museum (SCIO),SC048730,Scottish Borders,TD12 4JR,55.70000563,-2.31353943,S02002303,S01012301
Borders Animal Welfare Association,SC001583,Scottish Borders,TD4 6DJ,55.63436671,-2.68322363,S02002296,S01012268
Smailholm Village Hall Committee,SC029318,Scottish Borders,TD3 6LG,55.64490799,-2.56068514,S02002296,S01012268
Earlston Catchment Voluntary Youth Work Services SCIO,SC043632,Scottish Borders,TD4 6JP,55.63878954,-2.66155272,S02002296,S01012268
Redpath Village Hall Association ,SC047025,Scottish Borders,TD4 6AD,55.61346458,-2.66395197,S02002296,S01012268
Eileen Scott's Charitable Foundation,SC047697,Scottish Borders,TD6 9BN,55.60983178,-2.75158032,S02002296,S01012268
Stobo and Drumelzier Church of Scotland,SC001866,Scottish Borders,EH45 8NU,55.62586971,-3.29715608,S02002292,S01012250
Trustees Of Stobo Village Hall,SC007144,Scottish Borders,EH45 8NP,55.64748279,-3.26079799,S02002292,S01012250
Lyne and Manor Church of Scotland,SC021456,Scottish Borders,EH45 9JN,55.61003157,-3.24826078,S02002292,S01012250
Peebles Scout Group,SC035303,Scottish Borders,EH45 8NB,55.64519396,-3.13831213,S02002292,S01012250
P.H.D FUNdamentals,SC050447,Scottish Borders,EH45 8LS,55.6621003,-3.20013058,S02002292,S01012250
Kingsland Primary School Parent Council,SC050455,Scottish Borders,EH45 8NN,55.65356805,-3.2042718,S02002292,S01012250
Hutton Village Hall Trust,SC002095,Scottish Borders,TD15 1TS,55.77800107,-2.1487654,S02002307,S01012322
"Hutton, Fishwick and Paxton Church of Scotland",SC002216,Scottish Borders,TD15 1XG,55.76626726,-2.16244273,S02002307,S01012322
Royal Scottish Country Dance Society Duns & District Branch,SC005726,Scottish Borders,TD15 1TS,55.77800107,-2.1487654,S02002307,S01012322
Whitsome Village Hall SCIO,SC010128,Scottish Borders,TD11 3NG,55.7464692,-2.22720868,S02002307,S01012322
Allanton Village Hall Committee,SC026107,Scottish Borders,TD11 3JZ,55.78193637,-2.21547336,S02002307,S01012322
1st Duns Guides,SC032775,Scottish Borders,TD11 3LZ,55.77525193,-2.19927217,S02002307,S01012322
Paxton Village Green Trust,SC032970,Scottish Borders,TD15 1TE,55.77065095,-2.10584501,S02002307,S01012322
Allanton Village Hall,SC048558,Scottish Borders,TD11 3JZ,55.78193637,-2.21547336,S02002307,S01012322
1st Chirnside Rainbow Unit,SC048946,Scottish Borders,TD11 3JY,55.78162873,-2.21669933,S02002307,S01012322
Forman Memorial Hall,SC002323,Scottish Borders,TD9 7LS,55.43055246,-2.89042327,S02002315,S01012355
Hawick Baptist Church,SC003568,Scottish Borders,TD9 9TZ,55.32860951,-2.73612812,S02002315,S01012355
Elliott:Sir Arthur Elliott Memorial Trust,SC017755,Scottish Borders,TD9 0SB,55.20753394,-2.79036735,S02002315,S01012355
Cogsmill Hall Committee,SC028440,Scottish Borders,TD9 9UQ,55.38862541,-2.77973802,S02002315,S01012355
2nd Hawick Boys Brigade,SC034717,Scottish Borders,TD9 9UQ,55.38862541,-2.77973802,S02002315,S01012355
Borthwick Water Community Development Trust,SC038428,Scottish Borders,TD9 7LX,55.41936788,-2.90107223,S02002315,S01012355
Hawick Community Cafe,SC044559,Scottish Borders,TD9 9TZ,55.32860951,-2.73612812,S02002315,S01012355
Hermitage Hall,SC044887,Scottish Borders,TD9 0LX,55.2486057,-2.77696233,S02002315,S01012355
The United Borderlands Historic Trust,SC049536,Scottish Borders,TD9 0LF,55.34614051,-2.92282531,S02002315,S01012355
Rosetta Early Learners,SC002369,Scottish Borders,EH45 8HQ,55.65715634,-3.19754745,S02002293,S01012251
Church of Scotland St Andrews Leckie Parish: Peebles,SC009159,Scottish Borders,EH45 8HN,55.65669891,-3.20021958,S02002293,S01012251
Peebles Orchestra,SC035970,Scottish Borders,EH45 8HQ,55.65715634,-3.19754745,S02002293,S01012251
Fogo Parish Church (Church of Scotland),SC002789,Scottish Borders,TD11 3HU,55.74737824,-2.3261855,S02002307,S01012319
Preston & District Reading & Recreation Room Association,SC004257,Scottish Borders,TD11 3TQ,55.80860805,-2.33411675,S02002307,S01012319
Christ Church,SC009385,Scottish Borders,TD11 3QJ,55.76814158,-2.35262523,S02002307,S01012319
Duns Pipe Band,SC030190,Scottish Borders,TD11 3LS,55.77620268,-2.3086835,S02002307,S01012319
2nd Duns Brownie Unit,SC036326,Scottish Borders,TD11 3LU,55.75019707,-2.2876403,S02002307,S01012319
A Heart for Duns,SC045056,Scottish Borders,TD11 3QJ,55.76814158,-2.35262523,S02002307,S01012319
The Fogo Parish Church Community Trust,SC049278,Scottish Borders,TD11 3HU,55.74737824,-2.3261855,S02002307,S01012319
Kelso And District Amenity Association,SC002821,Scottish Borders,TD5 7SG,55.61092884,-2.42839367,S02002310,S01012335
Cheviot Youth,SC034865,Scottish Borders,TD5 7SL,55.60872301,-2.43221102,S02002310,S01012335
Kelso Heritage Society,SC047690,Scottish Borders,TD5 7SG,55.61092884,-2.42839367,S02002310,S01012335
Kelso Baptist Church SCIO,SC050939,Scottish Borders,TD5 7NR,55.609617,-2.43095094,S02002310,S01012335
Tweeddale Rideability Group SCIO,SC002853,Scottish Borders,EH45 9EF,55.65004188,-3.20006356,S02002294,S01012259
Peeblesshire Foodbank SCIO,SC045330,Scottish Borders,EH45 9EN,55.64909794,-3.18995978,S02002294,S01012259
Tweed Reads [SCIO],SC050064,Scottish Borders,EH45 9HB,55.64617148,-3.19150767,S02002294,S01012259
Friends of Peebles High School (SCIO),SC050256,Scottish Borders,EH45 9HB,55.64617148,-3.19150767,S02002294,S01012259
Peeblesshire Charitable Trust,SC002952,Scottish Borders,EH45 9BU,55.64593412,-3.1713682,S02002294,S01012256
YMCA Peebles,SC005424,Scottish Borders,EH45 9NJ,55.64381407,-3.16847669,S02002294,S01012256
Talking Peebleshire News,SC020777,Scottish Borders,EH45 9DA,55.64316789,-3.17215948,S02002294,S01012256
Abercrombie Trust,SC032705,Scottish Borders,EH45 9DB,55.64318224,-3.17347866,S02002294,S01012256
Nomad Beat Ltd,SC042031,Scottish Borders,EH45 9BU,55.64593412,-3.1713682,S02002294,S01012256
Friends of Kailzie Wildlife,SC043171,Scottish Borders,EH45 9DB,55.64318224,-3.17347866,S02002294,S01012256
Peeblesshire Youth Trust (SCIO),SC047324,Scottish Borders,EH45 9BU,55.64593412,-3.1713682,S02002294,S01012256
Peebles and District Men's Shed,SC048226,Scottish Borders,EH45 9DB,55.64318224,-3.17347866,S02002294,S01012256
3rd Peebles Guide Unit,SC049059,Scottish Borders,EH45 9LW,55.64344418,-3.17051531,S02002294,S01012256
2nd Peebles Rainbow Unit,SC049077,Scottish Borders,EH45 9LW,55.64344418,-3.17051531,S02002294,S01012256
3rd Peebles Rainbows Unit,SC049078,Scottish Borders,EH45 9LW,55.64344418,-3.17051531,S02002294,S01012256
3rd Peebles Brownie Unit,SC049863,Scottish Borders,EH45 9LW,55.64344418,-3.17051531,S02002294,S01012256
Cheviot Churches: Church of Scotland,SC003023,Scottish Borders,TD5 8RL,55.54263405,-2.28935427,S02002309,S01012328
Melrose Music Society,SC005891,Scottish Borders,TD5 8RP,55.54358589,-2.28961483,S02002309,S01012328
Edgerston Village Hall,SC022067,Scottish Borders,TD5 8PF,55.54632064,-2.27657591,S02002309,S01012328
Yetholm Youth Hall Supporters Association,SC033830,Scottish Borders,TD5 8RZ,55.54361915,-2.28693688,S02002309,S01012328
Yetholm History Society,SC044596,Scottish Borders,TD5 8SA,55.54700145,-2.28531329,S02002309,S01012328
St Cuthberts Episcopal Church: Hawick,SC003140,Scottish Borders,TD9 9PA,55.42725373,-2.77152433,S02002317,S01012367
The Borders Green Team Enterprises,SC037374,Scottish Borders,TD9 9PS,55.43036694,-2.76801374,S02002317,S01012367
2nd Hawick Rainbow Unit,SC050072,Scottish Borders,TD9 9PJ,55.42894884,-2.77203145,S02002317,S01012367
Galashiels Fifth Ward Community Association,SC003621,Scottish Borders,TD1 2JE,55.62258015,-2.81384993,S02002297,S01012274
Dippers - Borders Disabled Swimming Group,SC017920,Scottish Borders,TD1 2BN,55.62030908,-2.80670509,S02002297,S01012274
Eildon Singers,SC032599,Scottish Borders,TD1 2BA,55.61763503,-2.80066431,S02002297,S01012274
Burgh Out Of School Club,SC032986,Scottish Borders,TD1 2BG,55.61885892,-2.8045,S02002297,S01012274
Galashiels Town Band,SC041222,Scottish Borders,TD1 2JW,55.62320378,-2.81465685,S02002297,S01012274
Earlston Parish Church of Scotland,SC003895,Scottish Borders,TD4 6BJ,55.64082146,-2.68103243,S02002296,S01012269
Earlston Parish Scout Group,SC031736,Scottish Borders,TD4 6BJ,55.64082146,-2.68103243,S02002296,S01012269
1st Earlston Brownies,SC032704,Scottish Borders,TD4 6DT,55.63883093,-2.67864675,S02002296,S01012269
1st Earlston Rainbow Unit,SC038610,Scottish Borders,TD4 6DT,55.63883093,-2.67864675,S02002296,S01012269
Borders Ice Rink Trust,SC049299,Scottish Borders,TD4 6BJ,55.64082146,-2.68103243,S02002296,S01012269
St Andrews Parish Church Of Scotland: West Linton,SC003938,Scottish Borders,EH46 7DP,55.74593701,-3.35571645,S02002292,S01012245
West Linton Early Learners,SC012258,Scottish Borders,EH46 7EN,55.74804492,-3.35606041,S02002292,S01012245
Alice Hamilton's Trust,SC018803,Scottish Borders,EH46 7HW,55.75521612,-3.36575846,S02002292,S01012245
SocialiZe,SC021830,Scottish Borders,EH46 7EN,55.74804492,-3.35606041,S02002292,S01012245
1st West Linton Brownies,SC031112,Scottish Borders,EH46 7ES,55.74723379,-3.35383375,S02002292,S01012245
2nd West Linton Brownies,SC032959,Scottish Borders,EH46 7HG,55.75103858,-3.3600041,S02002292,S01012245
1st West Linton Guide Company,SC034949,Scottish Borders,EH46 7EE,55.75147535,-3.35544653,S02002292,S01012245
2nd West Linton Rainbow Unit,SC038481,Scottish Borders,EH46 7EE,55.75147535,-3.35544653,S02002292,S01012245
West Linton & District Pipe Band Association,SC039590,Scottish Borders,EH46 7ES,55.74723379,-3.35383375,S02002292,S01012245
2nd West Linton Guide Unit,SC040166,Scottish Borders,EH46 7EN,55.74804492,-3.35606041,S02002292,S01012245
Upper Tweeddale Senior Guide Section,SC040725,Scottish Borders,EH46 7DW,55.74843636,-3.35315848,S02002292,S01012245
InChorus,SC041669,Scottish Borders,EH46 7HW,55.75521612,-3.36575846,S02002292,S01012245
West Linton Community First Responders,SC042265,Scottish Borders,EH46 7EN,55.74804492,-3.35606041,S02002292,S01012245
West Linton Village Centre Trust ,SC048916,Scottish Borders,EH46 7ED,55.75221933,-3.35642834,S02002292,S01012245
Girlguiding Peebles District,SC049079,Scottish Borders,EH46 7EE,55.75147535,-3.35544653,S02002292,S01012245
Sustainable West Linton and District,SC050224,Scottish Borders,EH46 7ED,55.75221933,-3.35642834,S02002292,S01012245
Berwickshire Civic Society,SC004171,Scottish Borders,TD11 3DL,55.77773365,-2.34131326,S02002304,S01012305
Sunrise Nursery,SC009427,Scottish Borders,TD11 3EL,55.77261185,-2.34142787,S02002304,S01012305
Berwickshire Restoration Company Limited,SC034540,Scottish Borders,TD11 3EJ,55.77363966,-2.34016162,S02002304,S01012305
The Jim Clark Trust,SC046092,Scottish Borders,TD11 3HS,55.77035118,-2.33688137,S02002304,S01012305
Duns and District Men's Shed,SC047554,Scottish Borders,TD11 3HN,55.77294583,-2.33762108,S02002304,S01012305
Hawick Congregational Community Church,SC004211,Scottish Borders,TD9 7BY,55.4329415,-2.78427798,S02002319,S01012373
Wilton Parish Church of Scotland,SC017381,Scottish Borders,TD9 7BA,55.42966444,-2.78664651,S02002319,S01012373
4th Hawick Brownies & 2nd Hawick Rainbows,SC032579,Scottish Borders,TD9 7EP,55.42862441,-2.79185617,S02002319,S01012373
2nd Jedburgh Rainbow Unit,SC032718,Scottish Borders,TD9 7JS,55.43218979,-2.78519545,S02002319,S01012373
Roxburgh Singers,SC034722,Scottish Borders,TD9 8BA,55.43065669,-2.78325291,S02002319,S01012373
Artbeat Studios,SC035119,Scottish Borders,TD9 7BB,55.43003149,-2.78685924,S02002319,S01012373
Escape Youth Services,SC035939,Scottish Borders,TD9 7BB,55.43003149,-2.78685924,S02002319,S01012373
A Greener Hawick,SC043634,Scottish Borders,TD9 8BH,55.43066215,-2.78660314,S02002319,S01012373
Hawick Community Pump Track,SC046088,Scottish Borders,TD9 7ET,55.42904741,-2.79036346,S02002319,S01012373
Cheeky Monkeys,SC046793,Scottish Borders,TD9 7EN,55.4296264,-2.78836817,S02002319,S01012373
Carlops Parish Church Of Scotland,SC004340,Scottish Borders,EH26 9NJ,55.7893102,-3.32457663,S02002292,S01012244
Carlops Village Hall,SC006176,Scottish Borders,EH46 7AS,55.77614742,-3.3541188,S02002292,S01012244
Newlands & Kirkurd Womens Guild Playgroup,SC015474,Scottish Borders,EH46 7BZ,55.71862775,-3.33776789,S02002292,S01012244
Kirkurd & Newlands Parish Church Of Scotland,SC018087,Scottish Borders,EH46 7BY,55.72332292,-3.3282482,S02002292,S01012244
North Tweeddale Paths,SC030945,Scottish Borders,EH26 9NG,55.79119999,-3.33511936,S02002292,S01012244
West Linton Toddler Group,SC037935,Scottish Borders,EH46 7HL,55.78046048,-3.39352466,S02002292,S01012244
Newlands Community Development Trust,SC039447,Scottish Borders,EH46 7BZ,55.71862775,-3.33776789,S02002292,S01012244
Carlops Village Centre (SCIO),SC051083,Scottish Borders,EH26 9NF,55.79029113,-3.34019188,S02002292,S01012244
Hawick Burnfoot Church of Scotland,SC004517,Scottish Borders,TD9 0HZ,55.41961318,-2.79300284,S02002318,S01012371
Teviothead Village Hall Committee,SC022768,Scottish Borders,TD9 0AS,55.42015004,-2.79058067,S02002318,S01012371
1st Jedburgh Girl Guides,SC031081,Scottish Borders,TD9 0HT,55.41992726,-2.79168209,S02002318,S01012371
1st Jedburgh Rainbow Unit,SC032764,Scottish Borders,TD9 0HT,55.41992726,-2.79168209,S02002318,S01012371
Small Wheels Association (Hawick),SC036213,Scottish Borders,TD9 0BW,55.41811021,-2.79750659,S02002318,S01012371
Girlguiding Hawick and Jedburgh District,SC038096,Scottish Borders,TD9 0HT,55.41992726,-2.79168209,S02002318,S01012371
Shields Performing Arts Academy,SC043759,Scottish Borders,TD9 0BD,55.41855064,-2.79610947,S02002318,S01012371
Cavers and Kirkton Parish Church (Church of Scotland),SC004550,Scottish Borders,TD9 8LJ,55.43203036,-2.72817521,S02002315,S01012357
Teviot and Roberton Church of Scotland,SC005191,Scottish Borders,TD9 8SX,55.43842395,-2.73489965,S02002315,S01012357
Border Group Of Riding For The Disabled (SCIO),SC009696,Scottish Borders,TD9 8SB,55.47786409,-2.6785823,S02002315,S01012357
Glen Douglas Community Hall,SC026582,Scottish Borders,TD9 8SG,55.47417536,-2.68905484,S02002315,S01012357
2nd Hawick Guides,SC032397,Scottish Borders,TD9 8LG,55.43281535,-2.74701133,S02002315,S01012357
Ruberslaw Parish Church of Scotland,SC034629,Scottish Borders,TD9 8SG,55.47417536,-2.68905484,S02002315,S01012357
Hawick Community Rugby Trust,SC043543,Scottish Borders,TD9 8PP,55.4513129,-2.77795461,S02002315,S01012357
"Legerwood Parish, Church of Scotland",SC004582,Scottish Borders,TD4 6AP,55.67934603,-2.70574642,S02002302,S01012297
Earlston Baby and Toddler Group,SC018128,Scottish Borders,TD4 6AF,55.64891347,-2.68010829,S02002302,S01012297
Blainslie Hall,SC029956,Scottish Borders,TD1 2PR,55.68511346,-2.7229321,S02002302,S01012297
Lauderdale Football Club,SC048349,Scottish Borders,TD1 2QF,55.68428155,-2.72076964,S02002302,S01012297
Skirling Church of Scotland,SC004728,Scottish Borders,ML12 6HQ,55.61044981,-3.4094916,S02002292,S01012249
Tweedsmuir Kirk Church of Scotland,SC013564,Scottish Borders,ML12 6QN,55.52092596,-3.4120384,S02002292,S01012249
Church Of Scotland Parishes Of Upper Tweeddale,SC014617,Scottish Borders,ML12 6HQ,55.61044981,-3.4094916,S02002292,S01012249
"Broughton, Glenholm and Kilbucho Church of Scotland",SC030062,Scottish Borders,ML12 6HQ,55.61044981,-3.4094916,S02002292,S01012249
1st Castlecraig Brownies,SC034233,Scottish Borders,ML12 6QP,55.50344023,-3.42738763,S02002292,S01012249
The Tweedsmuir Community Company,SC043714,Scottish Borders,ML12 6QN,55.52092596,-3.4120384,S02002292,S01012249
3rd West Linton Rainbow Unit,SC044877,Scottish Borders,ML12 6QP,55.50344023,-3.42738763,S02002292,S01012249
Broughton Village Hall,SC046665,Scottish Borders,ML12 6HQ,55.61044981,-3.4094916,S02002292,S01012249
Tweedsmuir Village Hall,SC050480,Scottish Borders,ML12 6QN,55.52092596,-3.4120384,S02002292,S01012249
Hawick Scout Group,SC005067,Scottish Borders,TD9 7QJ,55.43565246,-2.78889923,S02002319,S01012374
3rd Hawick Guide Unit,SC034077,Scottish Borders,TD9 7QB,55.43477532,-2.7883602,S02002319,S01012374
Anthony Mundell Memorial Fund,SC041457,Scottish Borders,TD9 7QG,55.43346476,-2.79370728,S02002319,S01012374
Hawick Legion Amateur Football Club,SC047783,Scottish Borders,TD9 7QE,55.43429657,-2.79291798,S02002319,S01012374
Duns and District Parishes (Church of Scotland),SC005161,Scottish Borders,TD11 3DX,55.78047514,-2.3441592,S02002304,S01012307
The Berwickshire Association For Voluntary Service,SC016309,Scottish Borders,TD11 3AU,55.77784011,-2.34820123,S02002304,S01012307
Duns Community First Responders,SC041577,Scottish Borders,TD11 3AS,55.77795194,-2.34678336,S02002304,S01012307
Berwickshire Housing Association Limited,SC042342,Scottish Borders,TD11 3AU,55.77784011,-2.34820123,S02002304,S01012307
Permanent Fund Of St Pauls Church,SC005162,Scottish Borders,TD1 3SL,55.60255372,-2.7845331,S02002299,S01012282
Trimontium Museum Trust,SC023705,Scottish Borders,TD1 3NU,55.59170106,-2.79953306,S02002299,S01012282
Borders Further Education Trust,SC044668,Scottish Borders,TD1 3HE,55.60771082,-2.78322334,S02002299,S01012282
1st Galashiels Rainbow Unit,SC047908,Scottish Borders,TD1 3ER,55.60339279,-2.78680365,S02002299,S01012282
Gala Rugby,SC048031,Scottish Borders,TD1 3HE,55.60771082,-2.78322334,S02002299,S01012282
Gala Fairydean Rovers Football Club Community Trust,SC050441,Scottish Borders,TD1 3HE,55.60771082,-2.78322334,S02002299,S01012282
Morebattle & Yetholm District Playgroup,SC005373,Scottish Borders,TD5 8QG,55.51766238,-2.36388912,S02002309,S01012329
Wauchope Hall Trustees,SC028207,Scottish Borders,TD5 8PN,55.54835159,-2.27646339,S02002309,S01012329
Morebattle Village Hall,SC046242,Scottish Borders,TD5 8QW,55.51639131,-2.36527098,S02002309,S01012329
Hownam Village Hall,SC046418,Scottish Borders,TD5 8AL,55.46662283,-2.35228379,S02002309,S01012329
Morebattle Institute,SC046435,Scottish Borders,TD5 8QW,55.51639131,-2.36527098,S02002309,S01012329
Kalewater Community Company,SC048225,Scottish Borders,TD5 8QB,55.51724107,-2.36656163,S02002309,S01012329
"St Mary's & Old Parish Church of Scotland, Hawick",SC005574,Scottish Borders,TD9 9NW,55.42711872,-2.77864796,S02002317,S01012364
Hawick Music Club,SC008473,Scottish Borders,TD9 9NW,55.42711872,-2.77864796,S02002317,S01012364
Avril's Trust,SC045091,Scottish Borders,TD9 9NP,55.42606149,-2.78098144,S02002317,S01012364
Oliver's Trust,SC049726,Scottish Borders,TD9 9PZ,55.42740464,-2.78031271,S02002317,S01012364
Ability Centre,SC005844,Scottish Borders,TD1 2AE,55.61620106,-2.80009525,S02002299,S01012285
Rotary Club Of Galashiels Trust Fund,SC014488,Scottish Borders,TD1 2AT,55.61443609,-2.79515352,S02002299,S01012285
Live Borders,SC034227,Scottish Borders,TD1 2DU,55.61554292,-2.80043113,S02002299,S01012285
Soulspan Ministries,SC042431,Scottish Borders,TD1 2UE,55.61146149,-2.79104516,S02002299,S01012285
Elizabeth Hume Trust,SC005995,Scottish Borders,TD11 3UB,55.79816286,-2.21572258,S02002307,S01012321
Chirnside Development Group,SC044581,Scottish Borders,TD11 3YG,55.80381776,-2.19772727,S02002307,S01012321
Berwickshire Bible College,SC045159,Scottish Borders,TD11 3TE,55.79891801,-2.2154875,S02002307,S01012321
Chirnside United Football Club,SC050797,Scottish Borders,TD11 3YG,55.80381776,-2.19772727,S02002307,S01012321
Highway Christian Fellowship,SC006075,Scottish Borders,TD14 5AU,55.87218768,-2.09757209,S02002306,S01012316
Borders Health Board General Practitioners Benevolent Fund,SC017117,Scottish Borders,TD14 5DD,55.87098837,-2.09151256,S02002306,S01012316
Highway Day Nursery,SC034813,Scottish Borders,TD14 5AU,55.87218768,-2.09757209,S02002306,S01012316
St Peters Episcopal Church: Galashiels,SC006210,Scottish Borders,TD1 3HS,55.61007426,-2.80263739,S02002299,S01012283
Galashiels Church of Scotland,SC010389,Scottish Borders,TD1 3JB,55.60687128,-2.79776236,S02002299,S01012283
Air Training Corps No 2180 Galashiels Squadron Non-Public Sports & Welfare Funds,SC024674,Scottish Borders,TD1 3DP,55.61207066,-2.80239242,S02002299,S01012283
Old Gala Club,SC034141,Scottish Borders,TD1 3DB,55.60835273,-2.80069735,S02002299,S01012283
St Andrews Episcopal Church: Kelso,SC006302,Scottish Borders,TD5 7BX,55.60192131,-2.43215206,S02002311,S01012338
Noah's Ark Playgroup,SC009483,Scottish Borders,TD5 7JH,55.59990715,-2.4350976,S02002311,S01012338
Kelso North and Ednam Parish Church of Scotland,SC014039,Scottish Borders,TD5 7JH,55.59990715,-2.4350976,S02002311,S01012338
Charity Begins At Home,SC031266,Scottish Borders,TD5 7DN,55.59908003,-2.43523127,S02002311,S01012338
Kelso Community Cinema,SC047776,Scottish Borders,TD5 7DX,55.59994587,-2.43684373,S02002311,S01012338
Cranshaws Recreation Hall Association,SC006380,Scottish Borders,TD11 3SR,55.88602767,-2.50623817,S02002303,S01012302
Longformacus Village Hall Improvement Committee of Management,SC011837,Scottish Borders,TD11 3PB,55.80612461,-2.49052261,S02002303,S01012302
Southview Evangelical Church,SC022106,Scottish Borders,TD11 3TT,55.81703675,-2.40004871,S02002303,S01012302
Trustees Of Abbey St Bathans Parish Village Hall,SC029212,Scottish Borders,TD11 3TX,55.85262586,-2.38899391,S02002303,S01012302
Cranshaws Ellemford & Longformacus Community Association (Celca),SC035892,Scottish Borders,TD11 3SG,55.83584294,-2.43175874,S02002303,S01012302
Black Hill Wind Farm Community Fund Ltd,SC040945,Scottish Borders,TD11 3QH,55.77283563,-2.36058991,S02002303,S01012302
Preston and Abbey Community Trust ,SC046383,Scottish Borders,TD11 3TY,55.86210571,-2.41088097,S02002303,S01012302
Longformacus Village Hall Committee of Management (LVHCM SCIO),SC049058,Scottish Borders,TD11 3PB,55.80612461,-2.49052261,S02002303,S01012302
Bowden And Melrose Church Of Scotland,SC006480,Scottish Borders,TD6 9LJ,55.60051779,-2.72251769,S02002301,S01012292
Brunton Bequest Trust,SC008464,Scottish Borders,TD6 9LJ,55.60051779,-2.72251769,S02002301,S01012292
"St Mary's School, Melrose",SC009352,Scottish Borders,TD6 9LN,55.60019461,-2.72094057,S02002301,S01012292
Fairfax Memorial Trust Newstead,SC012391,Scottish Borders,TD6 9LJ,55.60051779,-2.72251769,S02002301,S01012292
Friends Of Bowden Kirk Trust Fund,SC021873,Scottish Borders,TD6 9LJ,55.60051779,-2.72251769,S02002301,S01012292
Melrose Arts Trust,SC024276,Scottish Borders,TD6 9LD,55.59838169,-2.72057405,S02002301,S01012292
Borders Childrens Charity,SC026072,Scottish Borders,TD6 9SG,55.6006632,-2.72831315,S02002301,S01012292
"Royal Scottish Country Dance Society Roxburgh, Selkirk & Peebles Branch",SC027178,Scottish Borders,TD6 9RF,55.59625284,-2.72197909,S02002301,S01012292
Melrose Waverley Tennis Club,SC034153,Scottish Borders,TD6 9SA,55.59933844,-2.72593982,S02002301,S01012292
Borders Book Festival,SC037347,Scottish Borders,TD6 9LJ,55.60051779,-2.72251769,S02002301,S01012292
The Big Space - Melrose Ltd,SC039457,Scottish Borders,TD6 9SB,55.59851323,-2.72721003,S02002301,S01012292
PND Borders,SC041376,Scottish Borders,TD6 9SU,55.59908066,-2.73452073,S02002301,S01012292
Scottish Centre of Textiles,SC044808,Scottish Borders,TD6 9RU,55.59851423,-2.72248085,S02002301,S01012292
Liddesdale Parish Church of Scotland,SC006519,Scottish Borders,TD9 0RA,55.18135276,-2.81156706,S02002315,S01012354
Newcastleton & Area Playgroup,SC008985,Scottish Borders,TD9 0QE,55.1780525,-2.81460904,S02002315,S01012354
Newcastleton Polysport,SC028915,Scottish Borders,TD9 0TA,55.17467394,-2.81725639,S02002315,S01012354
Newcastleton Community First Responders,SC037944,Scottish Borders,TD9 0QU,55.17969597,-2.81206728,S02002315,S01012354
Friends of Newcastleton Park,SC042620,Scottish Borders,TD9 0RH,55.17952076,-2.81138849,S02002315,S01012354
Newcastleton & District Old People's Welfare Group,SC045200,Scottish Borders,TD9 0QP,55.1774497,-2.81337197,S02002315,S01012354
Newcastleton & District Community Trust,SC045988,Scottish Borders,TD9 0QR,55.17858975,-2.81355223,S02002315,S01012354
Newcastleton Village Hall,SC046436,Scottish Borders,TD9 0QD,55.17927292,-2.81351904,S02002315,S01012354
Manor Village Hall Endowment Trust,SC006628,Scottish Borders,EH45 9BF,55.6411078,-3.18735018,S02002294,S01012260
Peebleshire Twins Club,SC042988,Scottish Borders,EH45 9AY,55.6447997,-3.18655622,S02002294,S01012260
Peebles Youth Facilities Initiative (SCIO),SC043584,Scottish Borders,EH45 9BF,55.6411078,-3.18735018,S02002294,S01012260
Chirnside Church Of Scotland,SC006722,Scottish Borders,TD11 3XD,55.80153079,-2.21138638,S02002307,S01012320
Chirnside Common Good Association,SC011711,Scottish Borders,TD11 3UW,55.80019917,-2.2175842,S02002307,S01012320
Meeting of Minds,SC047048,Scottish Borders,TD11 3UG,55.80206848,-2.21220285,S02002307,S01012320
Chirnside Chasers Athletics Club,SC047310,Scottish Borders,TD11 3UQ,55.8017021,-2.21620478,S02002307,S01012320
Chirnside Common Good Association (SCIO),SC051238,Scottish Borders,TD11 3UW,55.80019917,-2.2175842,S02002307,S01012320
Teviothead Parish Church of Scotland,SC006917,Scottish Borders,TD9 0DU,55.41474666,-2.79931854,S02002318,S01012369
7th Hawick Brownies Unit,SC031174,Scottish Borders,TD9 0DE,55.41706398,-2.80085027,S02002318,S01012369
Drumlanrig Out Of School Club Limited,SC033739,Scottish Borders,TD9 0JR,55.41619765,-2.81365966,S02002318,S01012369
Tots Aid,SC050959,Scottish Borders,TD9 0DU,55.41474666,-2.79931854,S02002318,S01012369
Lauder Play Club,SC007224,Scottish Borders,TD2 6RD,55.78666051,-2.79644264,S02002302,S01012299
Oxton War Memorial Hall,SC038442,Scottish Borders,TD2 6PN,55.77209455,-2.80483297,S02002302,S01012299
Lauderdale Scout Group,SC045132,Scottish Borders,TD2 6NZ,55.77129768,-2.80027364,S02002302,S01012299
Lauderdale Community Shed,SC048013,Scottish Borders,TD2 6RA,55.77361228,-2.78410915,S02002302,S01012299
Peebles Baptist Church,SC007561,Scottish Borders,EH45 9BN,55.64195048,-3.18197373,S02002294,S01012257
Innerleithen Pipe Band,SC032804,Scottish Borders,EH45 9AL,55.64349152,-3.18151171,S02002294,S01012257
2nd Peebles Brownie Unit,SC036106,Scottish Borders,EH45 9AH,55.64481145,-3.18161502,S02002294,S01012257
Tweeddale Access Panel,SC039279,Scottish Borders,EH45 9BN,55.64195048,-3.18197373,S02002294,S01012257
Priorsford Primary School PTA,SC047466,Scottish Borders,EH45 9BE,55.64592695,-3.18055223,S02002294,S01012257
Peebles Baptist Church SCIO,SC049084,Scottish Borders,EH45 9BN,55.64195048,-3.18197373,S02002294,S01012257
Swan Youth Trust,SC007622,Scottish Borders,TD11 3LJ,55.80281597,-2.23588021,S02002307,S01012323
Borders Talking Newspapers,SC020192,Scottish Borders,TD11 3LJ,55.80281597,-2.23588021,S02002307,S01012323
Berwickshire Christian Youth Trust,SC026804,Scottish Borders,TD15 1UH,55.79607544,-2.11899279,S02002307,S01012323
Berwickshire Group Riding For The Disabled Association,SC028616,Scottish Borders,TD15 1UF,55.79383708,-2.10010275,S02002307,S01012323
Foulden Village Hall Management Committee,SC033257,Scottish Borders,TD15 1UH,55.79607544,-2.11899279,S02002307,S01012323
Foulden & Mordington King George V Memorial Playing Field Association,SC048518,Scottish Borders,TD15 1XA,55.7982616,-2.08282384,S02002307,S01012323
Studio On The Green,SC007780,Scottish Borders,TD7 5AA,55.54613981,-2.84564695,S02002321,S01012385
Selkirk Tennis Club SCIO,SC045893,Scottish Borders,TD7 5AP,55.54523978,-2.8510478,S02002321,S01012385
Lindean Village Hall,SC048456,Scottish Borders,TD7 5AL,55.54618976,-2.8488178,S02002321,S01012385
Coldingham Public Hall,SC008267,Scottish Borders,TD14 5PX,55.87964251,-2.13779012,S02002305,S01012310
St Abbs Community Trust SCIO,SC022555,Scottish Borders,TD14 5PH,55.89876012,-2.1315573,S02002305,S01012310
St Ebba Episcopal Church: Eyemouth,SC023275,Scottish Borders,TD14 5PX,55.87964251,-2.13779012,S02002305,S01012310
Gunsgreen House Trust,SC028062,Scottish Borders,TD14 5SD,55.87395747,-2.08584614,S02002305,S01012310
East Berwickshire U3a,SC031477,Scottish Borders,TD14 5SG,55.85156897,-2.09553971,S02002305,S01012310
Eyemouth Scout Group,SC035204,Scottish Borders,TD14 5NB,55.88765911,-2.15127972,S02002305,S01012310
The Eyemouth Children's Picnic and Herring Queen Association,SC043450,Scottish Borders,TD14 5SJ,55.84149357,-2.07438906,S02002305,S01012310
Abundant Borders (SCIO),SC049008,Scottish Borders,TD14 5LU,55.83799185,-2.19504287,S02002305,S01012310
Sea the Change,SC050664,Scottish Borders,TD14 5QA,55.88427574,-2.16896273,S02002305,S01012310
Roxburghshire Landward Benevolent Trust,SC008416,Scottish Borders,TD6 0AP,55.57192662,-2.64507633,S02002313,S01012347
Dryburgh District Churches (Church of Scotland),SC010210,Scottish Borders,TD6 0AP,55.57192662,-2.64507633,S02002313,S01012347
Melrose Scout Group,SC042701,Scottish Borders,TD6 0DH,55.56974025,-2.64048922,S02002313,S01012347
Ability Borders,SC045843,Scottish Borders,TD6 0DA,55.57109489,-2.64262047,S02002313,S01012347
Borders District Scout Council,SC008565,Scottish Borders,TD5 7LP,55.60626576,-2.43086656,S02002310,S01012336
Selkirk Scouts Group,SC032773,Scottish Borders,TD5 7LP,55.60626576,-2.43086656,S02002310,S01012336
Ednam Village Hall Trust,SC008753,Scottish Borders,TD5 7PW,55.62793921,-2.42027338,S02002309,S01012332
Stichill Village Hall,SC012362,Scottish Borders,TD5 7TD,55.63877065,-2.45679955,S02002309,S01012332
Whitsome Enhancement Group,SC021104,Scottish Borders,TD5 7RG,55.62933596,-2.41646079,S02002309,S01012332
Kelso Scout Group,SC033954,Scottish Borders,TD5 7TJ,55.64740793,-2.46571869,S02002309,S01012332
Borders Water Rescue Team,SC043718,Scottish Borders,TD5 7RZ,55.64330305,-2.49960591,S02002309,S01012332
Makerstoun Village Hall,SC046426,Scottish Borders,TD5 7PA,55.58347198,-2.52270399,S02002309,S01012332
Borders General Hospital Chaplaincy Centre Trust,SC009130,Scottish Borders,TD4 6DB,55.63861509,-2.67705443,S02002296,S01012270
East Green Nursery And Out Of School Club,SC013907,Scottish Borders,TD4 6HG,55.63870874,-2.67310044,S02002296,S01012270
Earlston Community Development Trust,SC042828,Scottish Borders,TD4 6HW,55.63926021,-2.6692019,S02002296,S01012270
Galashiels Baptist Church,SC009166,Scottish Borders,TD1 3RX,55.60353641,-2.7741249,S02002301,S01012293
1st Tweedbank Guides,SC032651,Scottish Borders,TD1 3SG,55.60449805,-2.76838222,S02002301,S01012293
Borders Additional Needs Group SCIO ,SC049074,Scottish Borders,TD1 3SB,55.6025049,-2.77383477,S02002301,S01012293
Galashiels Baptist Church SCIO,SC051243,Scottish Borders,TD1 3RX,55.60353641,-2.7741249,S02002301,S01012293
The Parish Church of Coldingham & St Abbs [Church of Scotland],SC009185,Scottish Borders,TD14 5UE,55.88920936,-2.16158187,S02002305,S01012311
The Coldingham Society,SC026242,Scottish Borders,TD14 5NE,55.88626968,-2.15589442,S02002305,S01012311
Friends Of Coldingham Priory,SC034929,Scottish Borders,TD14 5UE,55.88920936,-2.16158187,S02002305,S01012311
Kelso Old & Sprouston Parish Church of Scotland,SC010009,Scottish Borders,TD5 7SS,55.60732679,-2.42290993,S02002311,S01012340
Kelso Assembly Trust,SC023202,Scottish Borders,TD5 7RH,55.60560419,-2.41690752,S02002311,S01012340
Kelso Orchard Tennis Club,SC034005,Scottish Borders,TD5 7UH,55.60715612,-2.41765415,S02002311,S01012340
3rd Kelso Rainbow Unit,SC044571,Scottish Borders,TD5 7UF,55.60849571,-2.42266854,S02002311,S01012340
Kelso Men's Shed,SC047275,Scottish Borders,TD5 7PR,55.60620667,-2.42202488,S02002311,S01012340
Eddleston Parish Church of Scotland,SC010081,Scottish Borders,EH45 8QP,55.71238122,-3.20603325,S02002292,S01012247
Eddleston Village Hall,SC035039,Scottish Borders,EH45 8RH,55.7115689,-3.20365259,S02002292,S01012247
Lamancha And District Community Association,SC035299,Scottish Borders,EH46 7BD,55.76150566,-3.26509728,S02002292,S01012247
Friends Of Leadburn Community Woodland,SC037052,Scottish Borders,EH45 8QX,55.7452545,-3.20844923,S02002292,S01012247
Eddleston Out of School Club,SC040349,Scottish Borders,EH45 8RH,55.7115689,-3.20365259,S02002292,S01012247
Roxburgh and Berwickshire Citizens Advice Bureau,SC010123,Scottish Borders,TD9 9EA,55.42136508,-2.7874926,S02002317,S01012363
"Trinity Parish Church, Hawick (Church of Scotland)",SC013892,Scottish Borders,TD9 9JF,55.42225046,-2.78254931,S02002317,S01012363
Hawick Archaeological Society,SC016405,Scottish Borders,TD9 9DG,55.42173602,-2.78849531,S02002317,S01012363
Future Hawick,SC039141,Scottish Borders,TD9 0AL,55.42002201,-2.78953543,S02002317,S01012363
Hawick Men's Shed,SC046858,Scottish Borders,TD9 9HD,55.42264756,-2.78508504,S02002317,S01012363
Live Music Hawick,SC047093,Scottish Borders,TD9 9DG,55.42173602,-2.78849531,S02002317,S01012363
Hawick Common Riding Committee SCIO,SC049647,Scottish Borders,TD9 9HT,55.42350476,-2.78453327,S02002317,S01012363
Coldstream Playgroup And Toddlers,SC010130,Scottish Borders,TD12 4DT,55.65259585,-2.25730237,S02002308,S01012325
Coldstream Rainbow Guides Unit,SC033033,Scottish Borders,TD12 4DT,55.65259585,-2.25730237,S02002308,S01012325
Queen's House (Kelso) Limited,SC010314,Scottish Borders,TD5 7AL,55.59916324,-2.42947147,S02002311,S01012339
Scottish Borders Special Olympics,SC030965,Scottish Borders,TD5 7HH,55.59825594,-2.43450802,S02002311,S01012339
River Tweed Salmon Fishing Museum,SC047856,Scottish Borders,TD5 7BH,55.59776851,-2.43004339,S02002311,S01012339
Kelso Writers,SC049640,Scottish Borders,TD5 7BJ,55.59731379,-2.43159357,S02002311,S01012339
KAOS Musical Theatre Company,SC041681,Scottish Borders,TD5 7DA,55.59997971,-2.43236875,S02002311,S01012339
Oxnam Parish Church of Scotland,SC010593,Scottish Borders,TD8 6DQ,55.47934706,-2.55356871,S02002314,S01012352
Jedforest Instrumental Band,SC029173,Scottish Borders,TD8 6BN,55.47988446,-2.55593371,S02002314,S01012352
Jed Thistle Rugby Football Club SCIO,SC042736,Scottish Borders,TD8 6LP,55.48367963,-2.55323389,S02002314,S01012352
Caddonfoot Parish Hall,SC011574,Scottish Borders,TD1 3AJ,55.61834159,-2.87354256,S02002296,S01012273
Caddonfoot Parent & Toddler Group,SC015517,Scottish Borders,TD1 3NG,55.62098718,-2.87426833,S02002296,S01012273
Skirling Village Hall,SC011580,Scottish Borders,ML12 6HD,55.63834291,-3.46848165,S02002292,S01012248
Pauline Cancer Therapy Fund,SC030390,Scottish Borders,ML12 6HD,55.63834291,-3.46848165,S02002292,S01012248
Broughton Choral Society,SC030502,Scottish Borders,ML12 6HJ,55.62152518,-3.40598255,S02002292,S01012248
Netherurd Memorial Hall,SC036008,Scottish Borders,EH46 7DH,55.68216243,-3.36874557,S02002292,S01012248
Hobkirk & Southdean Parish Church Of Scotland,SC012830,Scottish Borders,TD9 8JS,55.39753224,-2.65374235,S02002315,S01012358
Appletreehall District Public Hall,SC031058,Scottish Borders,TD9 8JP,55.39936597,-2.65530424,S02002315,S01012358
Southdean Hall,SC044518,Scottish Borders,TD9 8TH,55.38812032,-2.5965074,S02002315,S01012358
The William Laidlaw Memorial Hall   ,SC048751,Scottish Borders,TD9 8JS,55.39753224,-2.65374235,S02002315,S01012358
"Greenlaw Parish, Church of Scotland",SC013136,Scottish Borders,TD10 6UP,55.68188897,-2.46452236,S02002303,S01012304
Gordon St Michael's. Church of Scotland,SC022349,Scottish Borders,TD3 6JY,55.68871686,-2.52701866,S02002303,S01012304
Borders Group Of Advanced Motorists,SC023509,Scottish Borders,TD10 6UP,55.68188897,-2.46452236,S02002303,S01012304
Gordon Community Woodland Trust,SC033128,Scottish Borders,TD3 6LN,55.67976759,-2.5673064,S02002303,S01012304
Rhet Scottish Borders Countryside Initiative,SC034241,Scottish Borders,TD3 6JY,55.68871686,-2.52701866,S02002303,S01012304
Gordon Village Hall,SC047182,Scottish Borders,TD3 6JU,55.67957302,-2.5407466,S02002303,S01012304
The Berwickshire Youth Piping and Drumming Foundation ,SC049105,Scottish Borders,TD3 6JU,55.67957302,-2.5407466,S02002303,S01012304
Heiton Village Hall,SC013764,Scottish Borders,TD5 8JR,55.56920562,-2.45689523,S02002312,S01012343
Wooplaw Community Woodlands,SC030590,Scottish Borders,TD8 6TU,55.51769882,-2.56701442,S02002312,S01012343
Small Hall Band,SC031496,Scottish Borders,TD8 6TX,55.51945984,-2.57283638,S02002312,S01012343
2nd Selkirk Brownies,SC035436,Scottish Borders,TD8 6TE,55.52363911,-2.51815608,S02002312,S01012343
Lothian Hall,SC046472,Scottish Borders,TD8 6TW,55.51479762,-2.4964081,S02002312,S01012343
Eckford Village Hall,SC049365,Scottish Borders,TD5 8LG,55.52815015,-2.46194752,S02002312,S01012343
Border Women's Aid Ltd,SC013951,Scottish Borders,TD9 0BN,55.41707636,-2.79066143,S02002318,S01012370
Streets Ahead - Borders,SC015215,Scottish Borders,TD9 0BL,55.41783557,-2.78998152,S02002318,S01012370
Hawick Art Club,SC018197,Scottish Borders,TD9 0DQ,55.41539291,-2.7966778,S02002318,S01012370
2nd Hawick Brownie Unit,SC032103,Scottish Borders,TD9 0DP,55.41455568,-2.79691368,S02002318,S01012370
3rd Hawick Rainbow Unit,SC049743,Scottish Borders,TD9 0DP,55.41455568,-2.79691368,S02002318,S01012370
Eildon Housing Association Ltd,SC015026,Scottish Borders,TD7 5EB,55.5544579,-2.83950061,S02002321,S01012384
Eildon Trust,SC023723,Scottish Borders,TD7 5EB,55.5544579,-2.83950061,S02002321,S01012384
Scottish Borders Housing Association Limited,SC030751,Scottish Borders,TD7 5DT,55.5513079,-2.84675656,S02002321,S01012384
1st Selkirk Rainbow Unit,SC039380,Scottish Borders,TD7 5DE,55.54916595,-2.84333444,S02002321,S01012384
Fresh Start Borders,SC041071,Scottish Borders,TD7 5DZ,55.55337353,-2.84169673,S02002321,S01012384
Nurture the Borders SCIO,SC049971,Scottish Borders,TD7 5DZ,55.55337353,-2.84169673,S02002321,S01012384
Bowden Village Committee,SC015033,Scottish Borders,TD6 0SZ,55.56777616,-2.7068201,S02002320,S01012377
Bowden Public Hall,SC015511,Scottish Borders,TD6 0SZ,55.56777616,-2.7068201,S02002320,S01012377
St Johns Episcopal Church: Jedburgh,SC016786,Scottish Borders,TD6 0SS,55.56668197,-2.70802143,S02002320,S01012377
The Abbotsford Trust,SC037425,Scottish Borders,TD6 9BQ,55.59955016,-2.7820926,S02002320,S01012377
Galashiels and Area Foodbank,SC050850,Scottish Borders,TD6 9BG,55.58776114,-2.79048891,S02002320,S01012377
Berwickshire Agricultural Association,SC016316,Scottish Borders,TD14 5QX,55.84459697,-2.12519374,S02002305,S01012309
Ayton Community Hall Association SCIO,SC037032,Scottish Borders,TD14 5QL,55.84272965,-2.1236707,S02002305,S01012309
Ayton Heritage,SC049592,Scottish Borders,TD14 5QN,55.84262108,-2.12442088,S02002305,S01012309
Ale & Teviot United Church of Scotland,SC016457,Scottish Borders,TD8 6SD,55.4778753,-2.55908544,S02002314,S01012353
New Horizons Borders,SC022641,Scottish Borders,TD8 6AY,55.47724976,-2.5563554,S02002314,S01012353
Roxburgh Federation Of Village And Community Halls,SC028105,Scottish Borders,TD8 6AY,55.47724976,-2.5563554,S02002314,S01012353
Jedburgh Community Trust,SC033300,Scottish Borders,TD8 6AY,55.47724976,-2.5563554,S02002314,S01012353
Jedburgh Leisure Facilities Trust,SC034274,Scottish Borders,TD8 6QH,55.47673941,-2.54998832,S02002314,S01012353
futureKELSO,SC042108,Scottish Borders,TD8 6AY,55.47724976,-2.5563554,S02002314,S01012353
The Jed Shed,SC046349,Scottish Borders,TD8 6BE,55.47725824,-2.55448867,S02002314,S01012353
Cheviot Togs [SCIO],SC051217,Scottish Borders,TD8 6BB,55.47596102,-2.55719154,S02002314,S01012353
Caddonfoot Parish Church of Scotland,SC016990,Scottish Borders,TD1 3LA,55.60456608,-2.89971151,S02002295,S01012262
Traquair Village Hall,SC023066,Scottish Borders,EH44 6PJ,55.60080981,-3.06358968,S02002295,S01012262
Walkerburn Community Development Trust,SC036485,Scottish Borders,EH43 6AA,55.62480598,-3.01323022,S02002295,S01012262
Innerleithen & Walkerburn Community First Responders,SC044511,Scottish Borders,EH44 6JS,55.61878409,-3.05391419,S02002295,S01012262
Jane Campbell Fraser Trust,SC017290,Scottish Borders,TD11 3BX,55.7775835,-2.34360761,S02002304,S01012306
Connect Berwickshire Youth Project,SC020840,Scottish Borders,TD11 3AH,55.77740921,-2.34488144,S02002304,S01012306
Interest Link Borders,SC030132,Scottish Borders,TD11 3AF,55.77660937,-2.34812648,S02002304,S01012306
Duns Senior Section Guide Unit,SC038965,Scottish Borders,TD11 3AF,55.77660937,-2.34812648,S02002304,S01012306
Allsorts Childcare Centre Limited,SC039822,Scottish Borders,TD11 3QG,55.77494119,-2.35335619,S02002304,S01012306
ParentSpace (SCIO),SC049137,Scottish Borders,TD11 3AF,55.77660937,-2.34812648,S02002304,S01012306
Friends of the Berwickshire High School Learning Centre,SC041183,Scottish Borders,TD11 3QG,55.77494119,-2.35335619,S02002304,S01012306
Girlguiding Scottish Borders,SC017416,Scottish Borders,TD6 9RH,55.59361039,-2.72665915,S02002301,S01012291
Darnick Mother And Toddler Group,SC026817,Scottish Borders,TD6 9QH,55.59102693,-2.72743647,S02002301,S01012291
1st Melrose Brownies,SC031435,Scottish Borders,TD6 9RH,55.59361039,-2.72665915,S02002301,S01012291
1st Melrose Guides,SC031436,Scottish Borders,TD6 9RH,55.59361039,-2.72665915,S02002301,S01012291
1st Lauder Guide Unit,SC031923,Scottish Borders,TD6 9RH,55.59361039,-2.72665915,S02002301,S01012291
1st Melrose Rainbows,SC035848,Scottish Borders,TD6 9RH,55.59361039,-2.72665915,S02002301,S01012291
1st Boswells Brownies,SC038034,Scottish Borders,TD6 9RH,55.59361039,-2.72665915,S02002301,S01012291
1st St Boswells Guides,SC038066,Scottish Borders,TD6 9RH,55.59361039,-2.72665915,S02002301,S01012291
Girlguiding Scottish Borders Central District,SC038941,Scottish Borders,TD6 9RH,55.59361039,-2.72665915,S02002301,S01012291
A Greener Melrose,SC041659,Scottish Borders,TD6 9QT,55.59481447,-2.72361884,S02002301,S01012291
Royal British Legion Scotland Selkirk Branch,SC017604,Scottish Borders,TD7 4BZ,55.5480256,-2.84059973,S02002321,S01012381
Rowland's (Selkirk) SCIO,SC025811,Scottish Borders,TD7 4DG,55.54658042,-2.84299378,S02002321,S01012381
Scott's Selkirk Association,SC033918,Scottish Borders,TD7 4BZ,55.5480256,-2.84059973,S02002321,S01012381
3rd Selkirk Guides,SC034277,Scottish Borders,TD7 4LR,55.54766311,-2.83973613,S02002321,S01012381
4th Selkirk Brownie Unit,SC038964,Scottish Borders,TD7 4LB,55.5483846,-2.84197047,S02002321,S01012381
Selkirk Playpark Project,SC043550,Scottish Borders,TD7 4LX,55.54727844,-2.8368592,S02002321,S01012381
Selkirk Camera Club,SC046986,Scottish Borders,TD7 4DD,55.54797517,-2.84009147,S02002321,S01012381
Cockburnspath Marshall Brown Trust Fund,SC019895,Scottish Borders,TD13 5YW,55.92979614,-2.36892928,S02002305,S01012313
Cockburnspath Village Hall ,SC047922,Scottish Borders,TD13 5XY,55.93225226,-2.3648232,S02002305,S01012313
Cockburnspath Allotment Association SCIO,SC048488,Scottish Borders,TD13 5XD,55.93825791,-2.35429838,S02002305,S01012313
St Andrews Church Of Scotland Kenneth Paul Trust: West Linton,SC019967,Scottish Borders,EH46 7EZ,55.75242443,-3.35331252,S02002292,S01012246
West Linton Scout Group,SC036578,Scottish Borders,EH46 7HE,55.75536446,-3.35967664,S02002292,S01012246
Tweed Togs SCIO ,SC048410,Scottish Borders,EH46 7DT,55.75524543,-3.35254976,S02002292,S01012246
Walkerburn Public Hall,SC020747,Scottish Borders,EH43 6AN,55.62300849,-3.01435897,S02002295,S01012263
Home Basics (Tweeddale) Company Limited,SC033827,Scottish Borders,EH43 6AB,55.6228009,-3.01664033,S02002295,S01012263
2nd Innerleithen Brownie Unit,SC038710,Scottish Borders,EH43 6AR,55.62352403,-3.01068805,S02002295,S01012263
Stow Pipe Band,SC020825,Scottish Borders,TD1 2DS,55.61409883,-2.76914157,S02002300,S01012286
Melrose & District Pipes & Drums,SC030737,Scottish Borders,TD1 2DS,55.61409883,-2.76914157,S02002300,S01012286
Borders Street Pastors,SC046473,Scottish Borders,TD1 2LN,55.61242186,-2.77574467,S02002300,S01012286
Drivewise Borders,SC048861,Scottish Borders,TD1 2UH,55.61248183,-2.76907816,S02002300,S01012286
Enable Selkirkshire Branch,SC021050,Scottish Borders,TD1 1JS,55.61463442,-2.81827357,S02002298,S01012280
Fountainhall Public Hall,SC023124,Scottish Borders,TD1 2SY,55.73370359,-2.90866828,S02002296,S01012271
Macfie Hall Committee,SC023992,Scottish Borders,EH38 5YE,55.75900606,-2.98005688,S02002296,S01012271
Stow Kids Club,SC043975,Scottish Borders,TD1 2SU,55.72469501,-2.89591311,S02002296,S01012271
Heriot Country Kids,SC044436,Scottish Borders,EH38 5YE,55.75900606,-2.98005688,S02002296,S01012271
2nd Selkirk Rainbow Unit,SC048616,Scottish Borders,TD1 2QH,55.61244742,-2.76018723,S02002296,S01012271
3 4 5 Playgroup,SC023954,Scottish Borders,TD1 1HH,55.61736377,-2.81726664,S02002298,S01012279
Borderline Mental Health Helpline And Support Service,SC032277,Scottish Borders,TD1 1LY,55.61741868,-2.81980819,S02002298,S01012279
6th Galashiels Brownie Unit,SC036532,Scottish Borders,TD1 1HD,55.6167862,-2.81358697,S02002298,S01012279
Scottish Womens Institutes Peeblesshire Federation,SC025936,Scottish Borders,EH45 8HJ,55.65526229,-3.19642474,S02002293,S01012254
1st Peebles Guides Unit,SC035835,Scottish Borders,EH45 8EU,55.65496132,-3.19872011,S02002293,S01012254
Peebles March Riding and Beltane Queen Festival,SC045406,Scottish Borders,EH45 8EP,55.65496862,-3.19428607,S02002293,S01012254
Peebles Community First Responders ,SC045548,Scottish Borders,EH45 8EU,55.65496132,-3.19872011,S02002293,S01012254
Waverley Housing,SC026231,Scottish Borders,TD9 9PX,55.42711923,-2.78419413,S02002317,S01012366
Hawick Senior Citizens Association,SC032447,Scottish Borders,TD9 9QP,55.42676366,-2.78499293,S02002317,S01012366
YouthBorders,SC037680,Scottish Borders,TD9 9BD,55.42579919,-2.78405736,S02002317,S01012366
Alchemy Film and Arts ,SC042142,Scottish Borders,TD9 9BD,55.42579919,-2.78405736,S02002317,S01012366
Hawick Cycling Club,SC048782,Scottish Borders,TD9 9RE,55.42475125,-2.7863276,S02002317,S01012366
Hawick Ex-Service Association,SC049205,Scottish Borders,TD9 9RE,55.42475125,-2.7863276,S02002317,S01012366
Hornshole Greenway Development Group,SC051068,Scottish Borders,TD9 9BP,55.42346695,-2.78622307,S02002317,S01012366
Peebles Abbeyfield Charitable Trust,SC026925,Scottish Borders,EH45 9LL,55.63884091,-3.10390786,S02002295,S01012261
Peebles Burgh Silver Band,SC042447,Scottish Borders,EH45 9LP,55.63784262,-3.1020052,S02002295,S01012261
Cardrona Brownie Unit,SC043996,Scottish Borders,EH45 9LJ,55.63785241,-3.10491266,S02002295,S01012261
Cardrona Scout Group,SC044079,Scottish Borders,EH45 9LD,55.63885251,-3.10660893,S02002295,S01012261
Cardrona Rainbow Unit,SC044145,Scottish Borders,EH45 9LJ,55.63785241,-3.10491266,S02002295,S01012261
Cardrona Village Association ,SC044438,Scottish Borders,EH45 9LJ,55.63785241,-3.10491266,S02002295,S01012261
Play Borders,SC027933,Scottish Borders,TD1 1QD,55.62128359,-2.82098453,S02002297,S01012276
Scottish Borders Rape Crisis Centre,SC041423,Scottish Borders,TD1 1PW,55.62153175,-2.81746454,S02002297,S01012276
The Rowan Boland Memorial Trust,SC042139,Scottish Borders,TD1 1RP,55.62369736,-2.82816516,S02002297,S01012276
Coldstream Community Trust ,SC027990,Scottish Borders,TD12 4AP,55.65062447,-2.25473107,S02002308,S01012326
Coldstream Outdoor Play Project,SC046747,Scottish Borders,TD12 4BS,55.65005982,-2.25404412,S02002308,S01012326
Lauder Out of School Club (LOSC) (SCIO),SC028184,Scottish Borders,TD2 6QL,55.71959878,-2.75145906,S02002302,S01012298
1st Lauder Rainbows,SC042507,Scottish Borders,TD2 6TF,55.72077953,-2.75086089,S02002302,S01012298
Galashiels Local Relief Fund,SC028263,Scottish Borders,TD1 3TE,55.60411921,-2.7512171,S02002301,S01012295
1st Galashiels Company Girls Brigade,SC033842,Scottish Borders,TD1 3SP,55.60480283,-2.75984885,S02002301,S01012295
Gala Harriers Athletic Club,SC047289,Scottish Borders,TD1 3RS,55.60273796,-2.75665049,S02002301,S01012295
2nd Coldstream Guides,SC030918,Scottish Borders,TD12 4NS,55.65477913,-2.2486555,S02002308,S01012327
Girlguiding Coldstream and Kelso District,SC044750,Scottish Borders,TD12 4NS,55.65477913,-2.2486555,S02002308,S01012327
St Ronans Silver Band,SC031096,Scottish Borders,EH44 6HD,55.61881452,-3.06391846,S02002295,S01012267
Innerleithen And District Amateur Operatic Society,SC032726,Scottish Borders,EH44 6QN,55.61904073,-3.06270193,S02002295,S01012267
St Ronan's Piping Society,SC033114,Scottish Borders,EH44 6QZ,55.61757828,-3.06658423,S02002295,S01012267
2nd Kelso Girl Guides,SC031533,Scottish Borders,TD5 7EP,55.60485715,-2.4403902,S02002310,S01012334
1st Kelso Brownie Unit,SC031732,Scottish Borders,TD5 7NU,55.60683414,-2.440333,S02002310,S01012334
Thomas Maconochie Khs Trust,SC034775,Scottish Borders,TD5 7NL,55.60828361,-2.43703171,S02002310,S01012334
3rd Kelso Brownies Unit,SC031610,Scottish Borders,TD5 7DG,55.60338614,-2.42953351,S02002310,S01012337
2nd Kelso Brownies,SC032019,Scottish Borders,TD5 7JS,55.60414814,-2.43258922,S02002310,S01012337
3rd Jedburgh Brownie Unit,SC032264,Scottish Borders,TD8 6LJ,55.47570425,-2.54638272,S02002314,S01012350
4th Jedburgh Brownies and Rainbows,SC036329,Scottish Borders,TD8 6LA,55.47295829,-2.5475786,S02002314,S01012350
1st Tweedbank Brownies,SC032649,Scottish Borders,TD1 3RG,55.60706468,-2.76746415,S02002301,S01012294
1st Tweedbank Rainbows,SC032652,Scottish Borders,TD1 3ST,55.60608211,-2.76220691,S02002301,S01012294
The Lavender Touch,SC034713,Scottish Borders,TD1 3RU,55.60720917,-2.76591139,S02002301,S01012294
Tweedbank Early Learners (SCIO),SC048586,Scottish Borders,TD1 3RT,55.60593867,-2.76934689,S02002301,S01012294
Jedburgh Out Of School Club,SC032893,Scottish Borders,TD8 6HH,55.47965709,-2.54857337,S02002314,S01012351
Hawick Callants Club David Ferguson Trust,SC032901,Scottish Borders,TD9 7EE,55.42762844,-2.78884979,S02002319,S01012372
Church of Scotland Presbytery of Jedburgh,SC040976,Scottish Borders,TD9 7EE,55.42762844,-2.78884979,S02002319,S01012372
Bedrule Village Hall Trust,SC033123,Scottish Borders,TD9 8TE,55.4523837,-2.63621396,S02002312,S01012341
K.O.S.B. Museum Fund,SC033998,Scottish Borders,TD8 6TF,55.48886384,-2.52895119,S02002312,S01012341
Athletes and Strength Gym,SC041395,Scottish Borders,TD8 6PF,55.44587124,-2.55453827,S02002312,S01012341
The Physiotherapy Trust,SC044175,Scottish Borders,TD8 6SY,55.48067795,-2.59730415,S02002312,S01012341
Oxnam Village Hall SCIO,SC049304,Scottish Borders,TD8 6RB,55.47147762,-2.47392309,S02002312,S01012341
Ettrick and Yarrow Parish (Church of Scotland),SC034662,Scottish Borders,TD7 5HA,55.51373535,-2.90012386,S02002320,S01012378
Kirkhope Parish Hall,SC037192,Scottish Borders,TD7 5JN,55.50887092,-2.97109161,S02002320,S01012378
The Boston Memorial Hall Association,SC039893,Scottish Borders,TD7 5JB,55.41278641,-3.20333182,S02002320,S01012378
Ettrick Forest Sports and Recreation Club,SC042533,Scottish Borders,TD7 5JJ,55.50941419,-2.96830233,S02002320,S01012378
Yarrowford Hall Association,SC035016,Scottish Borders,TD7 5NA,55.56045915,-2.94224,S02002320,S01012379
Borders Energy Agency,SC042947,Scottish Borders,TD1 3PE,55.57239072,-2.82399215,S02002320,S01012379
Yarrow Hall,SC046350,Scottish Borders,TD7 5NE,55.52585642,-3.04189138,S02002320,S01012379
Dumfriesshire East Community Benefit Group SCIO,SC047593,Scottish Borders,TD1 3PE,55.57239072,-2.82399215,S02002320,S01012379
Four Border Abbeys University Of The Third Age - U3a,SC035226,Scottish Borders,TD9 9LX,55.42165817,-2.7796148,S02002317,S01012365
Duns & District Amateur Operatic Society,SC035362,Scottish Borders,TD11 3HL,55.77472946,-2.332647,S02002304,S01012308
Galashiels Scout Group,SC035727,Scottish Borders,TD1 3JX,55.61447979,-2.80907794,S02002298,S01012278
4th Peebles Brownie Pack,SC035909,Scottish Borders,EH45 8DT,55.65880272,-3.19273387,S02002293,S01012252
Peebles Lawn Tennis Club,SC047030,Scottish Borders,EH45 8EG,55.66156339,-3.19437566,S02002293,S01012252
Sportkelso,SC036267,Scottish Borders,TD5 8BA,55.5921588,-2.43593209,S02002309,S01012331
Wilton Dean Hall,SC036394,Scottish Borders,TD9 7JD,55.42163721,-2.80912666,S02002318,S01012368
5th Hawick Rainbow Unit,SC036846,Scottish Borders,TD9 7JD,55.42163721,-2.80912666,S02002318,S01012368
Bill McLaren Park Limited,SC043991,Scottish Borders,TD9 7HS,55.4238843,-2.8035795,S02002318,S01012368
Hawick Camera Club,SC037094,Scottish Borders,TD9 7BU,55.43152104,-2.78857977,S02002319,S01012375
1st Galashiels Boys' Brigade Company,SC037102,Scottish Borders,TD1 3DY,55.60791467,-2.79205315,S02002299,S01012284
Borders Direct Payment Agency,SC039514,Scottish Borders,TD1 3AF,55.61565487,-2.80529172,S02002299,S01012284
Selkirk Regeneration ,SC037397,Scottish Borders,TD7 4LY,55.54664585,-2.83738463,S02002321,S01012382
Argus Playgroup,SC045697,Scottish Borders,TD7 4EP,55.54824471,-2.83087272,S02002321,S01012382
Selkirk Community Shed,SC048681,Scottish Borders,TD7 4EP,55.54824471,-2.83087272,S02002321,S01012382
The Association Of Friends Of The Eastgate Theatre & Arts Centre,SC038370,Scottish Borders,EH45 9DT,55.6474673,-3.19869768,S02002294,S01012258
1st Peebles Rainbows,SC041944,Scottish Borders,EH45 9JS,55.64496952,-3.19682587,S02002294,S01012258
Craigerne Residents Association (2002),SC049797,Scottish Borders,EH45 9HN,55.64166492,-3.19567647,S02002294,S01012258
Darnick Village Development Trust,SC038740,Scottish Borders,TD6 9AX,55.60022828,-2.74239807,S02002301,S01012289
Smith Memorial Hall,SC045313,Scottish Borders,TD6 9AD,55.60181378,-2.7417297,S02002301,S01012289
Gattonside Community Trust,SC047761,Scottish Borders,TD6 9NT,55.60676822,-2.73369619,S02002301,S01012289
Gattonside Village Hall,SC047841,Scottish Borders,TD6 9NS,55.60898216,-2.72403852,S02002301,S01012289
Smith Memorial Hall - Darnick,SC050522,Scottish Borders,TD6 9AD,55.60181378,-2.7417297,S02002301,S01012289
Burnfoot Community Futures,SC040120,Scottish Borders,TD9 8EJ,55.43632027,-2.76726011,S02002316,S01012359
Callum's Trust,SC040344,Scottish Borders,TD1 2BX,55.61166268,-2.77785695,S02002300,S01012287
Galashiels Men's Shed,SC045649,Scottish Borders,TD1 2LP,55.61232101,-2.77321849,S02002300,S01012287
Community Connections,SC040622,Scottish Borders,TD7 5BX,55.55227357,-2.8500427,S02002321,S01012386
Selkirk Community Football Club SCIO,SC049303,Scottish Borders,TD7 5BQ,55.55007285,-2.85638291,S02002321,S01012386
Langlee Residents Association,SC040696,Scottish Borders,TD1 2LB,55.61219744,-2.78418594,S02002300,S01012288
Gr8,SC041223,Scottish Borders,TD10 6XJ,55.70805432,-2.46204799,S02002303,S01012300
Greenlaw Festival Trust,SC041426,Scottish Borders,TD10 6XJ,55.70805432,-2.46204799,S02002303,S01012300
Greenlaw Community First Responders,SC041543,Scottish Borders,TD10 6XB,55.70977741,-2.46020633,S02002303,S01012300
Greenlaw War Memorial Hall (SCIO),SC042903,Scottish Borders,TD10 6YG,55.70817527,-2.45854836,S02002303,S01012300
Heads Together,SC042775,Scottish Borders,TD8 6JX,55.47027504,-2.55081572,S02002314,S01012349
Hope Church Borders,SC044574,Scottish Borders,TD7 4JW,55.55702009,-2.83140671,S02002321,S01012380
Lauder Community and Leisure Centre,SC044865,Scottish Borders,TD2 6SX,55.71869798,-2.74741438,S02002302,S01012296
Works+,SC048445,Scottish Borders,TD1 1DQ,55.61471696,-2.81397277,S02002298,S01012281
1st Clovenfords Guide Unit,SC049608,Scottish Borders,TD1 1TS,55.62898424,-2.84349187,S02002297,S01012277
Jed Hearts Here,SC049923,Scottish Borders,TD5 8JQ,55.59175865,-2.43475351,S02002309,S01012330
Ettrickbridge and Dryden RDA Group,SC050535,Scottish Borders,TD6 0HJ,55.55130013,-2.68564889,S02002313,S01012346
